"salePointName","address","salePointCode","status","openHours__days","openHours__hours","rko","network","openHoursIndividual__days","openHoursIndividual__hours","officeType","salePointFormat","suoAvailability","hasRamp","latitude","longitude","metroStation","distance","kep","myBranch"
"ДО «Солнечногорский» Филиала № 7701 Банка ВТБ (ПАО)","141506, Московская область, г. Солнечногорск, ул. Красная, д. 60","","открытая","пн","09:00-18:00","есть РКО","","пн","09:00-20:00","Да (Зона Привилегия)","Универсальный","Y","N","56.184479","36.984314","null","62105","True","False"
"","","","","вт","09:00-18:00","","","вт","09:00-20:00","","","","","","","","","",""
"","","","","ср","09:00-18:00","","","ср","09:00-20:00","","","","","","","","","",""
"","","","","чт","09:00-18:00","","","чт","09:00-20:00","","","","","","","","","",""
"","","","","пт","09:00-17:00","","","пт","09:00-20:00","","","","","","","","","",""
"","","","","сб","выходной","","","сб","10:00-17:00","","","","","","","","","",""
"","","","","вс","выходной","","","вс","выходной","","","","","","","","","",""
"ДО «На Баранова» Филиала № 7701 Банка ВТБ (ПАО)","141500, Московская область, г. Солнечногорск, ул. Баранова, д. 1, 1-й этаж","","открытая","пн-чт","09:00-18:00","нет РКО","","пн-пт","09:00-20:00","Да","Стандарт","null","null","56.183239","36.9757","null","62343","null","False"
"","","","","пт","09:00-17:00","","","сб","10:00-17:00","","","","","","","","","",""
"","","","","сб,вс","выходной","","","в","выходной","","","","","","","","","",""
"ДО «Лобня» Филиала № 7701 Банка ВТБ (ПАО)","141730, Московская область, г. Лобня, ул. Ленина, д. 9","","открытая","пн","10:00-19:00","есть РКО","","пн","10:00-20:00","Да (Зона Привилегия)","Универсальный","Y","N","56.012386","37.482059","МЦД-1 Белорусско-Савёловский диаметр, станция Лобня","29989","True","False"
"","","","","вт","10:00-19:00","","","вт","10:00-20:00","","","","","","","","","",""
"","","","","ср","10:00-19:00","","","ср","10:00-20:00","","","","","","","","","",""
"","","","","чт","10:00-19:00","","","чт","10:00-20:00","","","","","","","","","",""
"","","","","пт","10:00-18:00","","","пт","10:00-20:00","","","","","","","","","",""
"","","","","сб","выходной","","","сб","10:00-17:00","","","","","","","","","",""
"","","","","вс","выходной","","","вс","выходной","","","","","","","","","",""
"ДО «Черноголовский» Филиала № 7701 Банка ВТБ (ПАО)","142432, Московская область, г. Черноголовка, пр-д Строителей, д. 1б","","открытая","Не обслуживает ЮЛ","null","нет РКО","","пн","10:00-19:00","да","Розничный (РБ)","Y","N","56.011509","38.377728","null","55228","False","False"
"","","","","","","","","вт","10:00-19:00","","","","","","","","","",""
"","","","","","","","","ср","10:00-19:00","","","","","","","","","",""
"","","","","","","","","чт","10:00-19:00","","","","","","","","","",""
"","","","","","","","","пт","10:00-19:00","","","","","","","","","",""
"","","","","","","","","сб","10:00-17:00","","","","","","","","","",""
"","","","","","","","","вс","выходной","","","","","","","","","",""
"ДО «Пушкинский» Филиала № 7701 Банка ВТБ (ПАО)","141207, Московская область, г. Пушкино, ул. Тургенева, д. 24, пом. 018","","открытая","пн","09:00-18:00","есть РКО","","пн","09:00-19:00","Да","Универсальный","Y","Y","56.010849","37.854359","null","32062","True","False"
"","","","","вт","09:00-18:00","","","вт","09:00-19:00","","","","","","","","","",""
"","","","","ср","09:00-18:00","","","ср","09:00-19:00","","","","","","","","","",""
"","","","","чт","09:00-18:00","","","чт","09:00-19:00","","","","","","","","","",""
"","","","","пт","09:00-17:00","","","пт","09:00-19:00","","","","","","","","","",""
"","","","","сб","выходной","","","сб","10:00-17:00","","","","","","","","","",""
"","","","","вс","выходной","","","вс","выходной","","","","","","","","","",""
"ДО ЦИК «Пушкино» Филиала № 7701 Банка ВТБ (ПАО)","141200, Московская область, г. Пушкино, ул. Чехова, д. 14а","","открытая","пн","09:00-18:00","есть РКО","","пн","09:00-19:00","Да (Зона Привилегия)","Универсальный","Y","Y","56.008335","37.851467","null","31732","True","False"
"","","","","вт","09:00-18:00","","","вт","09:00-19:00","","","","","","","","","",""
"","","","","ср","09:00-18:00","","","ср","09:00-19:00","","","","","","","","","",""
"","","","","чт","09:00-18:00","","","чт","09:00-19:00","","","","","","","","","",""
"","","","","пт","09:00-17:00","","","пт","09:00-19:00","","","","","","","","","",""
"","","","","сб","выходной","","","сб","10:00-17:00","","","","","","","","","",""
"","","","","вс","выходной","","","вс","выходной","","","","","","","","","",""
"ДО «Зеленоградский» Филиала № 7701 Банка ВТБ (ПАО)","124498, г. Москва, г. Зеленоград, корп. 401","","открытая","пн","09:00-18:00","есть РКО","","пн","09:00-19:00","Да (Зона Привилегия)","Универсальный","Y","Y","56.000401","37.208775","null","37542","True","False"
"","","","","вт","09:00-18:00","","","вт","09:00-19:00","","","","","","","","","",""
"","","","","ср","09:00-18:00","","","ср","09:00-19:00","","","","","","","","","",""
"","","","","чт","09:00-18:00","","","чт","09:00-19:00","","","","","","","","","",""
"","","","","пт","09:00-17:00","","","пт","09:00-19:00","","","","","","","","","",""
"","","","","сб","выходной","","","сб","10:00-17:00","","","","","","","","","",""
"","","","","вс","выходной","","","вс","выходной","","","","","","","","","",""
"ДО «На Каменке» Филиала № 7701 Банка ВТБ (ПАО)","124365, г. Москва, Зеленоград, ул. Каменка, кор. 1805","","открытая","пн","09:00-18:00","есть РКО","","пн","09:00-20:00","Да (Зона Привилегия)","Универсальный","Y","Y","55.979717","37.162693","null","38013","True","False"
"","","","","вт","09:00-18:00","","","вт","09:00-20:00","","","","","","","","","",""
"","","","","ср","09:00-18:00","","","ср","09:00-20:00","","","","","","","","","",""
"","","","","чт","09:00-18:00","","","чт","09:00-20:00","","","","","","","","","",""
"","","","","пт","09:00-17:00","","","пт","09:00-20:00","","","","","","","","","",""
"","","","","сб","выходной","","","сб","10:00-17:00","","","","","","","","","",""
"","","","","вс","выходной","","","вс","выходной","","","","","","","","","",""
"ДО «Ивантеевский» Филиала № 7701 Банка ВТБ (ПАО)","141280, Московская область, г. Ивантеевка, ул. Дзержинского, д. 11а","","открытая","Не обслуживает ЮЛ","null","нет РКО","","пн","10:00-19:00","Да","Розничный (РБ)","Y","N","55.973255","37.909462","null","30318","False","False"
"","","","","","","","","вт","10:00-19:00","","","","","","","","","",""
"","","","","","","","","ср","10:00-19:00","","","","","","","","","",""
"","","","","","","","","чт","10:00-19:00","","","","","","","","","",""
"","","","","","","","","пт","10:00-19:00","","","","","","","","","",""
"","","","","","","","","сб","10:00-17:00","","","","","","","","","",""
"","","","","","","","","вс","выходной","","","","","","","","","",""
"ДО «Фрязино» Филиала № 7701 Банка ВТБ (ПАО)","141196, Московская область, г. Фрязино, пр-т Мира, д. 17, пом. 13","","открытая","Не обслуживает ЮЛ","null","null","","пн","10:00-19:00","да","Розничный (РБ)","Y","N","55.956615","38.058323","null","35413","False","False"
"","","","","","","","","вт","10:00-19:00","","","","","","","","","",""
"","","","","","","","","ср","10:00-19:00","","","","","","","","","",""
"","","","","","","","","чт","10:00-19:00","","","","","","","","","",""
"","","","","","","","","пт","10:00-19:00","","","","","","","","","",""
"","","","","","","","","сб","10:00-17:00","","","","","","","","","",""
"","","","","","","","","вс","выходной","","","","","","","","","",""
"ДО «Проспект Пацаева» Филиала № 7701 Банка ВТБ (ПАО)","141707, Московская область, г. Долгопрудный, пр-т Пацаева, д. 9","","открытая","пн","10:00-19:00","есть РКО","","пн","10:00-20:00","Да (Зона Привилегия)","Универсальный","Y","N","55.947811","37.499382","null","22827","True","False"
"","","","","вт","10:00-19:00","","","вт","10:00-20:00","","","","","","","","","",""
"","","","","ср","10:00-19:00","","","ср","10:00-20:00","","","","","","","","","",""
"","","","","чт","10:00-19:00","","","чт","10:00-20:00","","","","","","","","","",""
"","","","","пт","10:00-18:00","","","пт","10:00-20:00","","","","","","","","","",""
"","","","","сб","выходной","","","сб","10:00-17:00","","","","","","","","","",""
"","","","","вс","выходной","","","вс","выходной","","","","","","","","","",""
"ДО «Долгопрудный» Филиала № 7701 Банка ВТБ (ПАО)","141707, Московская область, г. Долгопрудный, ул. Первомайская, д. 33, пом. 5","","открытая","пн","10:00-19:00","есть РКО","","пн","10:00-19:00","Да","Универсальный","Y","Y","55.939659","37.516071","МЦД-1 Белорусско-Савёловский диаметр, станция Долгопрудная","21638","True","False"
"","","","","вт","10:00-19:00","","","вт","10:00-19:00","","","","","","","","","",""
"","","","","ср","10:00-19:00","","","ср","10:00-19:00","","","","","","","","","",""
"","","","","чт","10:00-19:00","","","чт","10:00-19:00","","","","","","","","","",""
"","","","","пт","10:00-18:00","","","пт","10:00-19:00","","","","","","","","","",""
"","","","","сб","выходной","","","сб","выходной","","","","","","","","","",""
"","","","","вс","выходной","","","вс","выходной","","","","","","","","","",""
"ДО «Площадь Ленина» Филиала № 7701 Банка ВТБ (ПАО)","141100, Московская область, г. Щелково, пл.Ленина, д.5","","открытая","Не обслуживает ЮЛ","null","нет РКО","","пн-пт","10:00-19:00","Да","Стандарт","null","null","55.922783","37.991207","null","29797","null","False"
"","","","","","","","","сб,вс","выходной","","","","","","","","","",""
"ДО «Проспект Королева» Филиала № 7701 Банка ВТБ (ПАО)","141078, Московская область, г. Королев, пр-т Королева д. 5Д, кор. 1, помещение 01","","открытая","пн","09:00-18:00","есть РКО","","пн","09:00-20:00","Да (Зона Привилегия)","Универсальный","Y","Y","55.921768","37.844116","null","23297","True","False"
"","","","","вт","09:00-18:00","","","вт","09:00-20:00","","","","","","","","","",""
"","","","","ср","09:00-18:00","","","ср","09:00-20:00","","","","","","","","","",""
"","","","","чт","09:00-18:00","","","чт","09:00-20:00","","","","","","","","","",""
"","","","","пт","09:00-17:00","","","пт","09:00-20:00","","","","","","","","","",""
"","","","","сб","выходной","","","сб","10:00-17:00","","","","","","","","","",""
"","","","","вс","выходной","","","вс","выходной","","","","","","","","","",""
"ДО «Мытищинский» Филиала № 7701 Банка ВТБ (ПАО)","141006, Московская область, г. Мытищи, ул. Воровского, д. 1, пом. V","","открытая","пн","09:00-18:00","есть РКО","","пн","09:00-20:00","Да (Зона Привилегия)","Универсальный","Y","N","55.918736","37.761627","null","20320","True","False"
"","","","","вт","09:00-18:00","","","вт","09:00-20:00","","","","","","","","","",""
"","","","","ср","09:00-18:00","","","ср","09:00-20:00","","","","","","","","","",""
"","","","","чт","09:00-18:00","","","чт","09:00-20:00","","","","","","","","","",""
"","","","","пт","09:00-17:00","","","пт","09:00-20:00","","","","","","","","","",""
"","","","","сб","выходной","","","сб","10:00-17:00","","","","","","","","","",""
"","","","","вс","выходной","","","вс","выходной","","","","","","","","","",""
"ДО «Щелковский» Филиала № 7701 Банка ВТБ (ПАО)","141100, Московская область, г. Щелково, Пролетарский просп., д. 7","","открытая","пн","09:00-18:00","есть РКО","","пн","09:00-20:00","Да","Универсальный","Y","Y","55.917068","37.995396","null","29609","True","False"
"","","","","вт","09:00-18:00","","","вт","09:00-20:00","","","","","","","","","",""
"","","","","ср","09:00-18:00","","","ср","09:00-20:00","","","","","","","","","",""
"","","","","чт","09:00-18:00","","","чт","09:00-20:00","","","","","","","","","",""
"","","","","пт","09:00-17:00","","","пт","09:00-20:00","","","","","","","","","",""
"","","","","сб","выходной","","","сб","10:00-17:00","","","","","","","","","",""
"","","","","вс","выходной","","","вс","выходной","","","","","","","","","",""
"ДО «На Краснознаменской» Филиала № 7701 Банка ВТБ (ПАО)","141100, Московская область, г. Щелково, ул. Краснознаменская, д. 6","","открытая","пн","09:00-18:00","есть РКО","","пн","09:00-20:00","Да (Зона Привилегия)","Универсальный","Y","Y","55.915436","37.996597","null","29558","True","False"
"","","","","вт","09:00-18:00","","","вт","09:00-20:00","","","","","","","","","",""
"","","","","ср","09:00-18:00","","","ср","09:00-20:00","","","","","","","","","",""
"","","","","чт","09:00-18:00","","","чт","09:00-20:00","","","","","","","","","",""
"","","","","пт","09:00-17:00","","","пт","09:00-20:00","","","","","","","","","",""
"","","","","сб","выходной","","","сб","10:00-17:00","","","","","","","","","",""
"","","","","вс","выходной","","","вс","выходной","","","","","","","","","",""
"ДО «Истринский» Филиала № 7701 Банка ВТБ (ПАО)","143500, Московская область, г. Истра, ул. Ленина, д. 75","","открытая","пн","09:00-18:00","есть РКО","","пн","09:00-19:00","Да (Зона Привилегия)","Универсальный","Y","N","55.915363","36.859612","null","50779","False","False"
"","","","","вт","09:00-18:00","","","вт","09:00-19:00","","","","","","","","","",""
"","","","","ср","09:00-18:00","","","ср","09:00-19:00","","","","","","","","","",""
"","","","","чт","09:00-18:00","","","чт","09:00-19:00","","","","","","","","","",""
"","","","","пт","09:00-17:00","","","пт","09:00-19:00","","","","","","","","","",""
"","","","","сб","выходной","","","сб","10:00-17:00","","","","","","","","","",""
"","","","","вс","выходной","","","вс","выходной","","","","","","","","","",""
"ДО «Проспект Космонавтов» Филиала № 7701 Банка ВТБ (ПАО)","141080, Московская область, г. Королев, пр-т Космонавтов, д. 29/12, корп. 1, пом. I","","открытая","пн","09:00-18:00","есть РКО","","пн","09:00-20:00","Да (Зона Привилегия)","Универсальный","Y","Y","55.912254","37.868309","null","23430","True","False"
"","","","","вт","09:00-18:00","","","вт","09:00-20:00","","","","","","","","","",""
"","","","","ср","09:00-18:00","","","ср","09:00-20:00","","","","","","","","","",""
"","","","","чт","09:00-18:00","","","чт","09:00-20:00","","","","","","","","","",""
"","","","","пт","09:00-17:00","","","пт","09:00-20:00","","","","","","","","","",""
"","","","","сб","выходной","","","сб","10:00-17:00","","","","","","","","","",""
"","","","","вс","выходной","","","вс","выходной","","","","","","","","","",""
"ДО «Новомытищинский» Филиала № 7701 Банка ВТБ (ПАО)","141008, Московская область, г.Мытищи, Новомытищинский пр-т, д. 30/1, помещение 1","","открытая","Не обслуживает ЮЛ","null","нет РКО","","пн","10:00-19:00","Да (Зона Привилегия)","Розничный (РБ)","Y","Y","55.911961","37.738522","null","19041","False","False"
"","","","","","","","","вт","10:00-19:00","","","","","","","","","",""
"","","","","","","","","ср","10:00-19:00","","","","","","","","","",""
"","","","","","","","","чт","10:00-19:00","","","","","","","","","",""
"","","","","","","","","пт","10:00-19:00","","","","","","","","","",""
"","","","","","","","","сб","10:00-17:00","","","","","","","","","",""
"","","","","","","","","вс","выходной","","","","","","","","","",""
"ДО «Королевский» Филиала № 7701 Банка ВТБ (ПАО)","141070, Московская область, г. Королев, пр-т Космонавтов, д. 33, корп. 1","","открытая","пн-чт","09:00-18:00","есть РКО","","пн-пт","09:00-18:00","Да","Универсальный","Y","N","55.910648","37.867706","null","23271","null","False"
"","","","","пт","09:00-17:00","","","сб,вс","выходной","","","","","","","","","",""
"","","","","сб,вс","выходной","","","","","","","","","","","","","",""
"ДО «Новомытищинский, 78» Филиала № 7701 Банка ВТБ (ПАО)","141018, Московская область, г. Мытищи, пр-т Новомытищинский, д.78","","открытая","пн-чт","09:00-18:00","нет РКО","","пн-пт","09:00-19:00","Да","Стандарт","null","null","55.904148","37.72485","null","17915","null","False"
"","","","","пт","09:00-16:00","","","сб","09:30-15:30","","","","","","","","","",""
"","","","","сб,вс","выходной","","","вс","выходной","","","","","","","","","",""
"ДО «ЦИК «Мытищи» Филиала № 7701 Банка ВТБ (ПАО)","141000, Московская область, г. Мытищи, ул. Сукромка, стр. 7","","открытая","пн","09:00-18:00","есть РКО","","пн","09:00-20:00","Да (Зона Привилегия)","Универсальный","Y","Y","55.903538","37.71344","null","17604","True","False"
"","","","","вт","09:00-18:00","","","вт","09:00-20:00","","","","","","","","","",""
"","","","","ср","09:00-18:00","","","ср","09:00-20:00","","","","","","","","","",""
"","","","","чт","09:00-18:00","","","чт","09:00-20:00","","","","","","","","","",""
"","","","","пт","09:00-17:00","","","пт","09:00-20:00","","","","","","","","","",""
"","","","","сб","выходной","","","сб","10:00-17:00","","","","","","","","","",""
"","","","","вс","выходной","","","вс","выходной","","","","","","","","","",""
"ДО «Новокуркино» Филиала № 7701 Банка ВТБ (ПАО)","141410, Московская область, г. Химки, пр-т Мельникова, д. 2-Б, пом. III","","открытая","пн","10:00-19:00","есть РКО","","пн","10:00-19:00","Да (Зона Привилегия)","Универсальный","Y","N","55.901184","37.407536","null","21078","True","False"
"","","","","вт","10:00-19:00","","","вт","10:00-19:00","","","","","","","","","",""
"","","","","ср","10:00-19:00","","","ср","10:00-19:00","","","","","","","","","",""
"","","","","чт","10:00-19:00","","","чт","10:00-19:00","","","","","","","","","",""
"","","","","пт","10:00-18:00","","","пт","10:00-19:00","","","","","","","","","",""
"","","","","сб","выходной","","","сб","выходной","","","","","","","","","",""
"","","","","вс","выходной","","","вс","выходной","","","","","","","","","",""
"ДО «Алтуфьево» Филиала № 7701 Банка ВТБ (ПАО)","127349, г. Москва, Алтуфьевское шоссе, д. 90","","открытая","пн","10:00-19:00","есть РКО","","пн","10:00-20:00","Да (Зона Привилегия)","Универсальный","Y","N","55.900169","37.588306","Москва, Серпуховско-Тимирязевская линия, метро Алтуфьево","16366","False","False"
"","","","","вт","10:00-19:00","","","вт","10:00-20:00","","","","","","","","","",""
"","","","","ср","10:00-19:00","","","ср","10:00-20:00","","","","","","","","","",""
"","","","","чт","10:00-19:00","","","чт","10:00-20:00","","","","","","","","","",""
"","","","","пт","10:00-18:00","","","пт","10:00-20:00","","","","","","","","","",""
"","","","","сб","выходной","","","сб","10:00-17:00","","","","","","","","","",""
"","","","","вс","выходной","","","вс","выходной","","","","","","","","","",""
"ДО «ЦИК «Химки-Правобережный» Филиала № 7701 Банка ВТБ (ПАО)","141400, Московская область, г. Химки, ул. Пролетарская, д. 8, стр. 1","","открытая","пн","10:00-19:00","есть РКО","","пн","10:00-20:00","Да (Зона Привилегия)","Универсальный","Y","Y","55.892334","37.440552","null","19039","True","False"
"","","","","вт","10:00-19:00","","","вт","10:00-20:00","","","","","","","","","",""
"","","","","ср","10:00-19:00","","","ср","10:00-20:00","","","","","","","","","",""
"","","","","чт","10:00-19:00","","","чт","10:00-20:00","","","","","","","","","",""
"","","","","пт","10:00-18:00","","","пт","10:00-20:00","","","","","","","","","",""
"","","","","сб","выходной","","","сб","10:00-17:00","","","","","","","","","",""
"","","","","вс","выходной","","","вс","выходной","","","","","","","","","",""
"ДО «На Машинцева» Филиала № 7701 Банка ВТБ (ПАО)","141407, Московская область, г. Химки, ул. Машинцева, строен. 5Б","","открытая","пн","09:00-18:00","есть РКО","","пн","09:00-19:00","Да","Универсальный","Y","N","55.890957","37.407825","null","20197","False","False"
"","","","","вт","09:00-18:00","","","вт","09:00-19:00","","","","","","","","","",""
"","","","","ср","09:00-18:00","","","ср","09:00-19:00","","","","","","","","","",""
"","","","","чт","09:00-18:00","","","чт","09:00-19:00","","","","","","","","","",""
"","","","","пт","09:00-17:00","","","пт","09:00-19:00","","","","","","","","","",""
"","","","","сб","выходной","","","сб","выходной","","","","","","","","","",""
"","","","","вс","выходной","","","вс","выходной","","","","","","","","","",""
"ДО «Химки» Филиала № 7701 Банка ВТБ (ПАО)","141400, Московская область, г. Химки, Химки-центр, Ленинградское ш., вл. 5","","открытая","пн","10:00-19:00","есть РКО","","пн","10:00-20:00","Да (Зона Привилегия)","Универсальный","Y","N","55.888763","37.433525","null","18987","True","False"
"","","","","вт","10:00-19:00","","","вт","10:00-20:00","","","","","","","","","",""
"","","","","ср","10:00-19:00","","","ср","10:00-20:00","","","","","","","","","",""
"","","","","чт","10:00-19:00","","","чт","10:00-20:00","","","","","","","","","",""
"","","","","пт","10:00-18:00","","","пт","10:00-20:00","","","","","","","","","",""
"","","","","сб","выходной","","","сб","10:00-17:00","","","","","","","","","",""
"","","","","вс","выходной","","","вс","выходной","","","","","","","","","",""
"ДО «Медведково» Филиала № 7701 Банка ВТБ (ПАО)","127224, г. Москва, ул. Широкая, д.13а","","открытая","пн","10:00-19:00","есть РКО","","пн","10:00-20:00","Да (Зона Привилегия)","Универсальный","Y","N","55.888107","37.66246","Москва, Калужско-Рижская линия, метро Медведково","15131","True","False"
"","","","","вт","10:00-19:00","","","вт","10:00-20:00","","","","","","","","","",""
"","","","","ср","10:00-19:00","","","ср","10:00-20:00","","","","","","","","","",""
"","","","","чт","10:00-19:00","","","чт","10:00-20:00","","","","","","","","","",""
"","","","","пт","10:00-18:00","","","пт","10:00-20:00","","","","","","","","","",""
"","","","","сб","выходной","","","сб","10:00-17:00","","","","","","","","","",""
"","","","","вс","выходной","","","вс","выходной","","","","","","","","","",""
"ДО «Бибирево» Филиала № 7701 Банка ВТБ (ПАО)","127549, г. Москва, ул. Пришвина, д. 23","","открытая","пн","10:00-19:00","есть РКО","","пн","10:00-19:00","Да (Зона Привилегия)","Универсальный","Y","Y","55.885498","37.604683","Москва, Серпуховско-Тимирязевская линия, метро Бибирево","14645","True","False"
"","","","","вт","10:00-19:00","","","вт","10:00-19:00","","","","","","","","","",""
"","","","","ср","10:00-19:00","","","ср","10:00-19:00","","","","","","","","","",""
"","","","","чт","10:00-19:00","","","чт","10:00-19:00","","","","","","","","","",""
"","","","","пт","10:00-18:00","","","пт","10:00-19:00","","","","","","","","","",""
"","","","","сб","выходной","","","сб","10:00-17:00","","","","","","","","","",""
"","","","","вс","выходной","","","вс","выходной","","","","","","","","","",""
"ДО «Бабушкинский» Филиала № 7701 Банка ВТБ (ПАО)","129327, г. Москва, ул. Менжинского, д. 21","","открытая","пн","10:00-19:00","есть РКО","","пн","10:00-20:00","Да","Универсальный","Y","N","55.868855","37.667446","Москва, Калужско-Рижская линия, метро Бабушкинская","13095","True","False"
"","","","","вт","10:00-19:00","","","вт","10:00-20:00","","","","","","","","","",""
"","","","","ср","10:00-19:00","","","ср","10:00-20:00","","","","","","","","","",""
"","","","","чт","10:00-19:00","","","чт","10:00-20:00","","","","","","","","","",""
"","","","","пт","10:00-18:00","","","пт","10:00-20:00","","","","","","","","","",""
"","","","","сб","выходной","","","сб","10:00-17:00","","","","","","","","","",""
"","","","","вс","выходной","","","вс","выходной","","","","","","","","","",""
"ДО «На Енисейской» Филиала № 7701 Банка ВТБ (ПАО)","129327, г. Москва, ул. Енисейская, д.11","","открытая","пн","10:00-19:00","есть РКО","","пн","10:00-19:00","Да (Зона Привилегия)","Универсальный","Y","N","55.865288","37.661438","Москва, Калужско-Рижская линия, метро Бабушкинская","12627","True","False"
"","","","","вт","10:00-19:00","","","вт","10:00-19:00","","","","","","","","","",""
"","","","","ср","10:00-19:00","","","ср","10:00-19:00","","","","","","","","","",""
"","","","","чт","10:00-19:00","","","чт","10:00-19:00","","","","","","","","","",""
"","","","","пт","10:00-18:00","","","пт","10:00-19:00","","","","","","","","","",""
"","","","","сб","выходной","","","сб","выходной","","","","","","","","","",""
"","","","","вс","выходной","","","вс","выходной","","","","","","","","","",""
"ДО «Планерный» Филиала № 7701 Банка ВТБ (ПАО)","125480, г. Москва, ул. Планерная, д. 7, корп. 1","","открытая","пн","10:00-19:00","есть РКО","","пн","10:00-19:00","Да","Универсальный","Y","Y","55.863358","37.43351","Москва, Таганско-Краснопресненская линия, метро Планерная","16852","False","False"
"","","","","вт","10:00-19:00","","","вт","10:00-19:00","","","","","","","","","",""
"","","","","ср","10:00-19:00","","","ср","10:00-19:00","","","","","","","","","",""
"","","","","чт","10:00-19:00","","","чт","10:00-19:00","","","","","","","","","",""
"","","","","пт","10:00-18:00","","","пт","10:00-19:00","","","","","","","","","",""
"","","","","сб","выходной","","","сб","выходной","","","","","","","","","",""
"","","","","вс","выходной","","","вс","выходной","","","","","","","","","",""
"ДО «Отрадное» Филиала № 7701 Банка ВТБ (ПАО)","127273, г. Москва, ул. Декабристов, д. 20, корп. 2","","открытая","пн","10:00-19:00","есть РКО","","пн","10:00-19:00","Да (Зона Привилегия)","Универсальный","Y","Y","55.862343","37.608948","Москва, Серпуховско-Тимирязевская линия, метро Отрадное","12058","True","False"
"","","","","вт","10:00-19:00","","","вт","10:00-19:00","","","","","","","","","",""
"","","","","ср","10:00-19:00","","","ср","10:00-19:00","","","","","","","","","",""
"","","","","чт","10:00-19:00","","","чт","10:00-19:00","","","","","","","","","",""
"","","","","пт","10:00-18:00","","","пт","10:00-19:00","","","","","","","","","",""
"","","","","сб","выходной","","","сб","10:00-17:00","","","","","","","","","",""
"","","","","вс","выходной","","","вс","выходной","","","","","","","","","",""
"ДО «Дедовский» Филиала № 7701 Банка ВТБ (ПАО)","143530, Московская область, Истринский р-н, г. Дедовск, ул. Гагарина, д. 9","","открытая","пн","09:00-18:00","есть РКО","","пн","09:00-18:00","Да","Универсальный","Y","Y","55.859764","37.121326","null","33327","True","False"
"","","","","вт","09:00-18:00","","","вт","09:00-18:00","","","","","","","","","",""
"","","","","ср","09:00-18:00","","","ср","09:00-18:00","","","","","","","","","",""
"","","","","чт","09:00-18:00","","","чт","09:00-18:00","","","","","","","","","",""
"","","","","пт","09:00-17:00","","","пт","09:00-18:00","","","","","","","","","",""
"","","","","сб","выходной","","","сб","выходной","","","","","","","","","",""
"","","","","вс","выходной","","","вс","выходной","","","","","","","","","",""
"ДО «На Лавочкина» Филиала № 7701 Банка ВТБ (ПАО)","125581, г. Москва, ул. Лавочкина, д. 34","","открытая","Не обслуживает ЮЛ","null","нет РКО","","пн","10:00-20:00","Да","Розничный (РБ)","Y","Y","55.856342","37.493847","null","13850","False","False"
"","","","","","","","","вт","10:00-20:00","","","","","","","","","",""
"","","","","","","","","ср","10:00-20:00","","","","","","","","","",""
"","","","","","","","","чт","10:00-20:00","","","","","","","","","",""
"","","","","","","","","пт","10:00-20:00","","","","","","","","","",""
"","","","","","","","","сб","10:00-17:00","","","","","","","","","",""
"","","","","","","","","вс","10:00-17:00","","","","","","","","","",""
"ДО «Верхние Лихоборы» Филиала № 7701 Банка ВТБ (ПАО)","127474, г. Москва, Дмитровское ш., д. 64, кор. 1","","открытая","пн","09:00-18:00","есть РКО","","пн","09:00-21:00","Да (Зона Привилегия)","Универсальный","Y","Y","55.855362","37.562981","Москва, Люблинско-Дмитровская линия, метро Верхние Лихоборы","11819","True","False"
"","","","","вт","09:00-18:00","","","вт","09:00-21:00","","","","","","","","","",""
"","","","","ср","09:00-18:00","","","ср","09:00-21:00","","","","","","","","","",""
"","","","","чт","09:00-18:00","","","чт","09:00-21:00","","","","","","","","","",""
"","","","","пт","09:00-17:00","","","пт","09:00-21:00","","","","","","","","","",""
"","","","","сб","выходной","","","сб","10:00-19:00","","","","","","","","","",""
"","","","","вс","выходной","","","вс","выходной","","","","","","","","","",""
"ДО «Свиблово» Филиала № 7701 Банка ВТБ (ПАО)","129323, г. Москва, ул. Снежная, д. 26","","открытая","пн","10:00-19:00","есть РКО","","пн","10:00-19:00","Да (Зона Привилегия)","Универсальный","Y","N","55.854996","37.653389","Москва, Калужско-Рижская линия, метро Свиблово","11408","True","False"
"","","","","вт","10:00-19:00","","","вт","10:00-19:00","","","","","","","","","",""
"","","","","ср","10:00-19:00","","","ср","10:00-19:00","","","","","","","","","",""
"","","","","чт","10:00-19:00","","","чт","10:00-19:00","","","","","","","","","",""
"","","","","пт","10:00-18:00","","","пт","10:00-19:00","","","","","","","","","",""
"","","","","сб","выходной","","","сб","выходной","","","","","","","","","",""
"","","","","вс","выходной","","","вс","выходной","","","","","","","","","",""
"ДО «Химкинский бульвар» Филиала № 7701 Банка ВТБ (ПАО)","125373, г. Москва, Химкинский бульвар, д. 16, корп. 1","","открытая","пн","10:00-19:00","есть РКО","","пн","10:00-20:00","Да (Зона Привилегия)","Универсальный","Y","N","55.851986","37.443012","Москва, Таганско-Краснопресненская линия, метро Сходненская","15537","True","False"
"","","","","вт","10:00-19:00","","","вт","10:00-20:00","","","","","","","","","",""
"","","","","ср","10:00-19:00","","","ср","10:00-20:00","","","","","","","","","",""
"","","","","чт","10:00-19:00","","","чт","10:00-20:00","","","","","","","","","",""
"","","","","пт","10:00-18:00","","","пт","10:00-20:00","","","","","","","","","",""
"","","","","сб","выходной","","","сб","10:00-17:00","","","","","","","","","",""
"","","","","вс","выходной","","","вс","выходной","","","","","","","","","",""
"ДО «Митинский» Филиала № 7701 Банка ВТБ (ПАО)","125368, г. Москва, ул. Митинская, д. 35","","открытая","пн","10:00-19:00","есть РКО","","пн","10:00-20:00","Да (Зона Привилегия)","Универсальный","Y","N","55.848015","37.355202","Москва, Арбатско-Покровская линия, метро Митино","19591","True","False"
"","","","","вт","10:00-19:00","","","вт","10:00-20:00","","","","","","","","","",""
"","","","","ср","10:00-19:00","","","ср","10:00-20:00","","","","","","","","","",""
"","","","","чт","10:00-19:00","","","чт","10:00-20:00","","","","","","","","","",""
"","","","","пт","10:00-18:00","","","пт","10:00-20:00","","","","","","","","","",""
"","","","","сб","выходной","","","сб","10:00-17:00","","","","","","","","","",""
"","","","","вс","выходной","","","вс","выходной","","","","","","","","","",""
"ДО «Ботанический сад» Филиала № 7701 Банка ВТБ (ПАО)","129323, г. Москва, Лазоревый пр., д. 1А, корп. 2","","открытая","Не обслуживает ЮЛ","null","null","","пн","10:00-19:00","да","Микро (РБ)","Y","N","55.847332","37.638512","Москва, Московское центральное кольцо, станция Ботанический сад","10429","False","False"
"","","","","","","","","вт","10:00-19:00","","","","","","","","","",""
"","","","","","","","","ср","10:00-19:00","","","","","","","","","",""
"","","","","","","","","чт","10:00-19:00","","","","","","","","","",""
"","","","","","","","","пт","10:00-19:00","","","","","","","","","",""
"","","","","","","","","сб","выходной","","","","","","","","","",""
"","","","","","","","","вс","выходной","","","","","","","","","",""
"ДО «Митино» Филиала № 7701 Банка ВТБ (ПАО)","125430, г. Москва, ул. Митинская, д. 36, корп. 2","","открытая","пн","10:00-19:00","есть РКО","","пн","10:00-20:00","Да (Зона Привилегия)","Универсальный","Y","Y","55.847076","37.362152","Москва, Арбатско-Покровская линия, метро Митино","19168","True","False"
"","","","","вт","10:00-19:00","","","вт","10:00-20:00","","","","","","","","","",""
"","","","","ср","10:00-19:00","","","ср","10:00-20:00","","","","","","","","","",""
"","","","","чт","10:00-19:00","","","чт","10:00-20:00","","","","","","","","","",""
"","","","","пт","10:00-18:00","","","пт","10:00-20:00","","","","","","","","","",""
"","","","","сб","выходной","","","сб","10:00-17:00","","","","","","","","","",""
"","","","","вс","выходной","","","вс","выходной","","","","","","","","","",""
"ДО «Парус» Филиала № 7701 Банка ВТБ (ПАО)","127238, г. Москва, Локомотивный проезд, д. 4","","открытая","Не обслуживает ЮЛ","null","нет РКО","","пн-пт","09:00-20:00","Да","Мини_расш","Y","N","55.838001","37.576862","null","9719","null","False"
"","","","","","","","","сб","10:00-17:00","","","","","","","","","",""
"","","","","","","","","вс","выходной","","","","","","","","","",""
"ДО «Невский» Филиала № 7701 Банка ВТБ (ПАО)","125212, г. Москва, ул. Адмирала Макарова, д. 6, стр. 13","","открытая","пн","09:00-18:00","есть РКО","","пн","09:00-20:00","Да (Зона Привилегия)","Универсальный","Y","N","55.835659","37.490498","Москва, Замоскворецкая линия, метро Водный стадион","12174","True","False"
"","","","","вт","09:00-18:00","","","вт","09:00-20:00","","","","","","","","","",""
"","","","","ср","09:00-18:00","","","ср","09:00-20:00","","","","","","","","","",""
"","","","","чт","09:00-18:00","","","чт","09:00-20:00","","","","","","","","","",""
"","","","","пт","09:00-17:00","","","пт","09:00-20:00","","","","","","","","","",""
"","","","","сб","выходной","","","сб","выходной","","","","","","","","","",""
"","","","","вс","выходной","","","вс","выходной","","","","","","","","","",""
"ДО «Красногорский» Филиала № 7701 Банка ВТБ ПАО)","143400, Московская область, г. Красногорск, ул. Ленина, д. 38б","","открытая","пн","09:00-18:00","есть РКО","","пн","09:00-20:00","Да (Зона Привилегия)","Универсальный","Y","N","55.833855","37.298939","null","21965","False","False"
"","","","","вт","09:00-18:00","","","вт","09:00-20:00","","","","","","","","","",""
"","","","","ср","09:00-18:00","","","ср","09:00-20:00","","","","","","","","","",""
"","","","","чт","09:00-18:00","","","чт","09:00-20:00","","","","","","","","","",""
"","","","","пт","09:00-17:00","","","пт","09:00-20:00","","","","","","","","","",""
"","","","","сб","выходной","","","сб","10:00-17:00","","","","","","","","","",""
"","","","","вс","выходной","","","вс","выходной","","","","","","","","","",""
"ДО «На Ленина» Филиала № 7701 Банка ВТБ (ПАО)","143400, Московская область, г. Красногорск, ул. Ленина, д.38б","","открытая","пн-чт","09:00-18:00","нет РКО","","пн-пт","09:00-20:00","Да","Стандарт","null","null","55.833855","37.298939","null","21965","null","False"
"","","","","пт","09:00-17:00","","","сб","10:00-17:00","","","","","","","","","",""
"","","","","сб,вс","выходной","","","в","выходной","","","","","","","","","",""
"ДО «Северо-Западный» Филиала № 7701 Банка ВТБ (ПАО)","123362, г. Москва, ул. Свободы, д. 13/2, стр. 1А","","открытая","пн","10:00-19:00","есть РКО","","пн","10:00-19:00","Да (Зона Привилегия)","Универсальный","Y","N","55.829266","37.451313","null","13476","True","False"
"","","","","вт","10:00-19:00","","","вт","10:00-19:00","","","","","","","","","",""
"","","","","ср","10:00-19:00","","","ср","10:00-19:00","","","","","","","","","",""
"","","","","чт","10:00-19:00","","","чт","10:00-19:00","","","","","","","","","",""
"","","","","пт","10:00-18:00","","","пт","10:00-19:00","","","","","","","","","",""
"","","","","сб","выходной","","","сб","10:00-17:00","","","","","","","","","",""
"","","","","вс","выходной","","","вс","выходной","","","","","","","","","",""
"ДО «Подмосковный» Филиала № 7701 Банка ВТБ (ПАО)","143404, Московская область, г. Красногорск, ул. Ленина, д. 25а","","открытая","пн","09:00-18:00","есть РКО","","пн","09:00-20:00","Да (Зона Привилегия)","Универсальный","Y","N","55.827133","37.312019","null","20920","False","False"
"","","","","вт","09:00-18:00","","","вт","09:00-20:00","","","","","","","","","",""
"","","","","ср","09:00-18:00","","","ср","09:00-20:00","","","","","","","","","",""
"","","","","чт","09:00-18:00","","","чт","09:00-20:00","","","","","","","","","",""
"","","","","пт","09:00-17:00","","","пт","09:00-20:00","","","","","","","","","",""
"","","","","сб","выходной","","","сб","10:00-17:00","","","","","","","","","",""
"","","","","вс","выходной","","","вс","выходной","","","","","","","","","",""
"ДО «ВДНХ» Филиала № 7701 Банка ВТБ (ПАО)","129366, г. Москва, пр-т Мира, д. 180","","открытая","Не обслуживает ЮЛ","null","нет РКО","","пн","10:00-19:00","Да (Зона Привилегия)","Розничный (РБ)","Y","N","55.824406","37.646042","Москва, Калужско-Рижская линия, метро ВДНХ","7981","False","False"
"","","","","","","","","вт","10:00-19:00","","","","","","","","","",""
"","","","","","","","","ср","10:00-19:00","","","","","","","","","",""
"","","","","","","","","чт","10:00-19:00","","","","","","","","","",""
"","","","","","","","","пт","10:00-19:00","","","","","","","","","",""
"","","","","","","","","сб","выходной","","","","","","","","","",""
"","","","","","","","","вс","выходной","","","","","","","","","",""
"ДО «Останкино» Филиала № 7701 Банка ВТБ (ПАО)","127427, г. Москва, Академика Королева, д. 12","","открытая","Не обслуживает ЮЛ","null","нет РКО","","пн","10:00-19:00","нет (пропускной режим)","Микро (РБ)","N","N","55.822884","37.606281","null","7700","False","False"
"","","","","","","","","вт","10:00-19:00","","","","","","","","","",""
"","","","","","","","","ср","10:00-19:00","","","","","","","","","",""
"","","","","","","","","чт","10:00-19:00","","","","","","","","","",""
"","","","","","","","","пт","10:00-18:00","","","","","","","","","",""
"","","","","","","","","сб","выходной","","","","","","","","","",""
"","","","","","","","","вс","выходной","","","","","","","","","",""
"ДО «Войковский» Филиала № 7701 Банка ВТБ (ПАО)","125171, г. Москва, Ленинградское шоссе, д. 16А, стр. 2","","открытая","Не обслуживает ЮЛ","null","нет РКО","","пн","10:00-19:00","Да","Розничный (РБ)","Y","N","55.821579","37.498726","Москва, Замоскворецкая линия, метро Войковская","10686","False","False"
"","","","","","","","","вт","10:00-19:00","","","","","","","","","",""
"","","","","","","","","ср","10:00-19:00","","","","","","","","","",""
"","","","","","","","","чт","10:00-19:00","","","","","","","","","",""
"","","","","","","","","пт","10:00-19:00","","","","","","","","","",""
"","","","","","","","","сб","выходной","","","","","","","","","",""
"","","","","","","","","вс","выходной","","","","","","","","","",""
"ДО «Тимирязевский» Филиала № 7701 Банка ВТБ (ПАО)","127434, г. Москва, Дмитровское ш., д. 13а","","открытая","пн","09:00-18:00","есть РКО","","пн","09:00-19:00","Да (Зона Привилегия)","Универсальный","Y","N","55.818714","37.573502","Москва, Серпуховско-Тимирязевская линия, метро Тимирязевская","7761","True","False"
"","","","","вт","09:00-18:00","","","вт","09:00-19:00","","","","","","","","","",""
"","","","","ср","09:00-18:00","","","ср","09:00-19:00","","","","","","","","","",""
"","","","","чт","09:00-18:00","","","чт","09:00-19:00","","","","","","","","","",""
"","","","","пт","09:00-17:00","","","пт","09:00-19:00","","","","","","","","","",""
"","","","","сб","выходной","","","сб","выходной","","","","","","","","","",""
"","","","","вс","выходной","","","вс","выходной","","","","","","","","","",""
"ДО «Ленинградское шоссе» Филиала № 7701 Банка ВТБ (ПАО)","125171, г. Москва, Ленинградское шоссе, д. 13, к.1","","открытая","пн","09:00-18:00","есть РКО","","пн","09:00-20:00","Да (Зона Привилегия)","Универсальный","Y","N","55.818684","37.497196","Москва, Замоскворецкая линия, метро Войковская","10532","True","False"
"","","","","вт","09:00-18:00","","","вт","09:00-20:00","","","","","","","","","",""
"","","","","ср","09:00-18:00","","","ср","09:00-20:00","","","","","","","","","",""
"","","","","чт","09:00-18:00","","","чт","09:00-20:00","","","","","","","","","",""
"","","","","пт","09:00-17:00","","","пт","09:00-20:00","","","","","","","","","",""
"","","","","сб","выходной","","","сб","10:00-17:00","","","","","","","","","",""
"","","","","вс","выходной","","","вс","выходной","","","","","","","","","",""
"ДО «Дом правительства Московской области» Филиала № 7701 Банка ВТБ (ПАО)","143407, Московская область, г. Красногорск, бульвар Строителей, д. 1","","открытая","Не обслуживает ЮЛ","null","нет РКО","","пн","09:00-18:00","закрытый доступ, находится в здании Дома Правительства МО","Розничный (РБ)","N","N","55.816086","37.380814","null","16490","False","False"
"","","","","","","","","вт","09:00-18:00","","","","","","","","","",""
"","","","","","","","","ср","09:00-18:00","","","","","","","","","",""
"","","","","","","","","чт","09:00-18:00","","","","","","","","","",""
"","","","","","","","","пт","09:00-18:00","","","","","","","","","",""
"","","","","","","","","сб","выходной","","","","","","","","","",""
"","","","","","","","","вс","выходной","","","","","","","","","",""
"ДО «Бульвар Рокоссовского» Филиала № 7701 Банка ВТБ (ПАО)","107150, г. Москва, ул. Ивантеевская, д. 23","","открытая","Не обслуживает ЮЛ","null","нет РКО","","пн","10:00-19:00","Да (Зона Привилегия)","Розничный (РБ)","Y","N","55.815701","37.731846","Москва, Сокольническая линия, метро Бульвар Рокоссовского","9771","False","False"
"","","","","","","","","вт","10:00-19:00","","","","","","","","","",""
"","","","","","","","","ср","10:00-19:00","","","","","","","","","",""
"","","","","","","","","чт","10:00-19:00","","","","","","","","","",""
"","","","","","","","","пт","10:00-19:00","","","","","","","","","",""
"","","","","","","","","сб","10:00-17:00","","","","","","","","","",""
"","","","","","","","","вс","выходной","","","","","","","","","",""
"ДО «Щука» Филиала № 7701 Банка ВТБ (ПАО)","123182, г. Москва, ул. Щукинская, д. 42","","открытая","Не обслуживает ЮЛ","null","null","","пн","10:00-21:00","Да","Розничный (РБ)","Y","N","55.809475","37.464573","Москва, Таганско-Краснопресненская линия, метро Щукинская","11527","False","False"
"","","","","","","","","вт","10:00-21:00","","","","","","","","","",""
"","","","","","","","","ср","10:00-21:00","","","","","","","","","",""
"","","","","","","","","чт","10:00-21:00","","","","","","","","","",""
"","","","","","","","","пт","10:00-21:00","","","","","","","","","",""
"","","","","","","","","сб","выходной","","","","","","","","","",""
"","","","","","","","","вс","выходной","","","","","","","","","",""
"ДО «Алексеевский» Филиала № 7701 Банка ВТБ (ПАО)","129085, г. Москва, пр-т Мира, д. 97","","открытая","пн","10:00-19:00","есть РКО","","пн","10:00-20:00","Да (Зона Привилегия)","Универсальный","Y","Y","55.809105","37.636337","Москва, Калужско-Рижская линия, метро Алексеевская","6198","True","False"
"","","","","вт","10:00-19:00","","","вт","10:00-20:00","","","","","","","","","",""
"","","","","ср","10:00-19:00","","","ср","10:00-20:00","","","","","","","","","",""
"","","","","чт","10:00-19:00","","","чт","10:00-20:00","","","","","","","","","",""
"","","","","пт","10:00-18:00","","","пт","10:00-20:00","","","","","","","","","",""
"","","","","сб","выходной","","","сб","10:00-17:00","","","","","","","","","",""
"","","","","вс","выходной","","","вс","выходной","","","","","","","","","",""
"ДО «Измайлово-Гольяново» Филиала № 7701 Банка ВТБ (ПАО)","105215, г. Москва, ул. 9-я Парковая, д. 59, корп. 1","","открытая","Не обслуживает ЮЛ","null","нет РКО","","пн","10:00-19:00","Нет","Розничный (РБ)","Y","N","55.807804","37.798141","Москва, Арбатско-Покровская линия, метро Щёлковская","12617","False","False"
"","","","","","","","","вт","10:00-19:00","","","","","","","","","",""
"","","","","","","","","ср","10:00-19:00","","","","","","","","","",""
"","","","","","","","","чт","10:00-19:00","","","","","","","","","",""
"","","","","","","","","пт","10:00-19:00","","","","","","","","","",""
"","","","","","","","","сб","10:00-17:00","","","","","","","","","",""
"","","","","","","","","вс","выходной","","","","","","","","","",""
"ДО «Строгинский» Филиала № 7701 Банка ВТБ (ПАО)","123592, г. Москва, Маршала Катукова ул., д. 16","","открытая","пн","10:00-19:00","есть РКО","","пн","10:00-20:00","Да (Зона Привилегия)","Универсальный","Y","N","55.807396","37.406281","Москва, Арбатско-Покровская линия, метро Строгино","14643","True","False"
"","","","","вт","10:00-19:00","","","вт","10:00-20:00","","","","","","","","","",""
"","","","","ср","10:00-19:00","","","ср","10:00-20:00","","","","","","","","","",""
"","","","","чт","10:00-19:00","","","чт","10:00-20:00","","","","","","","","","",""
"","","","","пт","10:00-18:00","","","пт","10:00-20:00","","","","","","","","","",""
"","","","","сб","выходной","","","сб","10:00-17:00","","","","","","","","","",""
"","","","","вс","выходной","","","вс","выходной","","","","","","","","","",""
"ДО «Сокол» Филиала № 7701 Банка ВТБ (ПАО)","125057, г. Москва, Ленинградский пр-т, д. 77, кор. 2","","открытая","пн","09:00-18:00","есть РКО","","пн","09:00-20:00","Да (Зона Привилегия)","Универсальный","Y","Y","55.805214","37.508186","null","9031","True","False"
"","","","","вт","09:00-18:00","","","вт","09:00-20:00","","","","","","","","","",""
"","","","","ср","09:00-18:00","","","ср","09:00-20:00","","","","","","","","","",""
"","","","","чт","09:00-18:00","","","чт","09:00-20:00","","","","","","","","","",""
"","","","","пт","09:00-17:00","","","пт","09:00-20:00","","","","","","","","","",""
"","","","","сб","выходной","","","сб","10:00-17:00","","","","","","","","","",""
"","","","","вс","выходной","","","вс","выходной","","","","","","","","","",""
"ДО «На Советской» в г. Балашихе Флиала № 7701 Банка ВТБ (ПАО)","143902, Московская область, г. Балашиха, ул. Советская, д. 19а","","открытая","пн","09:00-18:00","есть РКО","","пн","09:00-20:00","Да (Зона Привилегия)","Универсальный","Y","Y","55.803135","37.934631","null","20393","False","False"
"","","","","вт","09:00-18:00","","","вт","09:00-20:00","","","","","","","","","",""
"","","","","ср","09:00-18:00","","","ср","09:00-20:00","","","","","","","","","",""
"","","","","чт","09:00-18:00","","","чт","09:00-20:00","","","","","","","","","",""
"","","","","пт","09:00-17:00","","","пт","09:00-20:00","","","","","","","","","",""
"","","","","сб","выходной","","","сб","10:00-17:00","","","","","","","","","",""
"","","","","вс","выходной","","","вс","выходной","","","","","","","","","",""
"ДО «Ленинградский» Филиала № 7701 Банка ВТБ (ПАО)","125057, г. Москва, Ленинградский пр-т, д. 65, стр. 1","","открытая","пн","10:00-19:00","есть РКО","","пн","10:00-19:00","Да (Зона Привилегия)","Универсальный","Y","Y","55.802914","37.51889","Москва, Замоскворецкая линия, метро Сокол","8353","True","False"
"","","","","вт","10:00-19:00","","","вт","10:00-19:00","","","","","","","","","",""
"","","","","ср","10:00-19:00","","","ср","10:00-19:00","","","","","","","","","",""
"","","","","чт","10:00-19:00","","","чт","10:00-19:00","","","","","","","","","",""
"","","","","пт","10:00-18:00","","","пт","10:00-19:00","","","","","","","","","",""
"","","","","сб","выходной","","","сб","выходной","","","","","","","","","",""
"","","","","вс","выходной","","","вс","выходной","","","","","","","","","",""
"ДО «Крестовский» Филиала в г. Москве","129085, г. Москва, пр-т Мира, д. 81","","открытая","пн","09:00-18:00","есть РКО","","Не обслуживает ФЛ","null","Да","Корпоративный","N","N","55.801319","37.634335","null","5323","True","False"
"","","","","вт","09:00-18:00","","","","","","","","","","","","","",""
"","","","","ср","09:00-18:00","","","","","","","","","","","","","",""
"","","","","чт","09:00-18:00","","","","","","","","","","","","","",""
"","","","","пт","09:00-17:00","","","","","","","","","","","","","",""
"","","","","сб","выходной","","","","","","","","","","","","","",""
"","","","","вс","выходной","","","","","","","","","","","","","",""
"ДО «Ленинградский проспект» Филиала № 7701 Банка ВТБ (ПАО)","125167, г. Москва, Ленинградский пр-т, д. 60, корп. 2","","открытая","Не обслуживает ЮЛ","null","нет РКО","","пн","10:00-20:00","Да (Зона Привилегия)","Розничный (РБ)","Y","Y","55.799339","37.536186","Москва, Замоскворецкая линия, метро Аэропорт","7284","False","False"
"","","","","","","","","вт","10:00-20:00","","","","","","","","","",""
"","","","","","","","","ср","10:00-20:00","","","","","","","","","",""
"","","","","","","","","чт","10:00-20:00","","","","","","","","","",""
"","","","","","","","","пт","10:00-20:00","","","","","","","","","",""
"","","","","","","","","сб","выходной","","","","","","","","","",""
"","","","","","","","","вс","выходной","","","","","","","","","",""
"ДО «Балашихинский» Филиала № 7701 Банка ВТБ (ПАО)","143900, Московская область, г. Балашиха, пр-т Ленина, д. 45","","открытая","пн-пт","09:00-18:00","нет РКО","","пн-пт","09:00-18:00","Да","Стандарт","Y","Y","55.797817","37.946049","null","20938","null","False"
"","","","","пт","09:00-16:45","","","сб","10:00-17:00","","","","","","","","","",""
"","","","","сб,вс","выходной","","","вс","выходной","","","","","","","","","",""
"ДО «Черкизовский» Филиала № 7701 Банка ВТБ (ПАО)","107061, г. Москва, ул. Б. Черкизовская, д. 5А","","открытая","пн","10:00-19:00","есть РКО","","пн","10:00-19:00","Да","Универсальный","Y","Y","55.797306","37.718723","Москва, Сокольническая линия, метро Преображенская площадь","7804","True","False"
"","","","","вт","10:00-19:00","","","вт","10:00-19:00","","","","","","","","","",""
"","","","","ср","10:00-19:00","","","ср","10:00-19:00","","","","","","","","","",""
"","","","","чт","10:00-19:00","","","чт","10:00-19:00","","","","","","","","","",""
"","","","","пт","10:00-18:00","","","пт","10:00-19:00","","","","","","","","","",""
"","","","","сб","выходной","","","сб","10:00-17:00","","","","","","","","","",""
"","","","","вс","выходной","","","вс","выходной","","","","","","","","","",""
"ДО «Преображенский» Филиала № 7701 Банка ВТБ (ПАО)","107061, г. Москва, ул. Большая Черкизовская, д. 12, корп. 1","","открытая","пн","10:00-19:00","есть РКО","","пн","10:00-19:00","Да (Зона Привилегия)","Универсальный","Y","N","55.797077","37.725388","null","8121","True","False"
"","","","","вт","10:00-19:00","","","вт","10:00-19:00","","","","","","","","","",""
"","","","","ср","10:00-19:00","","","ср","10:00-19:00","","","","","","","","","",""
"","","","","чт","10:00-19:00","","","чт","10:00-19:00","","","","","","","","","",""
"","","","","пт","10:00-18:00","","","пт","10:00-19:00","","","","","","","","","",""
"","","","","сб","выходной","","","сб","выходной","","","","","","","","","",""
"","","","","вс","выходной","","","вс","выходной","","","","","","","","","",""
"ДО «Измайловский бульвар» Филиала № 7701 Банка ВТБ (ПАО)","105077, г. Москва, Измайловский б-р, д. 46","","открытая","пн","10:00-19:00","есть РКО","","пн","10:00-19:00","Да (Зона Привилегия)","Универсальный","Y","Y","55.796345","37.80584","null","12513","True","False"
"","","","","вт","10:00-19:00","","","вт","10:00-19:00","","","","","","","","","",""
"","","","","ср","10:00-19:00","","","ср","10:00-19:00","","","","","","","","","",""
"","","","","чт","10:00-19:00","","","чт","10:00-19:00","","","","","","","","","",""
"","","","","пт","10:00-18:00","","","пт","10:00-19:00","","","","","","","","","",""
"","","","","сб","выходной","","","сб","10:00-17:00","","","","","","","","","",""
"","","","","вс","выходной","","","вс","10:00-17:00","","","","","","","","","",""
"ДО «Савеловский» Филиала № 7701 Банка ВТБ (ПАО)","127015, г. Москва, ул. Бутырская, д. 11","","открытая","пн","10:00-19:00","есть РКО","","пн","10:00-19:00","Да (Зона Привилегия)","Универсальный","Y","Y","55.796009","37.583389","МЦД-1 Белорусско-Савёловский диаметр, станция Савёловская","5204","True","False"
"","","","","вт","10:00-19:00","","","вт","10:00-19:00","","","","","","","","","",""
"","","","","ср","10:00-19:00","","","ср","10:00-19:00","","","","","","","","","",""
"","","","","чт","10:00-19:00","","","чт","10:00-19:00","","","","","","","","","",""
"","","","","пт","10:00-18:00","","","пт","10:00-19:00","","","","","","","","","",""
"","","","","сб","выходной","","","сб","10:00-15:00","","","","","","","","","",""
"","","","","вс","выходной","","","вс","выходной","","","","","","","","","",""
"ДО «На Пионерской» Филиала № 7701 Банка ВТБ (ПАО)","143900, Московская область, г. Балашиха, ул. Пионерская, д. 13","","открытая","пн","09:00-18:00","есть РКО","","пн","09:00-20:00","Да (Зона Привилегия)","Универсальный","Y","Y","55.794807","37.967934","null","22201","True","False"
"","","","","вт","09:00-18:00","","","вт","09:00-20:00","","","","","","","","","",""
"","","","","ср","09:00-18:00","","","ср","09:00-20:00","","","","","","","","","",""
"","","","","чт","09:00-18:00","","","чт","09:00-20:00","","","","","","","","","",""
"","","","","пт","09:00-17:00","","","пт","09:00-20:00","","","","","","","","","",""
"","","","","сб","выходной","","","сб","10:00-17:00","","","","","","","","","",""
"","","","","вс","выходной","","","вс","выходной","","","","","","","","","",""
"ДО «Шереметьевский» Филиала № 7701 Банка ВТБ (ПАО)","127521, г. Москва, ул. Шереметьевская, д. 1,  корп. 1","","открытая","Не обслуживает ЮЛ","null","null","","пн-пт","10:00-19:00","Да","Стандарт","Y","Y","55.793915","37.615479","null","4439","null","False"
"","","","","","","","","сб,вс","выходной","","","","","","","","","",""
"ДО «Ходынский» Филиала № 7701 Банка ВТБ (ПАО)","125252, г. Москва, ул. Авиаконструктора Микояна, д. 12","","открытая","Не обслуживает ЮЛ","null","нет РКО","","пн","10:00-19:00","Да (Офис Привилегия)","Привилегия (РБ)","N","Y","55.792362","37.527615","null","7197","False","False"
"","","","","","","","","вт","10:00-19:00","","","","","","","","","",""
"","","","","","","","","ср","10:00-19:00","","","","","","","","","",""
"","","","","","","","","чт","10:00-19:00","","","","","","","","","",""
"","","","","","","","","пт","10:00-19:00","","","","","","","","","",""
"","","","","","","","","сб","выходной","","","","","","","","","",""
"","","","","","","","","вс","выходной","","","","","","","","","",""
"ДО «На Маршала Бирюзова» Филиала № 7701 Банка ВТБ (ПАО)","123298, г. Москва, ул. Маршала Бирюзова, д. 8, корп. 1","","открытая","пн","10:00-19:00","есть РКО","","пн","10:00-20:00","Да (Зона Привилегия)","Универсальный","Y","N","55.792191","37.496796","Москва, Таганско-Краснопресненская линия, метро Октябрьское Поле","8816","True","False"
"","","","","вт","10:00-19:00","","","вт","10:00-20:00","","","","","","","","","",""
"","","","","ср","10:00-19:00","","","ср","10:00-20:00","","","","","","","","","",""
"","","","","чт","10:00-19:00","","","чт","10:00-20:00","","","","","","","","","",""
"","","","","пт","10:00-18:00","","","пт","10:00-20:00","","","","","","","","","",""
"","","","","сб","выходной","","","сб","10:00-17:00","","","","","","","","","",""
"","","","","вс","выходной","","","вс","выходной","","","","","","","","","",""
"ДО «Арена Плаза» Филиала № 7701 Банка ВТБ (ПАО)","125167, г. Москва, Ленинградский проспект, д. 36","","открытая","Не обслуживает ЮЛ","null","нет РКО","","пн","10:00-20:00","Да (Зона Привилегия)","Розничный (РБ)","Y","N","55.791248","37.559387","Москва, Большая кольцевая линия, метро Петровский парк","5624","False","False"
"","","","","","","","","вт","10:00-20:00","","","","","","","","","",""
"","","","","","","","","ср","10:00-20:00","","","","","","","","","",""
"","","","","","","","","чт","10:00-20:00","","","","","","","","","",""
"","","","","","","","","пт","10:00-20:00","","","","","","","","","",""
"","","","","","","","","сб","выходной","","","","","","","","","",""
"","","","","","","","","вс","выходной","","","","","","","","","",""
"ДО «На Рижской» Филиала № 7701 Банка ВТБ (ПАО)","129110, г. Москва, пр-т Мира, д. 76, стр. 1","","открытая","пн","10:00-19:00","есть РКО","","пн","10:00-19:00","Да (Зона Привилегия)","Универсальный","Y","Y","55.79071","37.635178","Москва, Калужско-Рижская линия, метро Рижская","4175","True","False"
"","","","","вт","10:00-19:00","","","вт","10:00-19:00","","","","","","","","","",""
"","","","","ср","10:00-19:00","","","ср","10:00-19:00","","","","","","","","","",""
"","","","","чт","10:00-19:00","","","чт","10:00-19:00","","","","","","","","","",""
"","","","","пт","10:00-18:00","","","пт","10:00-19:00","","","","","","","","","",""
"","","","","сб","выходной","","","сб","выходной","","","","","","","","","",""
"","","","","вс","выходной","","","вс","выходной","","","","","","","","","",""
"ДО «Русаковский» Филиала № 7701 Банка ВТБ (ПАО)","107113, г. Москва, Сокольническая пл., д.4, корп.1-2","","открытая","пн","10:00-19:00","есть РКО","","пн","10:00-19:00","Да (Зона Привилегия)","Универсальный","Y","Y","55.789921","37.677895","Москва, Сокольническая линия, метро Сокольники","5367","True","False"
"","","","","вт","10:00-19:00","","","вт","10:00-19:00","","","","","","","","","",""
"","","","","ср","10:00-19:00","","","ср","10:00-19:00","","","","","","","","","",""
"","","","","чт","10:00-19:00","","","чт","10:00-19:00","","","","","","","","","",""
"","","","","пт","10:00-18:00","","","пт","10:00-19:00","","","","","","","","","",""
"","","","","сб","выходной","","","сб","10:00-17:00","","","","","","","","","",""
"","","","","вс","выходной","","","вс","выходной","","","","","","","","","",""
"ДО «Ходынский бульвар» Филиала № 7701 Банка ВТБ (ПАО)","125252, г. Москва, Ходынский бульвар, д. 2","","открытая","Не обслуживает ЮЛ","null","нет РКО","","пн","10:00-19:00","Да","Розничный (РБ)","Y","N","55.789394","37.536831","Москва, Большая кольцевая линия, метро ЦСКА","6537","False","False"
"","","","","","","","","вт","10:00-19:00","","","","","","","","","",""
"","","","","","","","","ср","10:00-19:00","","","","","","","","","",""
"","","","","","","","","чт","10:00-19:00","","","","","","","","","",""
"","","","","","","","","пт","10:00-19:00","","","","","","","","","",""
"","","","","","","","","сб","выходной","","","","","","","","","",""
"","","","","","","","","вс","выходной","","","","","","","","","",""
"ДО «Бутырский» Филиала № 7701 Банка ВТБ (ПАО)","127055, г. Москва, ул. Бутырский вал, д. 68/70, стр. 1","","открытая","пн-чт","09:00-18:00","есть РКО","","пн-пт","09:00-19:00","Да (Зона Привилегия)","Универсальный","Y","Y","55.788677","37.589157","Савёловская (Серпуховско-Тимирязевская линия)","4314","null","False"
"","","","","пт","09:00-17:00","","","сб,вс","выходной","","","","","","","","","",""
"","","","","сб,вс","выходной","","","","","","","","","","","","","",""
"ДО «Хорошевский» Филиала № 7701 Банка ВТБ (ПАО)","123585, г. Москва, ул. Генерала Глаголева, д. 30, корп. 2","","открытая","пн","10:00-19:00","есть РКО","","пн","10:00-19:00","Да (Зона Привилегия)","Универсальный","Y","N","55.788631","37.466789","null","10347","True","False"
"","","","","вт","10:00-19:00","","","вт","10:00-19:00","","","","","","","","","",""
"","","","","ср","10:00-19:00","","","ср","10:00-19:00","","","","","","","","","",""
"","","","","чт","10:00-19:00","","","чт","10:00-19:00","","","","","","","","","",""
"","","","","пт","10:00-18:00","","","пт","10:00-19:00","","","","","","","","","",""
"","","","","сб","выходной","","","сб","выходной","","","","","","","","","",""
"","","","","вс","выходной","","","вс","выходной","","","","","","","","","",""
"ДО «Сокольнический» Филиала № 7701 Банка ВТБ (ПАО)","107014, г. Москва, ул. Русаковская, д. 24","","открытая","пн-чт","09:00-18:00","нет РКО","","пн-пт","09:00-20:00","Да (Зона Привилегия)","Стандарт+бизнес отдел","Y","Y","55.787449","37.681145","null","5309","null","False"
"","","","","пт","09:00-17:00","","","сб","выходной","","","","","","","","","",""
"","","","","перерыв","14:15-15:00","","","вс","выходной","","","","","","","","","",""
"","","","","сб,вс","выходной","","","","","","","","","","","","","",""
"ДО «Тихвинский» Филиала № 7701 Банка ВТБ (ПАО)","103055, г. Москва, ул. Тихвинская, д. 9. стр. 1","","открытая","пн-чт","09:00-18:00","нет РКО","","пн-пт","09:00-20:00","Да (Зона Привилегия)","Стандарт+бизнес отдел","Y","N","55.787273","37.600353","null","3897","null","False"
"","","","","пт","09:00-17:00","","","сб,вс","выходной","","","","","","","","","",""
"","","","","сб,вс","выходной","","","","","","","","","","","","","",""
"ДО «Петровский» Филиала № 7701 Банка ВТБ (ПАО)","125040, г. Москва, Ленинградский пр-т, д. 34","","открытая","пн-чт","09:00-18:00","нет РКО","","пн-пт","09:00-20:00","Да","Мини_расш","Y","Y","55.785767","37.568821","null","4777","null","False"
"","","","","пт","09:00-17:00","","","сб","11:00-16:00","","","","","","","","","",""
"","","","","пн-пт","14:15-15:00","","","вс","выходной","","","","","","","","","",""
"","","","","сб,вс","выходной","","","","","","","","","","","","","",""
"ДО «Семеновский» Филиала № 7701 Банка ВТБ (ПАО)","105318, г. Москва, Семеновская пл., д. 7, корп. 17","","открытая","пн","09:00-18:00","есть РКО","","пн","09:00-20:00","Да (Зона Привилегия)","Универсальный","Y","Y","55.783611","37.721302","Москва, Арбатско-Покровская линия, метро Семёновская","7114","True","False"
"","","","","вт","09:00-18:00","","","вт","09:00-20:00","","","","","","","","","",""
"","","","","ср","09:00-18:00","","","ср","09:00-20:00","","","","","","","","","",""
"","","","","чт","09:00-18:00","","","чт","09:00-20:00","","","","","","","","","",""
"","","","","пт","09:00-17:00","","","пт","09:00-20:00","","","","","","","","","",""
"","","","","сб","выходной","","","сб","10:00-17:00","","","","","","","","","",""
"","","","","вс","выходной","","","вс","выходной","","","","","","","","","",""
"ДО ЦИК «Новослободский» Филиала № 7701 Банка ВТБ (ПАО)","127055, г. Москва, ул. Новослободская, д. 41","","открытая","пн","10:00-19:00","есть РКО","","пн","10:00-19:00","Да (Зона Привилегия)","Универсальный","Y","Y","55.783394","37.596867","Москва, Серпуховско-Тимирязевская линия, метро Менделеевская","3575","True","False"
"","","","","вт","10:00-19:00","","","вт","10:00-19:00","","","","","","","","","",""
"","","","","ср","10:00-19:00","","","ср","10:00-19:00","","","","","","","","","",""
"","","","","чт","10:00-19:00","","","чт","10:00-19:00","","","","","","","","","",""
"","","","","пт","10:00-18:00","","","пт","10:00-19:00","","","","","","","","","",""
"","","","","сб","выходной","","","сб","выходной","","","","","","","","","",""
"","","","","вс","выходной","","","вс","выходной","","","","","","","","","",""
"ДО «Проспект Мира» Филиала № 7701 Банка ВТБ (ПАО)","129110, г. Москва, пр-т Мира, д.41, стр.2","","открытая","пн","09:00-18:00","нет РКО","","пн","09:00-18:00","Да (Зона Привилегия)","Универсальный","Y","N","55.781616","37.632637","Москва, Калужско-Рижская линия, метро Проспект Мира","3155","True","False"
"","","","","вт","09:00-18:00","","","вт","09:00-18:00","","","","","","","","","",""
"","","","","ср","09:00-18:00","","","ср","09:00-18:00","","","","","","","","","",""
"","","","","чт","09:00-18:00","","","чт","09:00-18:00","","","","","","","","","",""
"","","","","пт","09:00-17:00","","","пт","09:00-18:00","","","","","","","","","",""
"","","","","сб","выходной","","","сб","выходной","","","","","","","","","",""
"","","","","вс","выходной","","","вс","выходной","","","","","","","","","",""
"ДО «Белорусский» Филиала № 7701 Банка ВТБ (ПАО)","125047, г. Москва, 4-й Лесной пер., д. 4","","открытая","пн","10:00-19:00","есть РКО","","пн","10:00-19:00","Да (Зона Привилегия)","Универсальный","Y","N","55.779068","37.586929","Москва, Кольцевая линия, метро Белорусская","3478","True","False"
"","","","","вт","10:00-19:00","","","вт","10:00-19:00","","","","","","","","","",""
"","","","","ср","10:00-19:00","","","ср","10:00-19:00","","","","","","","","","",""
"","","","","чт","10:00-19:00","","","чт","10:00-19:00","","","","","","","","","",""
"","","","","пт","10:00-18:00","","","пт","10:00-19:00","","","","","","","","","",""
"","","","","сб","выходной","","","сб","выходной","","","","","","","","","",""
"","","","","вс","выходной","","","вс","выходной","","","","","","","","","",""
"ДО «Долгоруковский» Филиала № 7701 Банка ВТБ (ПАО)","127030, г. Москва, ул. Долгоруковская, д. 40","","открытая","пн","10:00-19:00","есть РКО","","пн","10:00-19:00","Да (Зона Привилегия)","Универсальный","Y","Y","55.778736","37.602024","Москва, Кольцевая линия, метро Новослободская","2972","True","False"
"","","","","вт","10:00-19:00","","","вт","10:00-19:00","","","","","","","","","",""
"","","","","ср","10:00-19:00","","","ср","10:00-19:00","","","","","","","","","",""
"","","","","чт","10:00-19:00","","","чт","10:00-19:00","","","","","","","","","",""
"","","","","пт","10:00-18:00","","","пт","10:00-19:00","","","","","","","","","",""
"","","","","сб","выходной","","","сб","10:00-17:00","","","","","","","","","",""
"","","","","вс","выходной","","","вс","выходной","","","","","","","","","",""
"ДО «Полежаевский» Филиала № 7701 Банка ВТБ (ПАО)","123308, г. Москва, ул. Куусинена, д. 1","","открытая","Не обслуживает ЮЛ","null","нет РКО","","пн-пт","09:00-20:00","Да","Мини_расш","Y","N","55.778385","37.516449","null","7042","null","False"
"","","","","","","","","сб","11:00-16:00","","","","","","","","","",""
"","","","","","","","","вс","выходной","","","","","","","","","",""
"ДО «Проспект Маршала Жукова» Филиала № 7701 Банка ВТБ (ПАО)","123154, г. Москва, просп. Маршала Жукова, д. 48, корп. 1","","открытая","пн","10:00-19:00","есть РКО","","пн","10:00-19:00","Да (Зона Привилегия)","Универсальный","Y","N","55.777794","37.465748","null","10027","True","False"
"","","","","вт","10:00-19:00","","","вт","10:00-19:00","","","","","","","","","",""
"","","","","ср","10:00-19:00","","","ср","10:00-19:00","","","","","","","","","",""
"","","","","чт","10:00-19:00","","","чт","10:00-19:00","","","","","","","","","",""
"","","","","пт","10:00-18:00","","","пт","10:00-19:00","","","","","","","","","",""
"","","","","сб","выходной","","","сб","10:00-17:00","","","","","","","","","",""
"","","","","вс","выходной","","","вс","выходной","","","","","","","","","",""
"ДО «Краснопрудный» Филиала № 7701 Банка ВТБ (ПАО)","107140, г. Москва, ул. Краснопрудная, д. 18, стр. 1","","открытая","Не обслуживает ЮЛ","null","нет РКО","","пн","10:00-19:00","Да (Зона Привилегия)","Розничный (РБ)","Y","N","55.777287","37.662884","Москва, Сокольническая линия, метро Красносельская","3703","False","False"
"","","","","","","","","вт","10:00-19:00","","","","","","","","","",""
"","","","","","","","","ср","10:00-19:00","","","","","","","","","",""
"","","","","","","","","чт","10:00-19:00","","","","","","","","","",""
"","","","","","","","","пт","10:00-19:00","","","","","","","","","",""
"","","","","","","","","сб","выходной","","","","","","","","","",""
"","","","","","","","","вс","выходной","","","","","","","","","",""
"ДО «Каланчевский» Филиала № 7701 Банка ВТБ (ПАО)","107078, г. Москва, ул. Каланчевская, д. 35","","открытая","Не обслуживает ЮЛ","null","нет РКО","","пн","10:00-19:00","Да (Зона Привилегия)","Розничный (РБ)","Y","Y","55.776806","37.647926","МЦД-2 Курско-Рижский диаметр, станция Площадь трёх вокзалов (Каланчёвская)","3056","False","False"
"","","","","","","","","вт","10:00-19:00","","","","","","","","","",""
"","","","","","","","","ср","10:00-19:00","","","","","","","","","",""
"","","","","","","","","чт","10:00-19:00","","","","","","","","","",""
"","","","","","","","","пт","10:00-19:00","","","","","","","","","",""
"","","","","","","","","сб","выходной","","","","","","","","","",""
"","","","","","","","","вс","выходной","","","","","","","","","",""
"ДО «Центр автокредитования» Филиала № 7701 Банка ВТБ (ПАО)","123317, г. Москва, Пресненская наб., д. 10, стр. 1","","открытая","Не обслуживает ЮЛ","null","нет РКО","","пн","09:00-18:00","Нет","Розничный (РБ)","N","N","55.776749","37.602264","Москва, Кольцевая линия, метро Новослободская","2763","False","False"
"","","","","","","","","вт","09:00-18:00","","","","","","","","","",""
"","","","","","","","","ср","09:00-18:00","","","","","","","","","",""
"","","","","","","","","чт","09:00-18:00","","","","","","","","","",""
"","","","","","","","","пт","09:00-18:00","","","","","","","","","",""
"","","","","","","","","сб","выходной","","","","","","","","","",""
"","","","","","","","","вс","выходной","","","","","","","","","",""
"ДО «Ярославский» Филиала № 7701 Банка ВТБ (ПАО)","107144, г. Москва, Комсомольская пл. , д. 5, стр. 1","","открытая","Не обслуживает ЮЛ","null","нет РКО","","пн-пт","10:00-19:00","Да","Розничный (РБ)","Y","N","55.776295","37.656704","Комсомольская (Сокольническая линия), Комсомольская (Кольцевая линия)","3354","null","False"
"","","","","","","","","сб,вс","выходной","","","","","","","","","",""
"ДО «Улица Народного Ополчения» Филиала № 7701 Банка ВТБ (ПАО)","123423, г. Москва, проспект Маршала Жукова, д. 23","","открытая","Не обслуживает ЮЛ","null","нет РКО","","пн-пт","10:00-19:00","Да","Розничный (РБ)","N","N","55.775288","37.485764","Народное Ополчение (Большая кольцевая линия)","8746","null","False"
"","","","","","","","","сб,вс","выходной","","","","","","","","","",""
"ДО «Оружейный» Филиала № 7701 Банка ВТБ (ПАО)","127006, г. Москва, ул. Долгоруковская, д. 2","","открытая","пн-чт","10:00-19:00","нет РКО","","пн-пт","10:00-19:00","Да (Зона Привилегия)","Универсальный","Y","Y","55.77433","37.604584","Новослободская (Кольцевая линия)","2458","null","False"
"","","","","пт","10:00-18:00","","","сб,вс","выходной","","","","","","","","","",""
"","","","","сб,вс","выходной","","","","","","","","","","","","","",""
"ДО «Садово-Сухаревский» Филиала № 7701 Банка ВТБ (ПАО)","107045, г. Москва, ул. Садовая - Сухаревская, д. 8/12, стр. 3","","открытая","пн","09:00-18:00","есть РКО","","пн","09:00-18:00","Да (Зона Привилегия)","Универсальный","Y","N","55.773155","37.625908","Москва, Серпуховско-Тимирязевская линия, метро Цветной бульвар","2147","False","False"
"","","","","вт","09:00-18:00","","","вт","09:00-18:00","","","","","","","","","",""
"","","","","ср","09:00-18:00","","","ср","09:00-18:00","","","","","","","","","",""
"","","","","чт","09:00-18:00","","","чт","09:00-18:00","","","","","","","","","",""
"","","","","пт","09:00-17:00","","","пт","09:00-18:00","","","","","","","","","",""
"","","","","сб","выходной","","","сб","выходной","","","","","","","","","",""
"","","","","вс","выходной","","","вс","выходной","","","","","","","","","",""
"ДО «Беговой» Филиала № 7701 Банка ВТБ (ПАО)","123007, г. Москва, Хорошевское ш., д. 1","","открытая","Не обслуживает ЮЛ","null","нет РКО","","пн-пт","10:00-19:00","Да","Розничный (РБ)","Y","N","55.773106","37.543526","Беговая (Таганско-Краснопресненская линия)","5254","null","False"
"","","","","","","","","cб,вс","выходной","","","","","","","","","",""
"ДО «На Красносельской» Филиала № 7701 Банка ВТБ (ПАО)","105066, г. Москва, ул. Нижняя Красносельская, д.45/17","","открытая","пн","09:00-18:00","есть РКО","","пн","09:00-20:00","Да (Зона Привилегия)","Универсальный","Y","N","55.773033","37.675766","Москва, Арбатско-Покровская линия, метро Бауманская","4053","False","False"
"","","","","вт","09:00-18:00","","","вт","09:00-20:00","","","","","","","","","",""
"","","","","ср","09:00-18:00","","","ср","09:00-20:00","","","","","","","","","",""
"","","","","чт","09:00-18:00","","","чт","09:00-20:00","","","","","","","","","",""
"","","","","пт","09:00-17:00","","","пт","09:00-20:00","","","","","","","","","",""
"","","","","сб","выходной","","","сб","выходной","","","","","","","","","",""
"","","","","вс","выходной","","","вс","выходной","","","","","","","","","",""
"ДО «Сухаревский» Филиала № 7701 Банка ВТБ (ПАО)","107045, г. Москва, Б. Сухаревская пл., д. 14/7","","открытая","пн","10:00-19:00","есть РКО","","пн","10:00-19:00","Да (Зона Привилегия)","Универсальный","Y","Y","55.771809","37.636669","Москва, Калужско-Рижская линия, метро Сухаревская","2217","True","False"
"","","","","вт","10:00-19:00","","","вт","10:00-19:00","","","","","","","","","",""
"","","","","ср","10:00-19:00","","","ср","10:00-19:00","","","","","","","","","",""
"","","","","чт","10:00-19:00","","","чт","10:00-19:00","","","","","","","","","",""
"","","","","пт","10:00-18:00","","","пт","10:00-19:00","","","","","","","","","",""
"","","","","сб","выходной","","","сб","выходной","","","","","","","","","",""
"","","","","вс","выходной","","","вс","выходной","","","","","","","","","",""
"ДО «Маяковский» Филиала № 7701 Банка ВТБ (ПАО)","125047, г. Москва, ул. 1-я Тверская - Ямская, д. 7","","открытая","Не обслуживает ЮЛ","null","нет РКО","","пн","10:00-19:00","Да (Офис Привилегия)","Привилегия (РБ)","N","Y","55.771526","37.592815","Москва, Замоскворецкая линия, метро Маяковская","2596","False","False"
"","","","","","","","","вт","10:00-19:00","","","","","","","","","",""
"","","","","","","","","ср","10:00-19:00","","","","","","","","","",""
"","","","","","","","","чт","10:00-19:00","","","","","","","","","",""
"","","","","","","","","пт","10:00-19:00","","","","","","","","","",""
"","","","","","","","","сб","выходной","","","","","","","","","",""
"","","","","","","","","вс","выходной","","","","","","","","","",""
"ДО «Лермонтовский» Филиала № 7777 Банка ВТБ (ПАО)","107078, г. Москва, Красноворотский пр-д, д. 3","","открытая","Не обслуживает ЮЛ","null","null","","пн","09:30-20:00","нет","Прайм (РБ)","N","Y","55.770851","37.649525","Москва, Сокольническая линия, метро Красные Ворота","2606","False","False"
"","","","","","","","","вт","09:30-20:00","","","","","","","","","",""
"","","","","","","","","ср","09:30-20:00","","","","","","","","","",""
"","","","","","","","","чт","09:30-20:00","","","","","","","","","",""
"","","","","","","","","пт","09:30-20:00","","","","","","","","","",""
"","","","","","","","","сб","09:30-16:00","","","","","","","","","",""
"","","","","","","","","вс","выходной","","","","","","","","","",""
"ДО «Садовый-Триумфальный» Филиала № 7701 Банка ВТБ (ПАО)","103006, г. Москва, ул. Садовая-Триумфальная, д. 4/10, стр. 1","","открытая","пн","10:00-19:00","есть РКО","","пн","10:00-19:00","Да (Зона Привилегия)","Универсальный","Y","N","55.770432","37.599194","Москва, Замоскворецкая линия, метро Маяковская","2250","True","False"
"","","","","вт","10:00-19:00","","","вт","10:00-19:00","","","","","","","","","",""
"","","","","ср","10:00-19:00","","","ср","10:00-19:00","","","","","","","","","",""
"","","","","чт","10:00-19:00","","","чт","10:00-19:00","","","","","","","","","",""
"","","","","пт","10:00-18:00","","","пт","10:00-19:00","","","","","","","","","",""
"","","","","сб","выходной","","","сб","выходной","","","","","","","","","",""
"","","","","вс","выходной","","","вс","выходной","","","","","","","","","",""
"ДО «Басманный» Филиала № 7701 Банка ВТБ (ПАО)","105066, г. Москва, ул. Новая Басманная, 37 А","","открытая","пн","10:00-19:00","есть РКО","","пн","10:00-19:00","Да (Зона Привилегия)","Универсальный","Y","Y","55.76997","37.669083","null","3520","True","False"
"","","","","вт","10:00-19:00","","","вт","10:00-19:00","","","","","","","","","",""
"","","","","ср","10:00-19:00","","","ср","10:00-19:00","","","","","","","","","",""
"","","","","чт","10:00-19:00","","","чт","10:00-19:00","","","","","","","","","",""
"","","","","пт","10:00-18:00","","","пт","10:00-19:00","","","","","","","","","",""
"","","","","сб","выходной","","","сб","выходной","","","","","","","","","",""
"","","","","вс","выходной","","","вс","выходной","","","","","","","","","",""
"ДО «Цветной бульвар» Филиала № 7701 Банка ВТБ (ПАО)","127051, г. Москва, Цветной бульвар, д. 9","","открытая","Не обслуживает ЮЛ","null","нет РКО","","пн-пт","10:00-19:00","Да","Розничный (РБ)","Y","N","55.769531","37.620735","Цветной бульвар (Серпуховско-Тимирязевская линия), Трубная (Люблинско-Дмитровская линия)","1717","null","False"
"","","","","","","","","сб,вс","выходной","","","","","","","","","",""
"ДО «Басманный» Филиала в г. Москве","107174, г. Москва, ул. Новая Басманная, д. 2/1, стр. 1","","открытая","пн","09:00-18:00","нет РКО","","Не обслуживает ФЛ","null","действует пропускная система, офис находится в здании ОАО РЖД","Корпоративный","N","N","55.768871","37.651806","Москва, Сокольническая линия, метро Красные Ворота","2561","False","False"
"","","","","вт","09:00-18:00","","","","","","","","","","","","","",""
"","","","","ср","09:00-18:00","","","","","","","","","","","","","",""
"","","","","чт","09:00-18:00","","","","","","","","","","","","","",""
"","","","","пт","09:00-17:00","","","","","","","","","","","","","",""
"","","","","сб","выходной","","","","","","","","","","","","","",""
"","","","","вс","выходной","","","","","","","","","","","","","",""
"ДО «РЖД» Филиала № 7701 Банка ВТБ (ПАО)","107174, г. Москва, ул. Новая Басманная, д. 2/1, стр. 1","","открытая","Не обслуживает ЮЛ","null","нет РКО","","пн","09:00-18:00","действует пропускная система, офис находится в здании ОАО РЖД","Розничный (РБ)","N","N","55.768871","37.651806","Москва, Сокольническая линия, метро Красные Ворота","2561","False","False"
"","","","","","","","","вт","09:00-18:00","","","","","","","","","",""
"","","","","","","","","ср","09:00-18:00","","","","","","","","","",""
"","","","","","","","","чт","09:00-18:00","","","","","","","","","",""
"","","","","","","","","пт","09:00-18:00","","","","","","","","","",""
"","","","","","","","","сб","выходной","","","","","","","","","",""
"","","","","","","","","вс","выходной","","","","","","","","","",""
"ДО «Трубная площадь» Филиала № 7701 Банка ВТБ (ПАО)","107045, г. Москва, ул. Трубная, д. 2","","открытая","Не обслуживает ЮЛ","null","null","","пн","10:00-19:00","Да","Розничный (РБ)","N","N","55.767139","37.624123","Москва, Люблинско-Дмитровская линия, метро Трубная","1469","False","False"
"","","","","","","","","вт","10:00-19:00","","","","","","","","","",""
"","","","","","","","","ср","10:00-19:00","","","","","","","","","",""
"","","","","","","","","чт","10:00-19:00","","","","","","","","","",""
"","","","","","","","","пт","10:00-19:00","","","","","","","","","",""
"","","","","","","","","сб","выходной","","","","","","","","","",""
"","","","","","","","","вс","выходной","","","","","","","","","",""
"ДО ЦИК «На Мясницкой» Филиала № 7701 Банка ВТБ (ПАО)","101000, г. Москва, ул. Мясницкая, д. 35","","открытая","пн","10:00-19:00","есть РКО","","пн","10:00-20:00","Да (Зона Привилегия)","Универсальный","Y","N","55.766045","37.638081","Москва, Люблинско-Дмитровская линия, метро Сретенский бульвар","1729","True","False"
"","","","","вт","10:00-19:00","","","вт","10:00-20:00","","","","","","","","","",""
"","","","","ср","10:00-19:00","","","ср","10:00-20:00","","","","","","","","","",""
"","","","","чт","10:00-19:00","","","чт","10:00-20:00","","","","","","","","","",""
"","","","","пт","10:00-18:00","","","пт","10:00-20:00","","","","","","","","","",""
"","","","","сб","выходной","","","сб","10:00-17:00","","","","","","","","","",""
"","","","","вс","выходной","","","вс","выходной","","","","","","","","","",""
"ДО «Улица 1905 года» Филиала № 7701 Банка ВТБ (ПАО)","123022, г. Москва, Звенигородское шоссе, д. 18/20, корп. 1","","открытая","пн","10:00-19:00","есть РКО","","пн","10:00-19:00","Да (Зона Привилегия)","Универсальный","Y","N","55.764393","37.556145","Москва, Таганско-Краснопресненская линия, метро Улица 1905 года","4181","True","False"
"","","","","вт","10:00-19:00","","","вт","10:00-19:00","","","","","","","","","",""
"","","","","ср","10:00-19:00","","","ср","10:00-19:00","","","","","","","","","",""
"","","","","чт","10:00-19:00","","","чт","10:00-19:00","","","","","","","","","",""
"","","","","пт","10:00-18:00","","","пт","10:00-19:00","","","","","","","","","",""
"","","","","сб","выходной","","","сб","10:00-17:00","","","","","","","","","",""
"","","","","вс","выходной","","","вс","выходной","","","","","","","","","",""
"ДО «Неглинный» Филиала № 7701 Банка ВТБ (ПАО)","107031, г. Москва, Неглинная ул., д. 14, стр. 1А","","открытая","пн","10:00-19:00","есть РКО","","пн","10:00-19:00","Да (Зона Привилегия)","Универсальный","Y","Y","55.764275","37.620392","Москва, Таганско-Краснопресненская линия, метро Кузнецкий Мост","1132","True","False"
"","","","","вт","10:00-19:00","","","вт","10:00-19:00","","","","","","","","","",""
"","","","","ср","10:00-19:00","","","ср","10:00-19:00","","","","","","","","","",""
"","","","","чт","10:00-19:00","","","чт","10:00-19:00","","","","","","","","","",""
"","","","","пт","10:00-18:00","","","пт","10:00-19:00","","","","","","","","","",""
"","","","","сб","выходной","","","сб","выходной","","","","","","","","","",""
"","","","","вс","выходной","","","вс","выходной","","","","","","","","","",""
"ДО «Совет Федерации» Филиала № 7701 Банка ВТБ (ПАО)","107031, г. Москва, ул. Большая Дмитровка, д.24, стр. 1А","","открытая","Не обслуживает ЮЛ","null","нет РКО","","пн","09:00-18:00","нет","Микро (РБ)","N","N","55.763924","37.613396","Москва, Серпуховско-Тимирязевская линия, метро Чеховская","1178","False","False"
"","","","","","","","","вт","09:00-18:00","","","","","","","","","",""
"","","","","","","","","ср","09:00-18:00","","","","","","","","","",""
"","","","","","","","","чт","09:00-18:00","","","","","","","","","",""
"","","","","","","","","пт","09:00-17:00","","","","","","","","","",""
"","","","","","","","","сб","выходной","","","","","","","","","",""
"","","","","","","","","вс","выходной","","","","","","","","","",""
"Филиал «Центральный» Банка ВТБ (ПАО)","107031, г. Москва, ул. Рождественка, д. 10/2, стр. 1","","открытая","Не обслуживает ЮЛ","null","нет РКО","","Не обслуживает ФЛ","null","Нет","Филиал","N","N","55.763264","37.623825","Москва, Таганско-Краснопресненская линия, метро Кузнецкий Мост","1042","False","False"
"ДО «Лубянский» Филиала в г. Москве","101000, г. Москва, ул. Большая Лубянка, д. 16, стр. 1","","открытая","пн","09:00-18:00","есть РКО","","Не обслуживает ФЛ","null","Да","Корпоративный","N","N","55.762936","37.628845","Москва, Таганско-Краснопресненская линия, метро Кузнецкий Мост","1116","True","False"
"","","","","вт","09:00-18:00","","","","","","","","","","","","","",""
"","","","","ср","09:00-18:00","","","","","","","","","","","","","",""
"","","","","чт","09:00-18:00","","","","","","","","","","","","","",""
"","","","","пт","09:00-17:00","","","","","","","","","","","","","",""
"","","","","сб","выходной","","","","","","","","","","","","","",""
"","","","","вс","выходной","","","","","","","","","","","","","",""
"ДО «Лубянский» Филиала № 7701 Банка ВТБ (ПАО)","101000, г. Москва, ул. Большая Лубянка, д. 16, стр. 1","","открытая","Не обслуживает ЮЛ","null","нет РКО","","пн","09:00-19:00","Да (Зона Привилегия)","Розничный (РБ)","Y","N","55.762936","37.628845","Москва, Таганско-Краснопресненская линия, метро Кузнецкий Мост","1116","False","False"
"","","","","","","","","вт","09:00-19:00","","","","","","","","","",""
"","","","","","","","","ср","09:00-19:00","","","","","","","","","",""
"","","","","","","","","чт","09:00-19:00","","","","","","","","","",""
"","","","","","","","","пт","09:00-19:00","","","","","","","","","",""
"","","","","","","","","сб","выходной","","","","","","","","","",""
"","","","","","","","","вс","выходной","","","","","","","","","",""
"ДО № 26 «Лубянский» Банка ВТБ (ПАО)","101000, г. Москва, ул. Большая Лубянка, д. 16, стр. 1","","открытая","пн","09:00-18:00","null","","Не обслуживает ФЛ","null","Нет","Корпоративный","N","N","55.762936","37.628845","Москва, Таганско-Краснопресненская линия, метро Кузнецкий Мост","1116","False","False"
"","","","","вт","09:00-18:00","","","","","","","","","","","","","",""
"","","","","ср","09:00-18:00","","","","","","","","","","","","","",""
"","","","","чт","09:00-18:00","","","","","","","","","","","","","",""
"","","","","пт","09:00-17:00","","","","","","","","","","","","","",""
"","","","","сб","выходной","","","","","","","","","","","","","",""
"","","","","вс","выходной","","","","","","","","","","","","","",""
"ДО «Кузнецкий мост» Филиала № 7701 Банка ВТБ (ПАО)","107031, г. Москва, ул. Рождественка, д. 8/15, стр. 3","","открытая","Не обслуживает ЮЛ","null","нет РКО","","пн","10:00-19:00","Да (Офис Привилегия)","Привилегия (РБ)","N","Y","55.762398","37.623951","Москва, Таганско-Краснопресненская линия, метро Кузнецкий Мост","950","False","False"
"","","","","","","","","вт","10:00-19:00","","","","","","","","","",""
"","","","","","","","","ср","10:00-19:00","","","","","","","","","",""
"","","","","","","","","чт","10:00-19:00","","","","","","","","","",""
"","","","","","","","","пт","10:00-19:00","","","","","","","","","",""
"","","","","","","","","сб","выходной","","","","","","","","","",""
"","","","","","","","","вс","выходной","","","","","","","","","",""
"ДО «Тургеневский» Филиала в г. Москве","107031, г. Москва, ул. Кузнецкий Мост, д. 17, стр. 1","","открытая","пн","09:00-18:00","нет РКО","","Не обслуживает ФЛ","null","нет","Корпоративный","N","N","55.762272","37.624821","Москва, Таганско-Краснопресненская линия, метро Кузнецкий Мост","950","False","False"
"","","","","вт","09:00-18:00","","","","","","","","","","","","","",""
"","","","","ср","09:00-18:00","","","","","","","","","","","","","",""
"","","","","чт","09:00-18:00","","","","","","","","","","","","","",""
"","","","","пт","09:00-18:00","","","","","","","","","","","","","",""
"","","","","сб","выходной","","","","","","","","","","","","","",""
"","","","","вс","выходной","","","","","","","","","","","","","",""
"ДО №3 «Тургеневский» Банка ВТБ (ПАО)","107031, г. Москва, ул. Кузнецкий Мост, д. 17, стр. 1","","открытая","пн","09:00-18:00","нет РКО","","Не обслуживает ФЛ","null","Нет","Корпоративный","N","N","55.762272","37.624821","Москва, Таганско-Краснопресненская линия, метро Кузнецкий Мост","950","False","False"
"","","","","вт","09:00-18:00","","","","","","","","","","","","","",""
"","","","","ср","09:00-18:00","","","","","","","","","","","","","",""
"","","","","чт","09:00-18:00","","","","","","","","","","","","","",""
"","","","","пт","09:00-17:00","","","","","","","","","","","","","",""
"","","","","сб","выходной","","","","","","","","","","","","","",""
"","","","","вс","выходной","","","","","","","","","","","","","",""
"ДО «Рождественка» Филиала № 7701 Банка ВТБ (ПАО)","107031, г. Москва, ул. Кузнецкий Мост, д. 17, стр. 1","","открытая","пн","09:00-18:00","нет РКО","","Не обслуживает ФЛ","null","Да","Корпоративный","N","N","55.762272","37.624821","Москва, Таганско-Краснопресненская линия, метро Кузнецкий Мост","950","False","False"
"","","","","вт","09:00-18:00","","","","","","","","","","","","","",""
"","","","","ср","09:00-18:00","","","","","","","","","","","","","",""
"","","","","чт","09:00-18:00","","","","","","","","","","","","","",""
"","","","","пт","09:00-17:00","","","","","","","","","","","","","",""
"","","","","сб","выходной","","","","","","","","","","","","","",""
"","","","","вс","выходной","","","","","","","","","","","","","",""
"ДО «Центральный» в г. Москве Филиала № 7701 Банка ВТБ (ПАО)","107031, г. Москва, ул. Кузнецкий Мост, д. 17, стр. 1","","открытая","пн","09:00-18:00","есть РКО","","пн","09:00-20:00","Да","Универсальный","Y","Y","55.762272","37.624821","Москва, Таганско-Краснопресненская линия, метро Кузнецкий Мост","950","False","False"
"","","","","вт","09:00-18:00","","","вт","09:00-20:00","","","","","","","","","",""
"","","","","ср","09:00-18:00","","","ср","09:00-20:00","","","","","","","","","",""
"","","","","чт","09:00-18:00","","","чт","09:00-20:00","","","","","","","","","",""
"","","","","пт","09:00-17:00","","","пт","09:00-20:00","","","","","","","","","",""
"","","","","сб","выходной","","","сб","выходной","","","","","","","","","",""
"","","","","вс","выходной","","","вс","выходной","","","","","","","","","",""
"Филиал № 7701 Банка ВТБ (ПАО)","107031, г. Москва, ул. Кузнецкий Мост, д. 17, стр. 1","","открытая","Не обслуживает ЮЛ","null","null","null","Не обслуживает ФЛ","null","Нет","Универсальный","null","null","55.762272","37.624821","Кузнецкий мост (Таганско-Краснопресненская линия)","950","null","False"
"ДО «Тверская, 8» Филиала № 7701 Банка ВТБ (ПАО)","103009, г. Москва, ул. Тверская, д. 8, стр. 1","","открытая","пн","10:00-19:00","есть РКО","","пн","10:00-19:00","Да (Зона Привилегия)","Универсальный","Y","Y","55.762119","37.609638","Москва, Замоскворецкая линия, метро Тверская","1118","True","False"
"","","","","вт","10:00-19:00","","","вт","10:00-19:00","","","","","","","","","",""
"","","","","ср","10:00-19:00","","","ср","10:00-19:00","","","","","","","","","",""
"","","","","чт","10:00-19:00","","","чт","10:00-19:00","","","","","","","","","",""
"","","","","пт","10:00-18:00","","","пт","10:00-19:00","","","","","","","","","",""
"","","","","сб","выходной","","","сб","выходной","","","","","","","","","",""
"","","","","вс","выходной","","","вс","выходной","","","","","","","","","",""
"ДО ЦИК «Пушечный» Филиала № 7701 Банка ВТБ (ПАО)","107031, г. Москва, ул. Кузнецкий мост, д. 16/5, стр. 1","","открытая","Не обслуживает ЮЛ","null","нет РКО","","пн","09:00-18:00","Да","Розничный (РБ)","N","Y","55.761597","37.622082","Москва, Таганско-Краснопресненская линия, метро Кузнецкий Мост","841","False","False"
"","","","","","","","","вт","09:00-18:00","","","","","","","","","",""
"","","","","","","","","ср","09:00-18:00","","","","","","","","","",""
"","","","","","","","","чт","09:00-18:00","","","","","","","","","",""
"","","","","","","","","пт","09:00-18:00","","","","","","","","","",""
"","","","","","","","","сб","выходной","","","","","","","","","",""
"","","","","","","","","вс","выходной","","","","","","","","","",""
"ДО «Земляной вал» Филиала в г. Москве","105064, г. Москва, ул. Земляной вал, д. 14-16, стр. 1","","открытая","пн","09:00-18:00","есть РКО","","Не обслуживает ФЛ","null","Да","Корпоративный","N","N","55.761307","37.656288","Москва, Арбатско-Покровская линия, метро Курская","2384","True","False"
"","","","","вт","09:00-18:00","","","","","","","","","","","","","",""
"","","","","ср","09:00-18:00","","","","","","","","","","","","","",""
"","","","","чт","09:00-18:00","","","","","","","","","","","","","",""
"","","","","пт","09:00-17:00","","","","","","","","","","","","","",""
"","","","","сб","выходной","","","","","","","","","","","","","",""
"","","","","вс","выходной","","","","","","","","","","","","","",""
"ДО №16 «Земляной вал» Банка ВТБ (ПАО)","105064, г. Москва, ул. Земляной вал, д. 14-16, стр. 1","","открытая","пн","09:00-18:00","null","","Не обслуживает ФЛ","null","Нет","Корпоративный","N","N","55.761307","37.656288","Москва, Арбатско-Покровская линия, метро Курская","2384","False","False"
"","","","","вт","09:00-18:00","","","","","","","","","","","","","",""
"","","","","ср","09:00-18:00","","","","","","","","","","","","","",""
"","","","","чт","09:00-18:00","","","","","","","","","","","","","",""
"","","","","пт","09:00-17:00","","","","","","","","","","","","","",""
"","","","","сб","выходной","","","","","","","","","","","","","",""
"","","","","вс","выходной","","","","","","","","","","","","","",""
"ДО «Тверская,13» Филиала № 7701 Банка ВТБ (ПАО)","103032, г. Москва, ул. Тверская, д. 13","","открытая","Не обслуживает ЮЛ","null","нет РКО","","пн","09:00-18:00","нет","Розничный (РБ)","N","N","55.761257","37.609119","Москва, Замоскворецкая линия, метро Тверская","1065","False","False"
"","","","","","","","","вт","09:00-18:00","","","","","","","","","",""
"","","","","","","","","ср","09:00-18:00","","","","","","","","","",""
"","","","","","","","","чт","09:00-18:00","","","","","","","","","",""
"","","","","","","","","пт","09:00-16:45","","","","","","","","","",""
"","","","","","","","","сб","выходной","","","","","","","","","",""
"","","","","","","","","вс","выходной","","","","","","","","","",""
"ДО «Краснопресненский» Филиала № 7701 Банка ВТБ (ПАО)","123242, г. Москва, ул. Красная Пресня, д.11","","открытая","Не обслуживает ЮЛ","null","нет РКО","","пн","10:00-19:00","Да (Офис Привилегия)","Привилегия (РБ)","N","Y","55.761189","37.572323","Москва, Кольцевая линия, метро Краснопресненская","3110","False","False"
"","","","","","","","","вт","10:00-19:00","","","","","","","","","",""
"","","","","","","","","ср","10:00-19:00","","","","","","","","","",""
"","","","","","","","","чт","10:00-19:00","","","","","","","","","",""
"","","","","","","","","пт","10:00-19:00","","","","","","","","","",""
"","","","","","","","","сб","выходной","","","","","","","","","",""
"","","","","","","","","вс","выходной","","","","","","","","","",""
"ДО «Шелепихинский» Филиала № 7701 Банка ВТБ (ПАО)","123290, г. Москва, Шелепихинская наб. д. 34","","открытая","Не обслуживает ЮЛ","null","null","","пн","10:00-19:00","да","Розничный (РБ)","Y","N","55.760998","37.513626","null","6725","False","False"
"","","","","","","","","вт","10:00-19:00","","","","","","","","","",""
"","","","","","","","","ср","10:00-19:00","","","","","","","","","",""
"","","","","","","","","чт","10:00-19:00","","","","","","","","","",""
"","","","","","","","","пт","10:00-19:00","","","","","","","","","",""
"","","","","","","","","сб","выходной","","","","","","","","","",""
"","","","","","","","","вс","выходной","","","","","","","","","",""
"ДО «Покровка» Филиала № 7701 Банка ВТБ (ПАО)","105062, г. Москва, ул. Покровка, д. 28, стр. 1","","открытая","Не обслуживает ЮЛ","null","нет РКО","","пн","09:00-20:00","Да (Офис Привилегия)","Привилегия (РБ)","N","Y","55.760429","37.650028","null","1983","False","False"
"","","","","","","","","вт","09:00-20:00","","","","","","","","","",""
"","","","","","","","","ср","09:00-20:00","","","","","","","","","",""
"","","","","","","","","чт","09:00-20:00","","","","","","","","","",""
"","","","","","","","","пт","09:00-20:00","","","","","","","","","",""
"","","","","","","","","сб","10:00-17:00","","","","","","","","","",""
"","","","","","","","","вс","выходной","","","","","","","","","",""
"ДО «Тверской» Филиала № 7701 Банка ВТБ (ПАО)","125009, г. Москва, ул. Тверская, д. 6/1, стр. 7","","открытая","пн","10:00-19:00","есть РКО","","пн","10:00-19:00","Да (Зона Привилегия)","Универсальный","Y","N","55.760258","37.611446","Москва, Сокольническая линия, метро Охотный Ряд","886","True","False"
"","","","","вт","10:00-19:00","","","вт","10:00-19:00","","","","","","","","","",""
"","","","","ср","10:00-19:00","","","ср","10:00-19:00","","","","","","","","","",""
"","","","","чт","10:00-19:00","","","чт","10:00-19:00","","","","","","","","","",""
"","","","","пт","10:00-18:00","","","пт","10:00-19:00","","","","","","","","","",""
"","","","","сб","выходной","","","сб","выходной","","","","","","","","","",""
"","","","","вс","выходной","","","вс","выходной","","","","","","","","","",""
"ДО «Курский» Филиала № 7701 Банка ВТБ (ПАО)","105064, г. Москва, ул. Земляной вал, д. 27, стр. 1","","открытая","пн","09:00-18:00","есть РКО","","пн","09:00-20:00","Да","Универсальный","Y","Y","55.759033","37.658295","Москва, Арбатско-Покровская линия, метро Курская","2433","True","False"
"","","","","вт","09:00-18:00","","","вт","09:00-20:00","","","","","","","","","",""
"","","","","ср","09:00-18:00","","","ср","09:00-20:00","","","","","","","","","",""
"","","","","чт","09:00-18:00","","","чт","09:00-20:00","","","","","","","","","",""
"","","","","пт","09:00-17:00","","","пт","09:00-20:00","","","","","","","","","",""
"","","","","сб","выходной","","","сб","10:00-15:00","","","","","","","","","",""
"","","","","вс","выходной","","","вс","выходной","","","","","","","","","",""
"ДО «Лучников переулок» Филиала № 7701 Банка ВТБ (ПАО)","101990, г. Москва Лучников переулок, д.7/4, строение 1","","открытая","Не обслуживает ЮЛ","null","null","","пн","09:00-20:00","Да","Розничный (РБ)","N","N","55.758884","37.631359","Москва, Калужско-Рижская линия, метро Китай-город","868","False","False"
"","","","","","","","","вт","09:00-20:00","","","","","","","","","",""
"","","","","","","","","ср","09:00-20:00","","","","","","","","","",""
"","","","","","","","","чт","09:00-20:00","","","","","","","","","",""
"","","","","","","","","пт","09:00-20:00","","","","","","","","","",""
"","","","","","","","","сб","10:00-16:00","","","","","","","","","",""
"","","","","","","","","вс","выходной","","","","","","","","","",""
"ДО «Шоссе Энтузиастов» Филиала № 7701 Банка ВТБ (ПАО)","111123, г. Москва, шоссе Энтузиастов, д.31, стр. 39","","открытая","Не обслуживает ЮЛ","null","нет РКО","","пн","10:00-19:00","Да (Зона Привилегия)","Розничный (РБ)","Y","N","55.758862","37.752048","Москва, Калининско-Солнцевская линия, метро Шоссе Энтузиастов","8254","False","False"
"","","","","","","","","вт","10:00-19:00","","","","","","","","","",""
"","","","","","","","","ср","10:00-19:00","","","","","","","","","",""
"","","","","","","","","чт","10:00-19:00","","","","","","","","","",""
"","","","","","","","","пт","10:00-19:00","","","","","","","","","",""
"","","","","","","","","сб","выходной","","","","","","","","","",""
"","","","","","","","","вс","выходной","","","","","","","","","",""
"ДО «Георгиевский» Филиала № 7701 Банка ВТБ (ПАО)","103265, г. Москва, Георгиевский пер., д. 2","","открытая","Не обслуживает ЮЛ","null","нет РКО","","пн","09:00-18:00","пропускная система, находится в здании ГосДумы","Розничный (РБ)","N","N","55.758476","37.614735","Москва, Сокольническая линия, метро Охотный Ряд","603","False","False"
"","","","","","","","","вт","09:00-18:00","","","","","","","","","",""
"","","","","","","","","ср","09:00-18:00","","","","","","","","","",""
"","","","","","","","","чт","09:00-18:00","","","","","","","","","",""
"","","","","","","","","пт","09:00-17:00","","","","","","","","","",""
"","","","","","","","","сб","выходной","","","","","","","","","",""
"","","","","","","","","вс","выходной","","","","","","","","","",""
"ДО «Охотный ряд-Прайм» Филиала № 7777 Банка ВТБ (ПАО)","103265, г. Москва, Охотный ряд, д. 1","","открытая","Не обслуживает ЮЛ","null","null","","пн","09:00-18:00","Да","Прайм (РБ)","N","N","55.757996","37.615902","Москва, Сокольническая линия, метро Охотный Ряд","517","False","False"
"","","","","","","","","вт","09:00-18:00","","","","","","","","","",""
"","","","","","","","","ср","09:00-18:00","","","","","","","","","",""
"","","","","","","","","чт","09:00-18:00","","","","","","","","","",""
"","","","","","","","","пт","09:00-16:45","","","","","","","","","",""
"","","","","","","","","сб","выходной","","","","","","","","","",""
"","","","","","","","","вс","выходной","","","","","","","","","",""
"ДО «Крылатское» Филиала № 7701 Банка ВТБ (ПАО)","121609, г. Москва, ул. Осенний бульвар, д. 7, кор. 1","","открытая","Не обслуживает ЮЛ","null","нет РКО","","пн","10:00-20:00","Да (Зона Привилегия)","Розничный (РБ)","Y","Y","55.757774","37.406872","Москва, Арбатско-Покровская линия, метро Крылатское","13367","False","False"
"","","","","","","","","вт","10:00-20:00","","","","","","","","","",""
"","","","","","","","","ср","10:00-20:00","","","","","","","","","",""
"","","","","","","","","чт","10:00-20:00","","","","","","","","","",""
"","","","","","","","","пт","10:00-20:00","","","","","","","","","",""
"","","","","","","","","сб","10:00-17:00","","","","","","","","","",""
"","","","","","","","","вс","выходной","","","","","","","","","",""
"ДО «Никитский» Филиала № 7701 Банка ВТБ (ПАО)","121069, г. Москва, ул. Большая Никитская, д. 33, стр. 1","","открытая","пн","09:00-18:00","есть РКО","","пн","09:00-18:00","Да (Зона Привилегия)","Универсальный","Y","Y","55.757092","37.595619","null","1586","False","False"
"","","","","вт","09:00-18:00","","","вт","09:00-18:00","","","","","","","","","",""
"","","","","ср","09:00-18:00","","","ср","09:00-18:00","","","","","","","","","",""
"","","","","чт","09:00-18:00","","","чт","09:00-18:00","","","","","","","","","",""
"","","","","пт","09:00-17:00","","","пт","09:00-18:00","","","","","","","","","",""
"","","","","сб","выходной","","","сб","выходной","","","","","","","","","",""
"","","","","вс","выходной","","","вс","выходной","","","","","","","","","",""
"ДО «Б. Черкасский, 10/11» Филиала № 7701 Банка ВТБ (ПАО)","109097, г. Москва, Б. Черкасский пер., д. 10/11, стр. 1","","открытая","Не обслуживает ЮЛ","null","нет РКО","","пн","09:00-17:00","закрытый доступ, находится в здании Министерства финансов РФ","Розничный (РБ)","N","N","55.756058","37.626663","Москва, Арбатско-Покровская линия, метро Площадь Революции","448","False","False"
"","","","","","","","","вт","09:00-17:00","","","","","","","","","",""
"","","","","","","","","ср","09:00-17:00","","","","","","","","","",""
"","","","","","","","","чт","09:00-17:00","","","","","","","","","",""
"","","","","","","","","пт","09:00-17:00","","","","","","","","","",""
"","","","","","","","","сб","выходной","","","","","","","","","",""
"","","","","","","","","вс","выходной","","","","","","","","","",""
"ДО «ГУМ» Филиала № 7701 Банка ВТБ (ПАО)","109012, г. Москва, Красная площадь, д. 3","","открытая","Не обслуживает ЮЛ","null","нет РКО","","пн","10:00-22:00","Да (Зона Привилегия)","Розничный (РБ)","Y","Y","55.754742","37.621407","Москва, Арбатско-Покровская линия, метро Площадь Революции","95","False","False"
"","","","","","","","","вт","10:00-22:00","","","","","","","","","",""
"","","","","","","","","ср","10:00-22:00","","","","","","","","","",""
"","","","","","","","","чт","10:00-22:00","","","","","","","","","",""
"","","","","","","","","пт","10:00-22:00","","","","","","","","","",""
"","","","","","","","","сб","10:00-22:00","","","","","","","","","",""
"","","","","","","","","вс","10:00-22:00","","","","","","","","","",""
"ДО «Авиамоторный» Филиала № 7701 Банка ВТБ (ПАО)","111024, г. Москва, ул. Авиамоторная, д. 10, кор. 1","","открытая","пн","10:00-19:00","есть РКО","","пн","10:00-19:00","Да (Зона Привилегия)","Универсальный","Y","Y","55.754257","37.715244","null","5934","False","False"
"","","","","вт","10:00-19:00","","","вт","10:00-19:00","","","","","","","","","",""
"","","","","ср","10:00-19:00","","","ср","10:00-19:00","","","","","","","","","",""
"","","","","чт","10:00-19:00","","","чт","10:00-19:00","","","","","","","","","",""
"","","","","пт","10:00-18:00","","","пт","10:00-19:00","","","","","","","","","",""
"","","","","сб","выходной","","","сб","10:00-17:00","","","","","","","","","",""
"","","","","вс","выходной","","","вс","выходной","","","","","","","","","",""
"ДО «ЦМТ» Филиала № 7701 Банка ВТБ (ПАО)","123610, г. Москва, Краснопресненская набережная, д. 12","","открытая","Не обслуживает ЮЛ","null","нет РКО","","пн","09:00-18:00","Да","Микро (РБ)","N","Y","55.754204","37.556389","null","4006","False","False"
"","","","","","","","","вт","09:00-18:00","","","","","","","","","",""
"","","","","","","","","ср","09:00-18:00","","","","","","","","","",""
"","","","","","","","","чт","09:00-18:00","","","","","","","","","",""
"","","","","","","","","пт","09:00-18:00","","","","","","","","","",""
"","","","","","","","","сб","выходной","","","","","","","","","",""
"","","","","","","","","вс","выходной","","","","","","","","","",""
"ДО «Реутовский» Филиала № 7701 Банка ВТБ (ПАО)","143969, Московская область, г. Реутов, ул. Ленина, д. 4","","открытая","пн","09:00-18:00","есть РКО","","пн","09:00-20:00","Да (Зона Привилегия)","Универсальный","Y","N","55.754158","37.859192","null","14942","False","False"
"","","","","вт","09:00-18:00","","","вт","09:00-20:00","","","","","","","","","",""
"","","","","ср","09:00-18:00","","","ср","09:00-20:00","","","","","","","","","",""
"","","","","чт","09:00-18:00","","","чт","09:00-20:00","","","","","","","","","",""
"","","","","пт","09:00-17:00","","","пт","09:00-20:00","","","","","","","","","",""
"","","","","сб","выходной","","","сб","10:00-17:00","","","","","","","","","",""
"","","","","вс","выходной","","","вс","выходной","","","","","","","","","",""
"ДО «Новоарбатский» Филиала № 7701 Банка ВТБ (ПАО)","121205, г. Москва, ул. Новый Арбат, д. 36","","открытая","пн","09:00-18:00","есть РКО","","пн","09:00-18:00","Да (Зона Привилегия)","Универсальный","Y","N","55.753666","37.577129","null","2709","True","False"
"","","","","вт","09:00-18:00","","","вт","09:00-18:00","","","","","","","","","",""
"","","","","ср","09:00-18:00","","","ср","09:00-18:00","","","","","","","","","",""
"","","","","чт","09:00-18:00","","","чт","09:00-18:00","","","","","","","","","",""
"","","","","пт","09:00-17:00","","","пт","09:00-18:00","","","","","","","","","",""
"","","","","сб","выходной","","","сб","выходной","","","","","","","","","",""
"","","","","вс","выходной","","","вс","выходной","","","","","","","","","",""
"ДО «Новый Арбат» Филиала № 7701 Банка ВТБ (ПАО)","121069, г. Москва, ул. Б. Молчановка, д. 17","","открытая","Не обслуживает ЮЛ","null","нет РКО","","пн","09:00-20:00","Да (Офис Привилегия)","Привилегия (РБ)","N","N","55.753002","37.59259","null","1745","False","False"
"","","","","","","","","вт","09:00-20:00","","","","","","","","","",""
"","","","","","","","","ср","09:00-20:00","","","","","","","","","",""
"","","","","","","","","чт","09:00-20:00","","","","","","","","","",""
"","","","","","","","","пт","09:00-20:00","","","","","","","","","",""
"","","","","","","","","сб","выходной","","","","","","","","","",""
"","","","","","","","","вс","выходной","","","","","","","","","",""
"ДО «Воздвиженка» Филиала № 7701 Банка ВТБ (ПАО)","119019, г. Москва, ул. Воздвиженка, д. 9","","открытая","пн","09:00-18:00","есть РКО","","пн","09:00-20:00","Да (Зона Привилегия)","Универсальный","Y","Y","55.75259","37.604752","Москва, Арбатско-Покровская линия, метро Арбатская","994","False","False"
"","","","","вт","09:00-18:00","","","вт","09:00-20:00","","","","","","","","","",""
"","","","","ср","09:00-18:00","","","ср","09:00-20:00","","","","","","","","","",""
"","","","","чт","09:00-18:00","","","чт","09:00-20:00","","","","","","","","","",""
"","","","","пт","09:00-17:00","","","пт","09:00-20:00","","","","","","","","","",""
"","","","","сб","выходной","","","сб","выходной","","","","","","","","","",""
"","","","","вс","выходной","","","вс","выходной","","","","","","","","","",""
"ДО «Новогиреево» Филиала № 7701 Банка ВТБ (ПАО)","111396, г. Москва, Свободный пр-т, д. 20","","открытая","пн","10:00-19:00","есть РКО","","пн","10:00-19:00","Да (Зона Привилегия)","Универсальный","Y","N","55.750858","37.815983","Москва, Калининско-Солнцевская линия, метро Новогиреево","12244","True","False"
"","","","","вт","10:00-19:00","","","вт","10:00-19:00","","","","","","","","","",""
"","","","","ср","10:00-19:00","","","ср","10:00-19:00","","","","","","","","","",""
"","","","","чт","10:00-19:00","","","чт","10:00-19:00","","","","","","","","","",""
"","","","","пт","10:00-18:00","","","пт","10:00-19:00","","","","","","","","","",""
"","","","","сб","выходной","","","сб","10:00-17:00","","","","","","","","","",""
"","","","","вс","выходной","","","вс","выходной","","","","","","","","","",""
"ДО «Москва-Сити» Филиала № 7701 Банка ВТБ (ПАО)","123317, г. Москва, Пресненская наб., д. 10 стр. 1","","открытая","пн","10:00-19:00","есть РКО","","пн","10:00-20:00","Да (Зона Привилегия)","Универсальный","Y","Y","55.749634","37.537434","Москва, Калининско-Солнцевская линия, метро Деловой центр","5216","True","False"
"","","","","вт","10:00-19:00","","","вт","10:00-20:00","","","","","","","","","",""
"","","","","ср","10:00-19:00","","","ср","10:00-20:00","","","","","","","","","",""
"","","","","чт","10:00-19:00","","","чт","10:00-20:00","","","","","","","","","",""
"","","","","пт","10:00-18:00","","","пт","10:00-20:00","","","","","","","","","",""
"","","","","сб","выходной","","","сб","выходной","","","","","","","","","",""
"","","","","вс","выходной","","","вс","выходной","","","","","","","","","",""
"Филиал Банка ВТБ (ПАО) в г. Москве","123317, г. Москва, наб. Пресненская, д. 12, 3 этаж.","","открытая","Не обслуживает ЮЛ","null","нет РКО","","Не обслуживает ФЛ","null","Нет","Филиал","N","N","55.749634","37.537434","Москва, Калининско-Солнцевская линия, метро Деловой центр","5216","False","True"
"ДО «Железнодорожный» Филиала № 7701 Банка ВТБ (ПАО)","143980, Московская область, г. Железнодорожный, ул. Пролетарская, д. 2, пом. 1 (№1-13)","","открытая","пн","09:00-18:00","есть РКО","","пн","09:00-20:00","Да","Универсальный","Y","N","55.749546","38.007694","null","24241","True","False"
"","","","","вт","09:00-18:00","","","вт","09:00-20:00","","","","","","","","","",""
"","","","","ср","09:00-18:00","","","ср","09:00-20:00","","","","","","","","","",""
"","","","","чт","09:00-18:00","","","чт","09:00-20:00","","","","","","","","","",""
"","","","","пт","09:00-17:00","","","пт","09:00-20:00","","","","","","","","","",""
"","","","","сб","выходной","","","сб","10:00-17:00","","","","","","","","","",""
"","","","","вс","выходной","","","вс","выходной","","","","","","","","","",""
"ДО «Арбатский» Филиала № 7701 Банка ВТБ (ПАО)","119002, г. Москва, ул. Арбат, д. 35","","открытая","Не обслуживает ЮЛ","null","нет РКО","","пн-пт","10:00-19:00","Да (Зона Привилегия)","Мини_расш","Y","N","55.749386","37.591702","null","1871","null","False"
"","","","","","","","","сб,вс","выходной","","","","","","","","","",""
"ДО «Перовский» Филиала № 7701 Банка ВТБ (ПАО)","111397, г. Москва, ул. Владимирская 2-я, д. 45","","открытая","пн","10:00-19:00","есть РКО","","пн","10:00-19:00","Да","Универсальный","Y","N","55.749359","37.786266","Москва, Калининско-Солнцевская линия, метро Перово","10393","True","False"
"","","","","вт","10:00-19:00","","","вт","10:00-19:00","","","","","","","","","",""
"","","","","ср","10:00-19:00","","","ср","10:00-19:00","","","","","","","","","",""
"","","","","чт","10:00-19:00","","","чт","10:00-19:00","","","","","","","","","",""
"","","","","пт","10:00-18:00","","","пт","10:00-19:00","","","","","","","","","",""
"","","","","сб","выходной","","","сб","10:00-17:00","","","","","","","","","",""
"","","","","вс","выходной","","","вс","выходной","","","","","","","","","",""
"ДО «Афимолл» Филиала № 7701 Банка ВТБ (ПАО)","123112, г. Москва, Пресненская набережная, д. 2","","открытая","Не обслуживает ЮЛ","null","нет РКО","","пн","10:00-22:00","Да","Розничный (РБ)","Y","N","55.749161","37.539742","Москва, Большая кольцевая линия, метро Деловой центр","5078","False","False"
"","","","","","","","","вт","10:00-22:00","","","","","","","","","",""
"","","","","","","","","ср","10:00-22:00","","","","","","","","","",""
"","","","","","","","","чт","10:00-22:00","","","","","","","","","",""
"","","","","","","","","пт","10:00-22:00","","","","","","","","","",""
"","","","","","","","","сб","10:00-22:00","","","","","","","","","",""
"","","","","","","","","вс","10:00-22:00","","","","","","","","","",""
"ДО «Земляной вал» Филиала № 7701 Банка ВТБ (ПАО)","109240, г. Москва, ул. Земляной Вал, д. 52/16, стр. 1","","открытая","пн","10:00-19:00","есть РКО","","пн","10:00-19:00","Да (Зона Привилегия)","Универсальный","Y","Y","55.748947","37.65514","null","2248","True","False"
"","","","","вт","10:00-19:00","","","вт","10:00-19:00","","","","","","","","","",""
"","","","","ср","10:00-19:00","","","ср","10:00-19:00","","","","","","","","","",""
"","","","","чт","10:00-19:00","","","чт","10:00-19:00","","","","","","","","","",""
"","","","","пт","10:00-18:00","","","пт","10:00-19:00","","","","","","","","","",""
"","","","","сб","выходной","","","сб","выходной","","","","","","","","","",""
"","","","","вс","выходной","","","вс","выходной","","","","","","","","","",""
"ДО «Деловая столица» Филиала № 7777 Банка ВТБ (ПАО)","123317, г. Москва, Пресненская наб., д. 10 стр. 1","","открытая","Не обслуживает ЮЛ","null","null","","пн","09:30-20:00","нет","Прайм (РБ)","N","N","55.748913","37.535477","Москва, Филёвская линия, метро Международная","5346","False","False"
"","","","","","","","","вт","09:30-20:00","","","","","","","","","",""
"","","","","","","","","ср","09:30-20:00","","","","","","","","","",""
"","","","","","","","","чт","09:30-20:00","","","","","","","","","",""
"","","","","","","","","пт","09:30-20:00","","","","","","","","","",""
"","","","","","","","","сб","выходной","","","","","","","","","",""
"","","","","","","","","вс","выходной","","","","","","","","","",""
"ДО «Арбат, 51» Филиала № 7701 Банка ВТБ (ПАО)","121002, г. Москва, ул. Арбат, д. 51, стр. 1","","открытая","пн","10:00-19:00","есть РКО","","пн","10:00-19:00","Да (Зона Привилегия)","Универсальный","Y","N","55.747784","37.586689","Москва, Арбатско-Покровская линия, метро Смоленская","2224","True","False"
"","","","","вт","10:00-19:00","","","вт","10:00-19:00","","","","","","","","","",""
"","","","","ср","10:00-19:00","","","ср","10:00-19:00","","","","","","","","","",""
"","","","","чт","10:00-19:00","","","чт","10:00-19:00","","","","","","","","","",""
"","","","","пт","10:00-18:00","","","пт","10:00-19:00","","","","","","","","","",""
"","","","","сб","выходной","","","сб","выходной","","","","","","","","","",""
"","","","","вс","выходной","","","вс","выходной","","","","","","","","","",""
"ДО «На Носовихинском» Филиала № 7701 Банка ВТБ (ПАО)","143969, Московская область, г. Реутов, Носовихинское ш., вл. 17В","","открытая","Не обслуживает ЮЛ","null","нет РКО","","пн","10:00-20:00","Да (Зона Привилегия)","Розничный (РБ)","Y","N","55.747402","37.871967","Москва, Калининско-Солнцевская линия, метро Новокосино","15760","False","False"
"","","","","","","","","вт","10:00-20:00","","","","","","","","","",""
"","","","","","","","","ср","10:00-20:00","","","","","","","","","",""
"","","","","","","","","чт","10:00-20:00","","","","","","","","","",""
"","","","","","","","","пт","10:00-20:00","","","","","","","","","",""
"","","","","","","","","сб","10:00-17:00","","","","","","","","","",""
"","","","","","","","","вс","выходной","","","","","","","","","",""
"ДО «Рублевский» Филиала № 7701 Банка ВТБ (ПАО)","121615, г. Москва, Рублевское шоссе, д.28, кор. 1","","открытая","пн","10:00-19:00","есть РКО","","пн","10:00-20:00","Да (Зона Привилегия)","Универсальный","Y","N","55.746796","37.421307","null","12486","True","False"
"","","","","вт","10:00-19:00","","","вт","10:00-20:00","","","","","","","","","",""
"","","","","ср","10:00-19:00","","","ср","10:00-20:00","","","","","","","","","",""
"","","","","чт","10:00-19:00","","","чт","10:00-20:00","","","","","","","","","",""
"","","","","пт","10:00-18:00","","","пт","10:00-20:00","","","","","","","","","",""
"","","","","сб","выходной","","","сб","10:00-17:00","","","","","","","","","",""
"","","","","вс","выходной","","","вс","выходной","","","","","","","","","",""
"ДО «Римский» Филиала № 7701 Банка ВТБ (ПАО)","109544, г. Москва, бульвар Энтузиастов, д. 2","","открытая","пн","09:00-18:00","есть РКО","","пн","09:00-20:00","Да (Зона Привилегия)","Универсальный","Y","Y","55.746483","37.682617","Москва, Люблинско-Дмитровская линия, метро Римская","3984","True","False"
"","","","","вт","09:00-18:00","","","вт","09:00-20:00","","","","","","","","","",""
"","","","","ср","09:00-18:00","","","ср","09:00-20:00","","","","","","","","","",""
"","","","","чт","09:00-18:00","","","чт","09:00-20:00","","","","","","","","","",""
"","","","","пт","09:00-17:00","","","пт","09:00-20:00","","","","","","","","","",""
"","","","","сб","выходной","","","сб","выходной","","","","","","","","","",""
"","","","","вс","выходной","","","вс","выходной","","","","","","","","","",""
"ДО «Фили» Филиала № 7701 Банка ВТБ (ПАО)","121087, г. Москва, Багратионовский пр-д, д. 1А, корп. 1","","открытая","Не обслуживает ЮЛ","null","null","","пн-пт","10:00-19:00","Да","Микро (РБ)","N","N","55.745804","37.513115","Фили (Филёвская линия)","6777","null","False"
"","","","","","","","","сб,вс","выходной","","","","","","","","","",""
"ДО «Гоголевский» Филиала № 7777 Банка ВТБ (ПАО)","119019, г. Москва, Гоголевский б-р, д. 5, стр. 1","","открытая","Не обслуживает ЮЛ","null","нет РКО","","пн","09:30-20:00","нет","Прайм (РБ)","N","Y","55.745148","37.599743","Москва, Сокольническая линия, метро Кропоткинская","1631","False","False"
"","","","","","","","","вт","09:30-20:00","","","","","","","","","",""
"","","","","","","","","ср","09:30-20:00","","","","","","","","","",""
"","","","","","","","","чт","09:30-20:00","","","","","","","","","",""
"","","","","","","","","пт","09:30-20:00","","","","","","","","","",""
"","","","","","","","","сб","09:30-16:00","","","","","","","","","",""
"","","","","","","","","вс","выходной","","","","","","","","","",""
"ДО «Центр Железнодорожный» Филиала № 7701 Банка ВТБ (ПАО)","143980, Московская область, г. Железнодорожный, ш. Саввинское, д. 4, кор. 1","","открытая","пн","09:00-18:00","есть РКО","","пн","09:00-20:00","Да (Зона Привилегия)","Универсальный","Y","Y","55.743633","38.012463","null","24563","True","False"
"","","","","вт","09:00-18:00","","","вт","09:00-20:00","","","","","","","","","",""
"","","","","ср","09:00-18:00","","","ср","09:00-20:00","","","","","","","","","",""
"","","","","чт","09:00-18:00","","","чт","09:00-20:00","","","","","","","","","",""
"","","","","пт","09:00-17:00","","","пт","09:00-20:00","","","","","","","","","",""
"","","","","сб","выходной","","","сб","10:00-17:00","","","","","","","","","",""
"","","","","вс","выходной","","","вс","выходной","","","","","","","","","",""
"ДО «Киевский» Филиала № 7701 Банка ВТБ (ПАО)","121059, г. Москва, ул. Киевская, д. 2","","открытая","Не обслуживает ЮЛ","null","нет РКО","","пн","10:00-19:00","Да","Микро (РБ)","Y","N","55.74332","37.562695","Москва, Филёвская линия, метро Киевская","3805","False","False"
"","","","","","","","","вт","10:00-19:00","","","","","","","","","",""
"","","","","","","","","ср","10:00-19:00","","","","","","","","","",""
"","","","","","","","","чт","10:00-19:00","","","","","","","","","",""
"","","","","","","","","пт","10:00-19:00","","","","","","","","","",""
"","","","","","","","","сб","выходной","","","","","","","","","",""
"","","","","","","","","вс","выходной","","","","","","","","","",""
"ДО «Пятницкий» Филиала № 7701 Банка ВТБ (ПАО)","115035, г. Москва, ул. Пятницкая, д. 21, строение 1","","открытая","Не обслуживает ЮЛ","null","нет РКО","","пн-пт","10:00-19:00","Да","Розничный (РБ)","Y","Y","55.742702","37.628639","Новокузнецкая (Замоскворецкая линия)","1367","null","False"
"","","","","","","","","сб,вс","выходной","","","","","","","","","",""
"ДО «Ростелеком» Филиала № 7701 Банка ВТБ (ПАО)","115172, г. Москва, ул. Гончарная, д. 30, стр.1","","открытая","Не обслуживает ЮЛ","null","нет РКО","","пн","09:00-18:00","Закрытый доступ, только для сотрудников Ростелеком","Микро (РБ)","N","N","55.742428","37.647469","Москва, Кольцевая линия, метро Таганская","2133","False","False"
"","","","","","","","","вт","09:00-18:00","","","","","","","","","",""
"","","","","","","","","ср","09:00-18:00","","","","","","","","","",""
"","","","","","","","","чт","09:00-18:00","","","","","","","","","",""
"","","","","","","","","пт","09:00-18:00","","","","","","","","","",""
"","","","","","","","","сб","выходной","","","","","","","","","",""
"","","","","","","","","вс","выходной","","","","","","","","","",""
"ДО «Остоженка» Филиала № 7701 Банка ВТБ (ПАО)","119034, г. Москва, ул. Остоженка, д. 11","","открытая","Не обслуживает ЮЛ","null","нет РКО","","пн","09:00-20:00","Да (Офис Привилегия)","Привилегия (РБ)","N","Y","55.741745","37.599751","Москва, Сокольническая линия, метро Кропоткинская","1886","False","False"
"","","","","","","","","вт","09:00-20:00","","","","","","","","","",""
"","","","","","","","","ср","09:00-20:00","","","","","","","","","",""
"","","","","","","","","чт","09:00-20:00","","","","","","","","","",""
"","","","","","","","","пт","09:00-20:00","","","","","","","","","",""
"","","","","","","","","сб","выходной","","","","","","","","","",""
"","","","","","","","","вс","выходной","","","","","","","","","",""
"ДО «Молодежный» Филиала № 7701 Банка ВТБ (ПАО)","121552, г. Москва, Ярцевская, д. 32","","открытая","Не обслуживает ЮЛ","null","null","","пн","09:00-20:00","Да","Розничный (РБ)","Y","N","55.741287","37.417686","Москва, Арбатско-Покровская линия, метро Молодёжная","12767","False","False"
"","","","","","","","","вт","09:00-20:00","","","","","","","","","",""
"","","","","","","","","ср","09:00-20:00","","","","","","","","","",""
"","","","","","","","","чт","09:00-20:00","","","","","","","","","",""
"","","","","","","","","пт","09:00-20:00","","","","","","","","","",""
"","","","","","","","","сб","10:00-17:00","","","","","","","","","",""
"","","","","","","","","вс","выходной","","","","","","","","","",""
"ДО «Багратионовский» Филиала № 7701 Банка ВТБ (ПАО)","121108, г. Москва, ул. Барклая, д.7, кор. 1","","открытая","пн","09:00-18:00","есть РКО","","пн","09:00-20:00","Да (Зона Привилегия)","Универсальный","Y","N","55.740589","37.501286","Москва, Филёвская линия, метро Багратионовская","7605","True","False"
"","","","","вт","09:00-18:00","","","вт","09:00-20:00","","","","","","","","","",""
"","","","","ср","09:00-18:00","","","ср","09:00-20:00","","","","","","","","","",""
"","","","","чт","09:00-18:00","","","чт","09:00-20:00","","","","","","","","","",""
"","","","","пт","09:00-17:00","","","пт","09:00-20:00","","","","","","","","","",""
"","","","","сб","выходной","","","сб","10:00-17:00","","","","","","","","","",""
"","","","","вс","выходной","","","вс","выходной","","","","","","","","","",""
"Филиал № 7777 Банка ВТБ (ПАО)","119180, г. Москва, ул. Большая Полянка, д. 10, стр. 1","","открытая","Не обслуживает ЮЛ","null","нет РКО","","пн","09:30-20:00","Нет","Прайм (РБ)","N","N","55.740326","37.615955","Москва, Серпуховско-Тимирязевская линия, метро Полянка","1556","False","False"
"","","","","","","","","вт","09:30-20:00","","","","","","","","","",""
"","","","","","","","","ср","09:30-20:00","","","","","","","","","",""
"","","","","","","","","чт","09:30-20:00","","","","","","","","","",""
"","","","","","","","","пт","09:30-20:00","","","","","","","","","",""
"","","","","","","","","сб","09:30-16:00","","","","","","","","","",""
"","","","","","","","","вс","выходной","","","","","","","","","",""
"ДО «Большая Ордынка» Филиала № 7701 Банка ВТБ (ПАО)","119017, г. Москва, ул. Большая Ордынка, д. 24","","открытая","Не обслуживает ЮЛ","null","нет РКО","","пн","09:00-18:00","закрытый доступ, находится в здании Министерства атомной энергии РФ","Розничный (РБ)","N","N","55.73988","37.623329","Москва, Калужско-Рижская линия, метро Третьяковская","1591","False","False"
"","","","","","","","","вт","09:00-18:00","","","","","","","","","",""
"","","","","","","","","ср","09:00-18:00","","","","","","","","","",""
"","","","","","","","","чт","09:00-18:00","","","","","","","","","",""
"","","","","","","","","пт","09:00-18:00","","","","","","","","","",""
"","","","","","","","","сб","выходной","","","","","","","","","",""
"","","","","","","","","вс","выходной","","","","","","","","","",""
"ДО «Коробейников переулок» Филиала № 7777 Банка ВТБ (ПАО)","119034, г. Москва, Коробейников пер., д. 1, стр. 1А","","открытая","Не обслуживает ЮЛ","null","нет РКО","","пн","09:00-20:00","Да","Прайм (РБ)","N","N","55.738464","37.598545","null","2212","False","False"
"","","","","","","","","вт","09:00-20:00","","","","","","","","","",""
"","","","","","","","","ср","09:00-20:00","","","","","","","","","",""
"","","","","","","","","чт","09:00-20:00","","","","","","","","","",""
"","","","","","","","","пт","09:00-20:00","","","","","","","","","",""
"","","","","","","","","сб","выходной","","","","","","","","","",""
"","","","","","","","","вс","выходной","","","","","","","","","",""
"ДО «Жуковка» Филиала № 7701 Банка ВТБ (ПАО)","143082, Московская область, Одинцовский район, дер. Жуковка, д. 123-Б","","открытая","пн","09:00-18:00","есть РКО","","пн","09:00-19:00","Да (Зона Привилегия)","Универсальный","Y","Y","55.737984","37.244133","null","23618","False","False"
"","","","","вт","09:00-18:00","","","вт","09:00-19:00","","","","","","","","","",""
"","","","","ср","09:00-18:00","","","ср","09:00-19:00","","","","","","","","","",""
"","","","","чт","09:00-18:00","","","чт","09:00-19:00","","","","","","","","","",""
"","","","","пт","09:00-18:00","","","пт","09:00-19:00","","","","","","","","","",""
"","","","","сб","выходной","","","сб","выходной","","","","","","","","","",""
"","","","","вс","выходной","","","вс","выходной","","","","","","","","","",""
"ДО «Кутузовский» Филиала в г. Москве","121170, г. Москва, пл. Победы, д. 2, корп. 2","","открытая","пн","09:00-18:00","есть РКО","","Не обслуживает ФЛ","null","Да","Корпоративный","N","N","55.737507","37.518379","Москва, Арбатско-Покровская линия, метро Парк Победы","6647","True","False"
"","","","","вт","09:00-18:00","","","","","","","","","","","","","",""
"","","","","ср","09:00-18:00","","","","","","","","","","","","","",""
"","","","","чт","09:00-18:00","","","","","","","","","","","","","",""
"","","","","пт","09:00-17:00","","","","","","","","","","","","","",""
"","","","","сб","выходной","","","","","","","","","","","","","",""
"","","","","вс","выходной","","","","","","","","","","","","","",""
"ДО №4 «Кутузовский» Банка ВТБ (ПАО)","121170, г. Москва, пл. Победы, д. 2, корп. 2","","открытая","Не обслуживает ЮЛ","null","null","","пн","09:00-18:00","Нет","Розничный (РБ)","N","N","55.737507","37.518379","Москва, Арбатско-Покровская линия, метро Парк Победы","6647","False","False"
"","","","","","","","","вт","09:00-18:00","","","","","","","","","",""
"","","","","","","","","ср","09:00-18:00","","","","","","","","","",""
"","","","","","","","","чт","09:00-18:00","","","","","","","","","",""
"","","","","","","","","пт","09:00-18:00","","","","","","","","","",""
"","","","","","","","","сб","выходной","","","","","","","","","",""
"","","","","","","","","вс","выходной","","","","","","","","","",""
"ДО «Бродников» Филиала № 7777 Банка ВТБ (ПАО)","119180, г. Москва, Бродников пер., д. 4","","открытая","Не обслуживает ЮЛ","null","нет РКО","","пн","09:30-20:00","нет","Прайм (РБ)","N","N","55.737446","37.617958","Москва, Серпуховско-Тимирязевская линия, метро Полянка","1857","False","False"
"","","","","","","","","вт","09:30-20:00","","","","","","","","","",""
"","","","","","","","","ср","09:30-20:00","","","","","","","","","",""
"","","","","","","","","чт","09:30-20:00","","","","","","","","","",""
"","","","","","","","","пт","09:30-20:00","","","","","","","","","",""
"","","","","","","","","сб","09:30-16:00","","","","","","","","","",""
"","","","","","","","","вс","выходной","","","","","","","","","",""
"ДО №5 Банка ВТБ (ПАО)","119180, г. Москва, Бродников пер., д. 4","","открытая","Не обслуживает ЮЛ","null","null","","пн","09:00-17:00","Нет","Розничный (РБ)","N","N","55.737446","37.617958","Москва, Серпуховско-Тимирязевская линия, метро Полянка","1857","False","False"
"","","","","","","","","вт","09:00-17:00","","","","","","","","","",""
"","","","","","","","","ср","09:00-17:00","","","","","","","","","",""
"","","","","","","","","чт","09:00-17:00","","","","","","","","","",""
"","","","","","","","","пт","09:00-17:00","","","","","","","","","",""
"","","","","","","","","сб","выходной","","","","","","","","","",""
"","","","","","","","","вс","выходной","","","","","","","","","",""
"ДО «Бродников переулок» Филиала в г. Москве","119180, г. Москва, Бродников пер., д. 4","","открытая","пн","09:00-18:00","есть РКО","","Не обслуживает ФЛ","null","Да","Корпоративный","N","N","55.737446","37.617958","Москва, Серпуховско-Тимирязевская линия, метро Полянка","1857","True","False"
"","","","","вт","09:00-18:00","","","","","","","","","","","","","",""
"","","","","ср","09:00-18:00","","","","","","","","","","","","","",""
"","","","","чт","09:00-18:00","","","","","","","","","","","","","",""
"","","","","пт","09:00-17:00","","","","","","","","","","","","","",""
"","","","","сб","выходной","","","","","","","","","","","","","",""
"","","","","вс","выходной","","","","","","","","","","","","","",""
"ДО Кредитный центр «Марксистский» Филиала № 7701 Банка ВТБ (ПАО)","109147, г. Москва, ул. Марксистская, д.5, стр.1","","открытая","пн","09:00-18:00","есть РКО","","пн","09:00-20:00","Да (Зона Привилегия)","Универсальный","Y","Y","55.737183","37.663952","null","3311","True","False"
"","","","","вт","09:00-18:00","","","вт","09:00-20:00","","","","","","","","","",""
"","","","","ср","09:00-18:00","","","ср","09:00-20:00","","","","","","","","","",""
"","","","","чт","09:00-18:00","","","чт","09:00-20:00","","","","","","","","","",""
"","","","","пт","09:00-17:00","","","пт","09:00-20:00","","","","","","","","","",""
"","","","","сб","выходной","","","сб","10:00-17:00","","","","","","","","","",""
"","","","","вс","выходной","","","вс","выходной","","","","","","","","","",""
"ДО «Садовое кольцо» Филиала 7777 Банка ВТБ (ПАО)","119034, г. Москва, р-н Хамовники, б-р Зубовский, д. 27, стр. 1","","открытая","Не обслуживает ЮЛ","null","нет РКО","","пн","09:30-20:00","нет","Прайм (РБ)","N","Y","55.736858","37.58889","Москва, Кольцевая линия, метро Парк культуры","2750","False","False"
"","","","","","","","","вт","09:30-20:00","","","","","","","","","",""
"","","","","","","","","ср","09:30-20:00","","","","","","","","","",""
"","","","","","","","","чт","09:30-20:00","","","","","","","","","",""
"","","","","","","","","пт","09:30-20:00","","","","","","","","","",""
"","","","","","","","","сб","09:30-16:00","","","","","","","","","",""
"","","","","","","","","вс","выходной","","","","","","","","","",""
"ДО Кредитный центр «Зубовский бульвар» Филиала № 7701 Банка ВТБ (ПАО)","119021, г. Москва, Зубовский бульвар, д. 27/26, стр. 1","","открытая","пн","09:00-18:00","есть РКО","","пн","09:00-20:00","Да (Зона Привилегия)","Универсальный","Y","Y","55.736599","37.5881","Москва, Кольцевая линия, метро Парк культуры","2806","True","False"
"","","","","вт","09:00-18:00","","","вт","09:00-20:00","","","","","","","","","",""
"","","","","ср","09:00-18:00","","","ср","09:00-20:00","","","","","","","","","",""
"","","","","чт","09:00-18:00","","","чт","09:00-20:00","","","","","","","","","",""
"","","","","пт","09:00-17:00","","","пт","09:00-20:00","","","","","","","","","",""
"","","","","сб","выходной","","","сб","выходной","","","","","","","","","",""
"","","","","вс","выходной","","","вс","выходной","","","","","","","","","",""
"ДО ЦИК «Площадь Победы» Филиала № 7701 Банка ВТБ (ПАО)","121170, г. Москва, площадь Победы, д.1, корп.Б","","открытая","пн","09:00-18:00","есть РКО","","пн","09:00-20:00","Да (Зона Привилегия)","Универсальный","Y","Y","55.735596","37.519539","Москва, Калининско-Солнцевская линия, метро Парк Победы","6640","True","False"
"","","","","вт","09:00-18:00","","","вт","09:00-20:00","","","","","","","","","",""
"","","","","ср","09:00-18:00","","","ср","09:00-20:00","","","","","","","","","",""
"","","","","чт","09:00-18:00","","","чт","09:00-20:00","","","","","","","","","",""
"","","","","пт","09:00-17:00","","","пт","09:00-20:00","","","","","","","","","",""
"","","","","сб","выходной","","","сб","10:00-17:00","","","","","","","","","",""
"","","","","вс","выходной","","","вс","выходной","","","","","","","","","",""
"ДО «Полянка» Филиала № 7701 Банка ВТБ (ПАО)","119180, г. Москва, ул. Большая Полянка, д. 30","","открытая","пн","10:00-19:00","есть РКО","","пн","10:00-19:00","Да (Зона Привилегия)","Универсальный","Y","Y","55.734203","37.618866","Москва, Серпуховско-Тимирязевская линия, метро Полянка","2214","True","False"
"","","","","вт","10:00-19:00","","","вт","10:00-19:00","","","","","","","","","",""
"","","","","ср","10:00-19:00","","","ср","10:00-19:00","","","","","","","","","",""
"","","","","чт","10:00-19:00","","","чт","10:00-19:00","","","","","","","","","",""
"","","","","пт","10:00-18:00","","","пт","10:00-19:00","","","","","","","","","",""
"","","","","сб","выходной","","","сб","выходной","","","","","","","","","",""
"","","","","вс","выходной","","","вс","выходной","","","","","","","","","",""
"ДО «Звенигородский» Филиала № 7701 Банка ВТБ (ПАО)","143180, Московская область, г. Звенигород, ул. Пролетарская, д.23 корп.2, офис 3","","открытая","пн","09:00-18:00","есть РКО","","пн","09:00-18:00","Да","Универсальный","Y","N","55.733501","36.853474","null","48057","False","False"
"","","","","вт","09:00-18:00","","","вт","09:00-18:00","","","","","","","","","",""
"","","","","ср","09:00-18:00","","","ср","09:00-18:00","","","","","","","","","",""
"","","","","чт","09:00-18:00","","","чт","09:00-18:00","","","","","","","","","",""
"","","","","пт","09:00-17:00","","","пт","09:00-18:00","","","","","","","","","",""
"","","","","сб","выходной","","","сб","выходной","","","","","","","","","",""
"","","","","вс","выходной","","","вс","выходной","","","","","","","","","",""
"ДО «Воронцовский» Филиала в г. Москве","109147, г. Москва, ул. Воронцовская, д. 43, стр. 1","","открытая","пн","09:00-18:00","есть РКО","","Не обслуживает ФЛ","null","Да","Корпоративный","N","N","55.733055","37.664951","Москва, Люблинско-Дмитровская линия, метро Крестьянская Застава","3639","False","False"
"","","","","вт","09:00-18:00","","","","","","","","","","","","","",""
"","","","","ср","09:00-18:00","","","","","","","","","","","","","",""
"","","","","чт","09:00-18:00","","","","","","","","","","","","","",""
"","","","","пт","09:00-17:00","","","","","","","","","","","","","",""
"","","","","сб","выходной","","","","","","","","","","","","","",""
"","","","","вс","выходной","","","","","","","","","","","","","",""
"ДО ЦИК «Павелецкий» Филиала № 7701 Банка ВТБ (ПАО)","115054, г. Москва, ул. Бахрушина, д. 32, стр. 1","","открытая","пн","09:00-18:00","есть РКО","","пн","09:00-20:00","Да (Зона Привилегия)","Универсальный","Y","Y","55.731953","37.637085","Москва, Кольцевая линия, метро Павелецкая","2674","True","False"
"","","","","вт","09:00-18:00","","","вт","09:00-20:00","","","","","","","","","",""
"","","","","ср","09:00-18:00","","","ср","09:00-20:00","","","","","","","","","",""
"","","","","чт","09:00-18:00","","","чт","09:00-20:00","","","","","","","","","",""
"","","","","пт","09:00-17:00","","","пт","09:00-20:00","","","","","","","","","",""
"","","","","сб","выходной","","","сб","выходной","","","","","","","","","",""
"","","","","вс","выходной","","","вс","выходной","","","","","","","","","",""
"ДО «На Летниковской» Филиала № 7701 Банка ВТБ (ПАО)","115114, г. Москва, ул. Летниковская, д. 2, стр. 4","","открытая","Не обслуживает ЮЛ","null","нет РКО","","пн","09:00-18:00","Да","Брокер","N","N","55.728008","37.643326","null","3236","False","False"
"","","","","","","","","вт","09:00-18:00","","","","","","","","","",""
"","","","","","","","","ср","09:00-18:00","","","","","","","","","",""
"","","","","","","","","чт","09:00-18:00","","","","","","","","","",""
"","","","","","","","","пт","09:00-18:00","","","","","","","","","",""
"","","","","","","","","сб","выходной","","","","","","","","","",""
"","","","","","","","","вс","выходной","","","","","","","","","",""
"ДО «На набережной» Филиала № 7701 Банка ВТБ (ПАО)","119146, г. Москва, Фрунзенская наб., д. 22/2, стр. 11","","открытая","Не обслуживает ЮЛ","null","нет РКО","","пн","10:00-19:00","закрытый доступ, находится в здании Министерства обороны РФ","Розничный (РБ)","N","N","55.727932","37.589718","null","3486","False","False"
"","","","","","","","","вт","10:00-19:00","","","","","","","","","",""
"","","","","","","","","ср","10:00-19:00","","","","","","","","","",""
"","","","","","","","","чт","10:00-19:00","","","","","","","","","",""
"","","","","","","","","пт","10:00-19:00","","","","","","","","","",""
"","","","","","","","","сб","выходной","","","","","","","","","",""
"","","","","","","","","вс","выходной","","","","","","","","","",""
"ДО «РЭУ им. Г. В. Плеханова» Филиала № 7701 Банка ВТБ (ПАО)","1150544, г. Москва, Стремянный пер., д. 36","","открытая","Не обслуживает ЮЛ","null","null","null","пн","10:00-19:00","Да (Зона Привилегия)","Розничный (РБ)","N","N","55.727566","37.631145","null","3025","False","False"
"","","","","","","","","вт","10:00-19:00","","","","","","","","","",""
"","","","","","","","","ср","10:00-19:00","","","","","","","","","",""
"","","","","","","","","чт","10:00-19:00","","","","","","","","","",""
"","","","","","","","","пт","10:00-19:00","","","","","","","","","",""
"","","","","","","","","сб","выходной","","","","","","","","","",""
"","","","","","","","","вс","выходной","","","","","","","","","",""
"ДО «Ленинский проспект» Филиала № 7701 Банка ВТБ (ПАО)","119049, г. Москва, Ленинский пр-т, д. 11, стр. 1","","открытая","пн-чт","10:00-19:00","есть РКО","","пн-пт","10:00-19:00","Да (Зона Привилегия)","Универсальный","Y","Y","55.723206","37.603947","null","3586","null","False"
"","","","","пт","10:00-18:00","","","сб,вс","выходной","","","","","","","","","",""
"","","","","сб,вс","выходной","","","","","","","","","","","","","",""
"ДО «На Мытной» Филиала № 7701 Банка ВТБ (ПАО)","119049, г. Москва, ул. Мытная, д. 7, стр. 1","","открытая","Не обслуживает ЮЛ","null","нет РКО","","пн","09:00-20:00","Да (Офис Привилегия)","Привилегия (РБ)","N","Y","55.722141","37.618568","null","3555","False","False"
"","","","","","","","","вт","09:00-20:00","","","","","","","","","",""
"","","","","","","","","ср","09:00-20:00","","","","","","","","","",""
"","","","","","","","","чт","09:00-20:00","","","","","","","","","",""
"","","","","","","","","пт","09:00-20:00","","","","","","","","","",""
"","","","","","","","","сб","выходной","","","","","","","","","",""
"","","","","","","","","вс","выходной","","","","","","","","","",""
"ДО «Хамовнический» Филиала № 7701 Банка ВТБ (ПАО)","119270, г. Москва, ул. 3-Я Фрунзенская, д. 9","","открытая","пн","09:00-18:00","есть РКО","","пн","09:00-20:00","Да (Зона Привилегия)","Универсальный","Y","Y","55.721241","37.576824","null","4559","True","False"
"","","","","вт","09:00-18:00","","","вт","09:00-20:00","","","","","","","","","",""
"","","","","ср","09:00-18:00","","","ср","09:00-20:00","","","","","","","","","",""
"","","","","чт","09:00-18:00","","","чт","09:00-20:00","","","","","","","","","",""
"","","","","пт","09:00-17:00","","","пт","09:00-20:00","","","","","","","","","",""
"","","","","сб","выходной","","","сб","выходной","","","","","","","","","",""
"","","","","вс","выходной","","","вс","выходной","","","","","","","","","",""
"ДО «Вешняки» Филиала № 7701 Банка ВТБ (ПАО)","111538, г. Москва, ул. Вешняковская, д. 20Б","","открытая","пн","10:00-19:00","есть РКО","","пн","10:00-20:00","Да (Зона Привилегия)","Универсальный","Y","N","55.721203","37.823063","null","13203","True","False"
"","","","","вт","10:00-19:00","","","вт","10:00-20:00","","","","","","","","","",""
"","","","","ср","10:00-19:00","","","ср","10:00-20:00","","","","","","","","","",""
"","","","","чт","10:00-19:00","","","чт","10:00-20:00","","","","","","","","","",""
"","","","","пт","10:00-18:00","","","пт","10:00-20:00","","","","","","","","","",""
"","","","","сб","выходной","","","сб","10:00-17:00","","","","","","","","","",""
"","","","","вс","выходной","","","вс","10:00-15:00","","","","","","","","","",""
"ДО «Хамовники» Филиала № 7701 Банка ВТБ (ПАО)","119048, г. Москва, Комсомольский пр-т, д. 48","","открытая","Не обслуживает ЮЛ","null","нет РКО","","пн","09:00-20:00","Да (Офис Привилегия)","Привилегия (РБ)","N","Y","55.71983","37.571175","null","4900","False","False"
"","","","","","","","","вт","09:00-20:00","","","","","","","","","",""
"","","","","","","","","ср","09:00-20:00","","","","","","","","","",""
"","","","","","","","","чт","09:00-20:00","","","","","","","","","",""
"","","","","","","","","пт","09:00-20:00","","","","","","","","","",""
"","","","","","","","","сб","выходной","","","","","","","","","",""
"","","","","","","","","вс","выходной","","","","","","","","","",""
"ДО «Рязанский» Филиала № 7701 Банка ВТБ (ПАО)","109456, г. Москва, Рязанский пр-т, д. 71, кор. 1","","открытая","пн","10:00-19:00","есть РКО","","пн","10:00-19:00","Да (Зона Привилегия)","Универсальный","Y","Y","55.718632","37.788269","null","11224","True","False"
"","","","","вт","10:00-19:00","","","вт","10:00-19:00","","","","","","","","","",""
"","","","","ср","10:00-19:00","","","ср","10:00-19:00","","","","","","","","","",""
"","","","","чт","10:00-19:00","","","чт","10:00-19:00","","","","","","","","","",""
"","","","","пт","10:00-18:00","","","пт","10:00-19:00","","","","","","","","","",""
"","","","","сб","выходной","","","сб","10:00-17:00","","","","","","","","","",""
"","","","","вс","выходной","","","вс","выходной","","","","","","","","","",""
"ДО «На Можайском шоссе» Филиала № 7701 Банка ВТБ (ПАО)","121353, г. Москва, Можайское ш., д. 45Б","","открытая","Не обслуживает ЮЛ","null","null","","пн","10:00-19:00","Да","Розничный (РБ)","Y","N","55.71645","37.406979","null","14002","False","False"
"","","","","","","","","вт","10:00-19:00","","","","","","","","","",""
"","","","","","","","","ср","10:00-19:00","","","","","","","","","",""
"","","","","","","","","чт","10:00-19:00","","","","","","","","","",""
"","","","","","","","","пт","10:00-19:00","","","","","","","","","",""
"","","","","","","","","сб","выходной","","","","","","","","","",""
"","","","","","","","","вс","выходной","","","","","","","","","",""
"ДО «Рязанский проспект» Филиала № 7701 Банка ВТБ (ПАО)","109377, г. Москва, ул. Академика Скрябина, д. 1/58, стр. 1","","открытая","пн","10:00-19:00","есть РКО","","пн","10:00-19:00","Да","Универсальный","Y","N","55.715729","37.797684","Москва, Таганско-Краснопресненская линия, метро Рязанский проспект","11890","True","False"
"","","","","вт","10:00-19:00","","","вт","10:00-19:00","","","","","","","","","",""
"","","","","ср","10:00-19:00","","","ср","10:00-19:00","","","","","","","","","",""
"","","","","чт","10:00-19:00","","","чт","10:00-19:00","","","","","","","","","",""
"","","","","пт","10:00-18:00","","","пт","10:00-19:00","","","","","","","","","",""
"","","","","сб","выходной","","","сб","10:00-17:00","","","","","","","","","",""
"","","","","вс","выходной","","","вс","выходной","","","","","","","","","",""
"ДО «Мосфильмовский» Филиала № 7701 Банка ВТБ (ПАО)","119590, г. Москва, ул. Мосфильмовская, д. 70","","открытая","Не обслуживает ЮЛ","null","нет РКО","","пн","10:00-19:00","закрытый доступ, только для сотрудников и клиентов компании «Дон-строй»","Микро (РБ)","N","N","55.715179","37.506611","null","8335","False","False"
"","","","","","","","","вт","10:00-19:00","","","","","","","","","",""
"","","","","","","","","ср","10:00-19:00","","","","","","","","","",""
"","","","","","","","","чт","10:00-19:00","","","","","","","","","",""
"","","","","","","","","пт","10:00-19:00","","","","","","","","","",""
"","","","","","","","","сб","выходной","","","","","","","","","",""
"","","","","","","","","вс","выходной","","","","","","","","","",""
"ДО «Даниловский» Филиала № 7701 Банка ВТБ (ПАО)","115162, г. Москва, ул. Люсиновская, д. 72, помещ. 7/1","","открытая","пн","10:00-19:00","есть РКО","","пн","10:00-19:00","Да (Зона Привилегия)","Универсальный","Y","Y","55.714561","37.623833","null","4401","True","False"
"","","","","вт","10:00-19:00","","","вт","10:00-19:00","","","","","","","","","",""
"","","","","ср","10:00-19:00","","","ср","10:00-19:00","","","","","","","","","",""
"","","","","чт","10:00-19:00","","","чт","10:00-19:00","","","","","","","","","",""
"","","","","пт","10:00-18:00","","","пт","10:00-19:00","","","","","","","","","",""
"","","","","сб","выходной","","","сб","выходной","","","","","","","","","",""
"","","","","вс","выходной","","","вс","выходной","","","","","","","","","",""
"ДО «Автозаводский» Филиала № 7701 Банка ВТБ (ПАО)","115280, г. Москва, ул. Ленинская Слобода, д. 26","","открытая","Не обслуживает ЮЛ","null","нет РКО","","пн-пт","10:00-19:00","Да","Розничный (РБ)","Y","Y","55.710129","37.65461","Автозаводская (Замоскворецкая линия)","5337","null","False"
"","","","","","","","","сб,вс","выходной","","","","","","","","","",""
"ДО «На Автозаводской» Филиала № 7701 Банка ВТБ (ПАО)","115280, г. Москва, ул. Автозаводская, д. 6","","открытая","пн","09:00-18:00","есть РКО","","пн","09:00-20:00","Да (Зона Привилегия)","Универсальный","Y","Y","55.70945","37.661041","Москва, Замоскворецкая линия, метро Автозаводская","5578","True","False"
"","","","","вт","09:00-18:00","","","вт","09:00-20:00","","","","","","","","","",""
"","","","","ср","09:00-18:00","","","ср","09:00-20:00","","","","","","","","","",""
"","","","","чт","09:00-18:00","","","чт","09:00-20:00","","","","","","","","","",""
"","","","","пт","09:00-18:00","","","пт","09:00-20:00","","","","","","","","","",""
"","","","","сб","выходной","","","сб","выходной","","","","","","","","","",""
"","","","","вс","выходной","","","вс","выходной","","","","","","","","","",""
"ДО «Тульский» Филиала № 7701 Банка ВТБ (ПАО)","115191, г. Москва, ул. Тульская Большая, д. 2","","открытая","Не обслуживает ЮЛ","null","нет РКО","","пн","10:00-19:00","Да (Зона Привилегия)","Розничный (РБ)","Y","N","55.709019","37.62077","Москва, Серпуховско-Тимирязевская линия, метро Тульская","5012","True","False"
"","","","","","","","","вт","10:00-19:00","","","","","","","","","",""
"","","","","","","","","ср","10:00-19:00","","","","","","","","","",""
"","","","","","","","","чт","10:00-19:00","","","","","","","","","",""
"","","","","","","","","пт","10:00-19:00","","","","","","","","","",""
"","","","","","","","","сб","выходной","","","","","","","","","",""
"","","","","","","","","вс","выходной","","","","","","","","","",""
"ДО «Вавиловский» Филиала № 7701 Банка ВТБ (ПАО)","119071, г. Москва, ул. Вавилова, д. 4","","открытая","Не обслуживает ЮЛ","null","null","","пн","10:00-19:00","да","Розничный (РБ)","Y","N","55.708664","37.590256","Москва, Московское центральное кольцо, станция Площадь Гагарина","5393","False","False"
"","","","","","","","","вт","10:00-19:00","","","","","","","","","",""
"","","","","","","","","ср","10:00-19:00","","","","","","","","","",""
"","","","","","","","","чт","10:00-19:00","","","","","","","","","",""
"","","","","","","","","пт","10:00-19:00","","","","","","","","","",""
"","","","","","","","","сб","выходной","","","","","","","","","",""
"","","","","","","","","вс","выходной","","","","","","","","","",""
"ДО «Текстильщики» Филиала № 7701 Банка ВТБ (ПАО)","109125, г. Москва, ул. Люблинская, д. 4, корп. 1","","открытая","Не обслуживает ЮЛ","null","нет РКО","","пн","10:00-19:00","Да","Розничный (РБ)","Y","N","55.70784","37.729923","МЦД-2 Курско-Рижский диаметр, станция Текстильщики","8571","False","False"
"","","","","","","","","вт","10:00-19:00","","","","","","","","","",""
"","","","","","","","","ср","10:00-19:00","","","","","","","","","",""
"","","","","","","","","чт","10:00-19:00","","","","","","","","","",""
"","","","","","","","","пт","10:00-19:00","","","","","","","","","",""
"","","","","","","","","сб","выходной","","","","","","","","","",""
"","","","","","","","","вс","выходной","","","","","","","","","",""
"ДО «Площадь Гагарина» Филиала № 7701 Банка ВТБ (ПАО)","119334, г. Москва, Ленинский пр-т, д. 34/1","","открытая","пн","10:00-19:00","есть РКО","","пн","10:00-19:00","Да (Зона Привилегия)","Универсальный","Y","N","55.707363","37.577751","null","5842","False","False"
"","","","","вт","10:00-19:00","","","вт","10:00-19:00","","","","","","","","","",""
"","","","","ср","10:00-19:00","","","ср","10:00-19:00","","","","","","","","","",""
"","","","","чт","10:00-19:00","","","чт","10:00-19:00","","","","","","","","","",""
"","","","","пт","10:00-18:00","","","пт","10:00-19:00","","","","","","","","","",""
"","","","","сб","выходной","","","сб","выходной","","","","","","","","","",""
"","","","","вс","выходной","","","вс","выходной","","","","","","","","","",""
"ДО «Волгоградский проспект» Филиала № 7701 Банка ВТБ (ПАО)","109443, г. Москва, Волгоградский пр-т, д. 94, корп. 1","","открытая","Не обслуживает ЮЛ","null","нет РКО","","пн","09:00-20:00","Да (Зона Привилегия)","Розничный (РБ)","Y","N","55.704075","37.771328","Москва, Таганско-Краснопресненская линия, метро Кузьминки","10965","False","False"
"","","","","","","","","вт","09:00-20:00","","","","","","","","","",""
"","","","","","","","","ср","09:00-20:00","","","","","","","","","",""
"","","","","","","","","чт","09:00-20:00","","","","","","","","","",""
"","","","","","","","","пт","09:00-20:00","","","","","","","","","",""
"","","","","","","","","сб","10:00-17:00","","","","","","","","","",""
"","","","","","","","","вс","выходной","","","","","","","","","",""
"ДО «МГУ» Филиала № 7701 Банка ВТБ (ПАО)","119234, г. Москва, ул. Ленинские Горы, д. 1","","открытая","Не обслуживает ЮЛ","null","нет РКО","","пн","10:00-19:00","нет","Микро (РБ)","N","N","55.702953","37.530823","null","7988","False","False"
"","","","","","","","","вт","10:00-19:00","","","","","","","","","",""
"","","","","","","","","ср","10:00-19:00","","","","","","","","","",""
"","","","","","","","","чт","10:00-19:00","","","","","","","","","",""
"","","","","","","","","пт","10:00-19:00","","","","","","","","","",""
"","","","","","","","","сб","выходной","","","","","","","","","",""
"","","","","","","","","вс","выходной","","","","","","","","","",""
"ДО «Шуваловский» Филиала № 7701 Банка ВТБ (ПАО)","119192, г. Москва, Мичуринский пр-т, д. 7","","открытая","Не обслуживает ЮЛ","null","нет РКО","","пн","09:00-20:00","Да (Зона Привилегия)","Розничный (РБ)","Y","N","55.702728","37.509705","null","8982","False","False"
"","","","","","","","","вт","09:00-20:00","","","","","","","","","",""
"","","","","","","","","ср","09:00-20:00","","","","","","","","","",""
"","","","","","","","","чт","09:00-20:00","","","","","","","","","",""
"","","","","","","","","пт","09:00-20:00","","","","","","","","","",""
"","","","","","","","","сб","10:00-17:00","","","","","","","","","",""
"","","","","","","","","вс","выходной","","","","","","","","","",""
"ДО «Лермонтовский проспект» Филиала № 7701 Банка ВТБ (ПАО)","109145, г. Москва, Лермонтовский пр-т, д. 10, корп. 1","","открытая","Не обслуживает ЮЛ","null","нет РКО","","пн","10:00-19:00","Да (Зона Привилегия)","Розничный (РБ)","Y","N","55.700562","37.851807","Москва, Таганско-Краснопресненская линия, метро Лермонтовский проспект","15665","False","False"
"","","","","","","","","вт","10:00-19:00","","","","","","","","","",""
"","","","","","","","","ср","10:00-19:00","","","","","","","","","",""
"","","","","","","","","чт","10:00-19:00","","","","","","","","","",""
"","","","","","","","","пт","10:00-19:00","","","","","","","","","",""
"","","","","","","","","сб","10:00-17:00","","","","","","","","","",""
"","","","","","","","","вс","выходной","","","","","","","","","",""
"ДО «Мичуринский» Филиала № 7701 Банка ВТБ (ПАО)","119192, г. Москва, Мичуринский пр-т, д. 34","","открытая","Не обслуживает ЮЛ","null","нет РКО","","пн","09:00-20:00","Да","Розничный (РБ)","Y","N","55.698341","37.498024","Москва, Калининско-Солнцевская линия, метро Раменки","9857","False","False"
"","","","","","","","","вт","09:00-20:00","","","","","","","","","",""
"","","","","","","","","ср","09:00-20:00","","","","","","","","","",""
"","","","","","","","","чт","09:00-20:00","","","","","","","","","",""
"","","","","","","","","пт","09:00-20:00","","","","","","","","","",""
"","","","","","","","","сб","10:00-17:00","","","","","","","","","",""
"","","","","","","","","вс","выходной","","","","","","","","","",""
"ДО «Университет» Филиала № 7701 Банка ВТБ (ПАО)","119311, г. Москва, Ломоносовский пр-т, д. 25, кор. 1","","открытая","Не обслуживает ЮЛ","null","нет РКО","","пн","09:00-20:00","Да (Офис Привилегия)","Привилегия (РБ)","N","N","55.693596","37.532448","null","8694","False","False"
"","","","","","","","","вт","09:00-20:00","","","","","","","","","",""
"","","","","","","","","ср","09:00-20:00","","","","","","","","","",""
"","","","","","","","","чт","09:00-20:00","","","","","","","","","",""
"","","","","","","","","пт","09:00-20:00","","","","","","","","","",""
"","","","","","","","","сб","выходной","","","","","","","","","",""
"","","","","","","","","вс","выходной","","","","","","","","","",""
"ДО «Гагаринский» Филиала № 7701 Банка ВТБ (ПАО)","117296, г. Москва, Ленинский пр-т, д. 64","","открытая","пн","10:00-19:00","есть РКО","","пн","10:00-19:00","Да (Зона Привилегия)","Универсальный","Y","Y","55.692474","37.551727","null","8090","True","False"
"","","","","вт","10:00-19:00","","","вт","10:00-19:00","","","","","","","","","",""
"","","","","ср","10:00-19:00","","","ср","10:00-19:00","","","","","","","","","",""
"","","","","чт","10:00-19:00","","","чт","10:00-19:00","","","","","","","","","",""
"","","","","пт","10:00-18:00","","","пт","10:00-19:00","","","","","","","","","",""
"","","","","сб","выходной","","","сб","выходной","","","","","","","","","",""
"","","","","вс","выходной","","","вс","выходной","","","","","","","","","",""
"ДО «Люберецкий» Филиала № 7701 Банка ВТБ (ПАО)","140005, Московская область, г. Люберцы, ул. Кирова, д. 3","","открытая","пн-пт","09:00-18:00","нет РКО","","пн-пт","09:00-19:00","Да","Стандарт","Y","N","55.690491","37.863586","null","16791","null","False"
"","","","","сб,вс","выходной","","","сб","10:00-17:00","","","","","","","","","",""
"","","","","","","","","вс","выходной","","","","","","","","","",""
"ДО «Ломоносовский» Филиала № 7701 Банка ВТБ (ПАО)","119296, г. Москва, Ленинский пр-т, д. 69","","открытая","пн","09:00-18:00","есть РКО","","пн","09:00-19:00","Да (Зона Привилегия)","Универсальный","Y","N","55.690372","37.550655","null","8324","True","False"
"","","","","вт","09:00-18:00","","","вт","09:00-19:00","","","","","","","","","",""
"","","","","ср","09:00-18:00","","","ср","09:00-19:00","","","","","","","","","",""
"","","","","чт","09:00-18:00","","","чт","09:00-19:00","","","","","","","","","",""
"","","","","пт","09:00-17:00","","","пт","09:00-19:00","","","","","","","","","",""
"","","","","сб","выходной","","","сб","выходной","","","","","","","","","",""
"","","","","вс","выходной","","","вс","выходной","","","","","","","","","",""
"ДО «На Шверника» Филиала № 7701 Банка ВТБ (ПАО)","117449, г. Москва, ул. Шверника, 20а","","открытая","Не обслуживает ЮЛ","null","нет РКО","","пн-пт","09:00-18:00","Да","Стандарт","null","null","55.688694","37.593174","null","7469","null","False"
"","","","","","","","","сб,вс","выходной","","","","","","","","","",""
"ДО «Очаковский» Филиала № 7701 Банка ВТБ (ПАО)","119530, г. Москва, проезд Стройкомбината, вл. 1, стр. 53","","открытая","Не обслуживает ЮЛ","null","нет РКО","","пн-пт","09:00-18:00","Да","Микро 2(3)","N","N","55.687366","37.452652","null","12862","null","False"
"","","","","","","","","сб,вс","выходной","","","","","","","","","",""
"ДО «Одинцово» Филиала № 7701 Банка ВТБ (ПАО)","143005, Московская область, г. Одинцово, ул. Можайское ш., д. 153а","","открытая","пн","09:00-18:00","есть РКО","","пн","09:00-19:00","Да (Зона Привилегия)","Универсальный","Y","Y","55.686108","37.303127","null","21260","True","False"
"","","","","вт","09:00-18:00","","","вт","09:00-19:00","","","","","","","","","",""
"","","","","ср","09:00-18:00","","","ср","09:00-19:00","","","","","","","","","",""
"","","","","чт","09:00-18:00","","","чт","09:00-19:00","","","","","","","","","",""
"","","","","пт","09:00-17:00","","","пт","09:00-19:00","","","","","","","","","",""
"","","","","сб","выходной","","","сб","10:00-17:00","","","","","","","","","",""
"","","","","вс","выходной","","","вс","выходной","","","","","","","","","",""
"ДО «Академический» Филиала № 7701 Банка ВТБ (ПАО)","117036, г. Москва, ул. Дмитрия Ульянова, д. 24","","открытая","пн","10:00-19:00","есть РКО","","пн","10:00-19:00","Да","Универсальный","Y","N","55.686005","37.575829","Москва, Калужско-Рижская линия, метро Академическая","8069","True","False"
"","","","","вт","10:00-19:00","","","вт","10:00-19:00","","","","","","","","","",""
"","","","","ср","10:00-19:00","","","ср","10:00-19:00","","","","","","","","","",""
"","","","","чт","10:00-19:00","","","чт","10:00-19:00","","","","","","","","","",""
"","","","","пт","10:00-18:00","","","пт","10:00-19:00","","","","","","","","","",""
"","","","","сб","выходной","","","сб","выходной","","","","","","","","","",""
"","","","","вс","выходной","","","вс","выходной","","","","","","","","","",""
"ДО «Кедровый» Филиала № 7701 Банка ВТБ (ПАО)","117036, г. Москва, ул. Профсоюзная, д. 12","","открытая","пн","09:00-18:00","есть РКО","","пн","09:00-19:00","Да (Зона Привилегия)","Универсальный","Y","N","55.685436","37.570122","Москва, Калужско-Рижская линия, метро Академическая","8258","True","False"
"","","","","вт","09:00-18:00","","","вт","09:00-19:00","","","","","","","","","",""
"","","","","ср","09:00-18:00","","","ср","09:00-19:00","","","","","","","","","",""
"","","","","чт","09:00-18:00","","","чт","09:00-19:00","","","","","","","","","",""
"","","","","пт","09:00-17:00","","","пт","09:00-19:00","","","","","","","","","",""
"","","","","сб","выходной","","","сб","10:00-17:00","","","","","","","","","",""
"","","","","вс","выходной","","","вс","выходной","","","","","","","","","",""
"ДО «Южнонагатинский» Филиала № 7701 Банка ВТБ (ПАО)","117105, г. Москва, Варшавское шоссе, д. 26","","открытая","пн","10:00-19:00","есть РКО","","пн","10:00-19:00","Да (Зона Привилегия)","Универсальный","Y","Y","55.684502","37.621948","Москва, Серпуховско-Тимирязевская линия, метро Нагатинская","7739","True","False"
"","","","","вт","10:00-19:00","","","вт","10:00-19:00","","","","","","","","","",""
"","","","","ср","10:00-19:00","","","ср","10:00-19:00","","","","","","","","","",""
"","","","","чт","10:00-19:00","","","чт","10:00-19:00","","","","","","","","","",""
"","","","","пт","10:00-18:00","","","пт","10:00-19:00","","","","","","","","","",""
"","","","","сб","выходной","","","сб","выходной","","","","","","","","","",""
"","","","","вс","выходной","","","вс","выходной","","","","","","","","","",""
"ДО «Вернадский» Филиала № 7701 Банка ВТБ (ПАО)","119331, г. Москва, пр-т Вернадского, 29","","открытая","пн","09:00-18:00","есть РКО","","пн","09:00-20:00","Да (Зона Привилегия)","Универсальный","Y","Y","55.681713","37.516449","null","10352","False","False"
"","","","","вт","09:00-18:00","","","вт","09:00-20:00","","","","","","","","","",""
"","","","","ср","09:00-18:00","","","ср","09:00-20:00","","","","","","","","","",""
"","","","","чт","09:00-18:00","","","чт","09:00-20:00","","","","","","","","","",""
"","","","","пт","09:00-17:00","","","пт","09:00-20:00","","","","","","","","","",""
"","","","","сб","выходной","","","сб","10:00-17:00","","","","","","","","","",""
"","","","","вс","выходной","","","вс","выходной","","","","","","","","","",""
"ДО «Жулебино» Филиала № 7701 Банка ВТБ (ПАО)","109431, г. Москва, ул. Привольная, 65/32","","открытая","пн","10:00-19:00","есть РКО","","пн","10:00-19:00","Да (Зона Привилегия)","Универсальный","Y","N","55.681534","37.849888","Москва, Таганско-Краснопресненская линия, метро Жулебино","16483","True","False"
"","","","","вт","10:00-19:00","","","вт","10:00-19:00","","","","","","","","","",""
"","","","","ср","10:00-19:00","","","ср","10:00-19:00","","","","","","","","","",""
"","","","","чт","10:00-19:00","","","чт","10:00-19:00","","","","","","","","","",""
"","","","","пт","10:00-18:00","","","пт","10:00-19:00","","","","","","","","","",""
"","","","","сб","выходной","","","сб","10:00-17:00","","","","","","","","","",""
"","","","","вс","выходной","","","вс","выходной","","","","","","","","","",""
"ДО «Профсоюзный» Филиала № 7701 Банка ВТБ (ПАО)","117218, г. Москва, ул. Профсоюзная, д. 15","","открытая","Не обслуживает ЮЛ","null","null","","пн","10:00-19:00","Да","Розничный (РБ)","Y","N","55.679516","37.565334","Москва, Калужско-Рижская линия, метро Профсоюзная","8981","False","False"
"","","","","","","","","вт","10:00-19:00","","","","","","","","","",""
"","","","","","","","","ср","10:00-19:00","","","","","","","","","",""
"","","","","","","","","чт","10:00-19:00","","","","","","","","","",""
"","","","","","","","","пт","10:00-19:00","","","","","","","","","",""
"","","","","","","","","сб","выходной","","","","","","","","","",""
"","","","","","","","","вс","выходной","","","","","","","","","",""
"ДО «Олимпийский» Филиала № 7701 Банка ВТБ (ПАО)","119602, г. Москва, Мичуринский пр-т, Олимпийская деревня, д.1к.1","","открытая","Не обслуживает ЮЛ","null","нет РКО","","пн","09:00-20:00","Да (Офис Привилегия)","Привилегия (РБ)","N","Y","55.67944","37.469639","null","12573","False","False"
"","","","","","","","","вт","09:00-20:00","","","","","","","","","",""
"","","","","","","","","ср","09:00-20:00","","","","","","","","","",""
"","","","","","","","","чт","09:00-20:00","","","","","","","","","",""
"","","","","","","","","пт","09:00-20:00","","","","","","","","","",""
"","","","","","","","","сб","10:00-17:00","","","","","","","","","",""
"","","","","","","","","вс","выходной","","","","","","","","","",""
"ДО «На Андропова» Филиала № 7701 Банка ВТБ (ПАО)","115487, г. Москва, просп. Андропова, д. 30","","открытая","Не обслуживает ЮЛ","null","нет РКО","","пн","10:00-20:00","Да","Розничный (РБ)","Y","N","55.679138","37.662434","Москва, Замоскворецкая линия, метро Коломенская","8740","False","False"
"","","","","","","","","вт","10:00-20:00","","","","","","","","","",""
"","","","","","","","","ср","10:00-20:00","","","","","","","","","",""
"","","","","","","","","чт","10:00-20:00","","","","","","","","","",""
"","","","","","","","","пт","10:00-20:00","","","","","","","","","",""
"","","","","","","","","сб","10:00-17:00","","","","","","","","","",""
"","","","","","","","","вс","выходной","","","","","","","","","",""
"ДО «Можайское шоссе» Филиала № 7701 Банка ВТБ (ПАО)","143005, Московская область, Одинцовский район, г-кое поселение Одинцово, г. Одинцово, Можайское шоссе., д. 81","","открытая","пн","09:00-18:00","есть РКО","","пн","09:00-20:00","Да (Зона Привилегия)","Универсальный","Y","Y","55.679031","37.283516","null","22692","False","False"
"","","","","вт","09:00-18:00","","","вт","09:00-20:00","","","","","","","","","",""
"","","","","ср","09:00-18:00","","","ср","09:00-20:00","","","","","","","","","",""
"","","","","чт","09:00-18:00","","","чт","09:00-20:00","","","","","","","","","",""
"","","","","пт","09:00-17:00","","","пт","09:00-20:00","","","","","","","","","",""
"","","","","сб","выходной","","","сб","10:00-17:00","","","","","","","","","",""
"","","","","вс","выходной","","","вс","выходной","","","","","","","","","",""
"ДО «Смирновский» Филиала № 7701 Банка ВТБ (ПАО)","140000, Московская область, г. Люберцы, Октябрьский пр-т, д. 181, пом. II","","открытая","пн-чт","10:00-19:00","нет РКО","","пн-пт","10:00-19:00","Да","Универсальный","Y","N","55.678787","37.894928","null","19125","null","False"
"","","","","пт","10:00-18:00","","","сб,вс","выходной","","","","","","","","","",""
"","","","","сб,вс","выходной","","","","","","","","","","","","","",""
"ДО «Некрасовка» Филиала № 7701 Банка ВТБ (ПАО)","111674, г. Москва, ул. Рождественская, д. 29","","открытая","Не обслуживает ЮЛ","null","null","","пн","09:00-20:00","да","Розничный (РБ)","Y","N","55.67831","37.919693","null","20553","False","False"
"","","","","","","","","вт","09:00-20:00","","","","","","","","","",""
"","","","","","","","","ср","09:00-20:00","","","","","","","","","",""
"","","","","","","","","чт","09:00-20:00","","","","","","","","","",""
"","","","","","","","","пт","09:00-20:00","","","","","","","","","",""
"","","","","","","","","сб","10:00-17:00","","","","","","","","","",""
"","","","","","","","","вс","выходной","","","","","","","","","",""
"ДО «Люблино» Филиала № 7701 Банка ВТБ (ПАО)","109559, г. Москва, ул. Краснодарская, д. 51 корп.2","","открытая","Не обслуживает ЮЛ","null","нет РКО","","пн-пт","09:00-20:00","Да","Стандарт","Y","N","55.677341","37.765408","null","12463","null","False"
"","","","","","","","","сб","10:00-17:00","","","","","","","","","",""
"","","","","","","","","вс","выходной","","","","","","","","","",""
"ДО «Одинцовский» Филиала № 7701 Банка ВТБ (ПАО)","143000, Московская область, г. Одинцово, ул. М.Жукова, д.16","","открытая","пн-чт","09:00-18:00","нет РКО","","пн-пт","09:00-19:00","Да","Универсальный","Y","Y","55.677097","37.256618","null","24342","null","False"
"","","","","пт","09:00-17:00","","","сб","10:00-17:00","","","","","","","","","",""
"","","","","сб,вс","выходной","","","вс","выходной","","","","","","","","","",""
"ДО «Люберецкий» Филиала № 7701 Банка ВТБ (ПАО)","140000, Московская область, г. Люберцы, ул. Смирновская, д.2","","открытая","пн","09:00-18:00","есть РКО","","пн","09:00-20:00","Да (Зона Привилегия)","Универсальный","Y","N","55.676552","37.891171","null","19026","True","False"
"","","","","вт","09:00-18:00","","","вт","09:00-20:00","","","","","","","","","",""
"","","","","ср","09:00-18:00","","","ср","09:00-20:00","","","","","","","","","",""
"","","","","чт","09:00-18:00","","","чт","09:00-20:00","","","","","","","","","",""
"","","","","пт","09:00-17:00","","","пт","09:00-20:00","","","","","","","","","",""
"","","","","сб","выходной","","","сб","10:00-17:00","","","","","","","","","",""
"","","","","вс","выходной","","","вс","выходной","","","","","","","","","",""
"ДО «Люблино центр» Филиала № 7701 Банка ВТБ (ПАО)","109559, г. Москва, ул. Совхозная, д. 41","","открытая","пн","09:00-18:00","есть РКО","","пн","09:00-20:00","Да (Зона Привилегия)","Универсальный","Y","Y","55.674576","37.760235","Москва, Люблинско-Дмитровская линия, метро Люблино","12446","True","False"
"","","","","вт","09:00-18:00","","","вт","09:00-20:00","","","","","","","","","",""
"","","","","ср","09:00-18:00","","","ср","09:00-20:00","","","","","","","","","",""
"","","","","чт","09:00-18:00","","","чт","09:00-20:00","","","","","","","","","",""
"","","","","пт","09:00-17:00","","","пт","09:00-20:00","","","","","","","","","",""
"","","","","сб","выходной","","","сб","10:00-17:00","","","","","","","","","",""
"","","","","вс","выходной","","","вс","выходной","","","","","","","","","",""
"ДО «МГИМО» Филиала № 7701 Банка ВТБ (ПАО)","119454, г. Москва, пр-т Вернадского, д. 76, корп. В","","открытая","Не обслуживает ЮЛ","null","нет РКО","","пн","09:00-18:00","Нет","Розничный (РБ)","N","N","55.672081","37.488171","null","12320","False","False"
"","","","","","","","","вт","09:00-18:00","","","","","","","","","",""
"","","","","","","","","ср","09:00-18:00","","","","","","","","","",""
"","","","","","","","","чт","09:00-18:00","","","","","","","","","",""
"","","","","","","","","пт","09:00-18:00","","","","","","","","","",""
"","","","","","","","","сб","выходной","","","","","","","","","",""
"","","","","","","","","вс","выходной","","","","","","","","","",""
"ДО «Черемушки» Филиала № 7701 Банка ВТБ (ПАО)","117393, г. Москва, ул. Профсоюзная, д. 56","","открытая","Не обслуживает ЮЛ","null","нет РКО","","пн","10:00-20:00","Да (Зона Привилегия)","Розничный (РБ)","Y","N","55.670021","37.552479","Москва, Калужско-Рижская линия, метро Новые Черёмушки","10271","False","False"
"","","","","","","","","вт","10:00-20:00","","","","","","","","","",""
"","","","","","","","","ср","10:00-20:00","","","","","","","","","",""
"","","","","","","","","чт","10:00-20:00","","","","","","","","","",""
"","","","","","","","","пт","10:00-20:00","","","","","","","","","",""
"","","","","","","","","сб","10:00-17:00","","","","","","","","","",""
"","","","","","","","","вс","выходной","","","","","","","","","",""
"ДО «Юго-Западный» Филиала № 7701 Банка ВТБ (ПАО)","119526, г. Москва, просп. Вернадского, д. 105, корп. 3","","открытая","Не обслуживает ЮЛ","null","нет РКО","","пн","09:00-20:00","Да (Зона Привилегия)","Розничный (РБ)","Y","N","55.663811","37.484863","Москва, Сокольническая линия, метро Юго-Западная","13149","False","False"
"","","","","","","","","вт","09:00-20:00","","","","","","","","","",""
"","","","","","","","","ср","09:00-20:00","","","","","","","","","",""
"","","","","","","","","чт","09:00-20:00","","","","","","","","","",""
"","","","","","","","","пт","09:00-20:00","","","","","","","","","",""
"","","","","","","","","сб","10:00-17:00","","","","","","","","","",""
"","","","","","","","","вс","выходной","","","","","","","","","",""
"ДО «Нахимовский проспект» Филиала № 7701 Банка ВТБ (ПАО)","117638, г. Москва, Нахимовский пр-т, д. 11, кор. 1","","открытая","пн","10:00-19:00","есть РКО","","пн","10:00-19:00","Да (Зона Привилегия)","Универсальный","Y","N","55.663513","37.6054","Москва, Серпуховско-Тимирязевская линия, метро Нахимовский проспект","10116","True","False"
"","","","","вт","10:00-19:00","","","вт","10:00-19:00","","","","","","","","","",""
"","","","","ср","10:00-19:00","","","ср","10:00-19:00","","","","","","","","","",""
"","","","","чт","10:00-19:00","","","чт","10:00-19:00","","","","","","","","","",""
"","","","","пт","10:00-18:00","","","пт","10:00-19:00","","","","","","","","","",""
"","","","","сб","выходной","","","сб","выходной","","","","","","","","","",""
"","","","","вс","выходной","","","вс","выходной","","","","","","","","","",""
"ДО «Марьинский» Филиала № 7701 Банка ВТБ (ПАО)","109341, г. Москва, ул. Верхние поля, д. 14, корп. 1, м. «Братиславская»","","открытая","пн-чт","09:00-18:00","нет РКО","","пн-пт","09:00-20:00","Да (Зона Привилегия)","Стандарт+бизнес отдел","Y","N","55.66169","37.747414","null","12995","null","False"
"","","","","пт","09:00-16:45","","","сб","10:00-17:00","","","","","","","","","",""
"","","","","сб,вс","выходной","","","вс","выходной","","","","","","","","","",""
"ДО «Обручевский» Филиала № 7701 Банка ВТБ (ПАО)","119421, г. Москва, Ленинский пр-т, д. 111, корп. 1","","открытая","Не обслуживает ЮЛ","null","нет РКО","","пн","09:00-20:00","Да (Офис Привилегия)","Привилегия (РБ)","N","Y","55.661331","37.509354","null","12442","False","False"
"","","","","","","","","вт","09:00-20:00","","","","","","","","","",""
"","","","","","","","","ср","09:00-20:00","","","","","","","","","",""
"","","","","","","","","чт","09:00-20:00","","","","","","","","","",""
"","","","","","","","","пт","09:00-20:00","","","","","","","","","",""
"","","","","","","","","сб","10:00-17:00","","","","","","","","","",""
"","","","","","","","","вс","выходной","","","","","","","","","",""
"ДО «На Октябрьском» Филиала № 7701 Банка ВТБ (ПАО)","140006, Московская область, г. Люберцы, Октябрьский пр-т, д. 380д","","открытая","пн","09:00-18:00","есть РКО","","пн","09:00-20:00","Да","Универсальный","Y","Y","55.660671","37.91338","null","21090","False","False"
"","","","","вт","09:00-18:00","","","вт","09:00-20:00","","","","","","","","","",""
"","","","","ср","09:00-18:00","","","ср","09:00-20:00","","","","","","","","","",""
"","","","","чт","09:00-18:00","","","чт","09:00-20:00","","","","","","","","","",""
"","","","","пт","09:00-17:00","","","пт","09:00-20:00","","","","","","","","","",""
"","","","","сб","выходной","","","сб","10:00-17:00","","","","","","","","","",""
"","","","","вс","выходной","","","вс","выходной","","","","","","","","","",""
"ДО «Марьинский парк» Филиала № 7701 Банка ВТБ (ПАО)","109451, г. Москва, ул. Братиславская, д. 14","","открытая","Не обслуживает ЮЛ","null","null","","пн","09:00-20:00","Да","Розничный (РБ)","Y","N","55.659122","37.755016","Москва, Люблинско-Дмитровская линия, метро Братиславская","13514","False","False"
"","","","","","","","","вт","09:00-20:00","","","","","","","","","",""
"","","","","","","","","ср","09:00-20:00","","","","","","","","","",""
"","","","","","","","","чт","09:00-20:00","","","","","","","","","",""
"","","","","","","","","пт","09:00-20:00","","","","","","","","","",""
"","","","","","","","","сб","10:00-17:00","","","","","","","","","",""
"","","","","","","","","вс","выходной","","","","","","","","","",""
"ДО «Каширский» Филиала № 7701 Банка ВТБ (ПАО)","115522, г. Москва, Каширское шоссе, д. 26, корп. 2","","открытая","Не обслуживает ЮЛ","null","нет РКО","","пн","10:00-19:00","Да","Розничный (РБ)","Y","N","55.653519","37.648178","Москва, Большая кольцевая линия, метро Каширская","11318","False","False"
"","","","","","","","","вт","10:00-19:00","","","","","","","","","",""
"","","","","","","","","ср","10:00-19:00","","","","","","","","","",""
"","","","","","","","","чт","10:00-19:00","","","","","","","","","",""
"","","","","","","","","пт","10:00-19:00","","","","","","","","","",""
"","","","","","","","","сб","выходной","","","","","","","","","",""
"","","","","","","","","вс","выходной","","","","","","","","","",""
"ДО «Нагорно-Южный» Филиала № 7701 Банка ВТБ (ПАО)","117556, г. Москва, Варшавское шоссе, д. 87","","открытая","Не обслуживает ЮЛ","null","нет РКО","","пн","10:00-19:00","Да (Зона Привилегия)","Розничный (РБ)","Y","N","55.652939","37.620697","Москва, Большая кольцевая линия, метро Варшавская","11248","False","False"
"","","","","","","","","вт","10:00-19:00","","","","","","","","","",""
"","","","","","","","","ср","10:00-19:00","","","","","","","","","",""
"","","","","","","","","чт","10:00-19:00","","","","","","","","","",""
"","","","","","","","","пт","10:00-19:00","","","","","","","","","",""
"","","","","","","","","сб","выходной","","","","","","","","","",""
"","","","","","","","","вс","выходной","","","","","","","","","",""
"ДО «Солнцево» Филиала № 7701 Банка ВТБ (ПАО)","119620, г. Москва, ул. Богданова, д. 50","","открытая","пн","09:00-18:00","есть РКО","","пн","09:00-20:00","Да","Универсальный","Y","N","55.650631","37.394447","Москва, Калининско-Солнцевская линия, метро Солнцево","18243","False","False"
"","","","","вт","09:00-18:00","","","вт","09:00-20:00","","","","","","","","","",""
"","","","","ср","09:00-18:00","","","ср","09:00-20:00","","","","","","","","","",""
"","","","","чт","09:00-18:00","","","чт","09:00-20:00","","","","","","","","","",""
"","","","","пт","09:00-17:00","","","пт","09:00-20:00","","","","","","","","","",""
"","","","","сб","выходной","","","сб","10:00-17:00","","","","","","","","","",""
"","","","","вс","выходной","","","вс","выходной","","","","","","","","","",""
"ДО «Марьино» Филиала № 7701 Банка ВТБ (ПАО)","109652, г. Москва, ул. Люблинская, д. 165","","открытая","пн","09:00-18:00","есть РКО","","пн","09:00-20:00","Да (Зона Привилегия)","Универсальный","Y","Y","55.650505","37.745926","Москва, Люблинско-Дмитровская линия, метро Марьино","13947","True","False"
"","","","","вт","09:00-18:00","","","вт","09:00-20:00","","","","","","","","","",""
"","","","","ср","09:00-18:00","","","ср","09:00-20:00","","","","","","","","","",""
"","","","","чт","09:00-18:00","","","чт","09:00-20:00","","","","","","","","","",""
"","","","","пт","09:00-17:00","","","пт","09:00-20:00","","","","","","","","","",""
"","","","","сб","выходной","","","сб","10:00-17:00","","","","","","","","","",""
"","","","","вс","выходной","","","вс","выходной","","","","","","","","","",""
"ДО «На Профсоюзной» Филиала № 7701 Банка ВТБ (ПАО)","117485, г. Москва, ул. Профсоюзная, д. 102А","","открытая","Не обслуживает ЮЛ","null","нет РКО","","пн","10:00-19:00","Нет","Розничный (РБ)","Y","N","55.644238","37.52652","Москва, Калужско-Рижская линия, метро Беляево","13558","False","False"
"","","","","","","","","вт","10:00-19:00","","","","","","","","","",""
"","","","","","","","","ср","10:00-19:00","","","","","","","","","",""
"","","","","","","","","чт","10:00-19:00","","","","","","","","","",""
"","","","","","","","","пт","10:00-19:00","","","","","","","","","",""
"","","","","","","","","сб","выходной","","","","","","","","","",""
"","","","","","","","","вс","выходной","","","","","","","","","",""
"ДО «Беляево» Филиала № 7701 Банка ВТБ (ПАО)","117437, г. Москва, ул. Профсоюзная, д. 104","","открытая","Не обслуживает ЮЛ","null","нет РКО","","пн","09:00-20:00","Да","Розничный (РБ)","Y","N","55.641918","37.523464","Москва, Калужско-Рижская линия, метро Беляево","13874","False","False"
"","","","","","","","","вт","09:00-20:00","","","","","","","","","",""
"","","","","","","","","ср","09:00-20:00","","","","","","","","","",""
"","","","","","","","","чт","09:00-20:00","","","","","","","","","",""
"","","","","","","","","пт","09:00-20:00","","","","","","","","","",""
"","","","","","","","","сб","10:00-17:00","","","","","","","","","",""
"","","","","","","","","вс","выходной","","","","","","","","","",""
"Тест6","119634, Москва, скульптора мухиной, д.5","test111112","открытая","Не обслуживает ЮЛ","null","нет РКО","null","Не обслуживает ФЛ","null","Да","Розничный (РБ)","N","N","55.640842","37.345436","null","21342","False","False"
"test1","119634, москва, скульптора мухиной д.5","test111111","открытая","Не обслуживает ЮЛ","null","нет РКО","null","Не обслуживает ФЛ","null","да","Розничный (РБ)","N","N","55.640842","37.345436","null","21342","False","False"
"ДО «Чертаново» Филиала № 7701 Банка ВТБ (ПАО)","117208, г. Москва, ул. Чертановская, д. 1в, корп. 1","","открытая","Не обслуживает ЮЛ","null","нет РКО","","пн","10:00-20:00","Да (Зона Привилегия)","Розничный (РБ)","Y","N","55.639462","37.607143","Москва, Серпуховско-Тимирязевская линия, метро Чертановская","12774","False","False"
"","","","","","","","","вт","10:00-20:00","","","","","","","","","",""
"","","","","","","","","ср","10:00-20:00","","","","","","","","","",""
"","","","","","","","","чт","10:00-20:00","","","","","","","","","",""
"","","","","","","","","пт","10:00-20:00","","","","","","","","","",""
"","","","","","","","","сб","10:00-17:00","","","","","","","","","",""
"","","","","","","","","вс","выходной","","","","","","","","","",""
"ДО «Кантемировский» Филиала № 7701 Банка ВТБ (ПАО)","115447, г. Москва, ул. Кантемировская, д. 47","","открытая","Не обслуживает ЮЛ","null","нет РКО","","пн","10:00-19:00","Да (Зона Привилегия)","Розничный (РБ)","Y","N","55.637798","37.656181","Москва, Замоскворецкая линия, метро Кантемировская","13124","False","False"
"","","","","","","","","вт","10:00-19:00","","","","","","","","","",""
"","","","","","","","","ср","10:00-19:00","","","","","","","","","",""
"","","","","","","","","чт","10:00-19:00","","","","","","","","","",""
"","","","","","","","","пт","10:00-19:00","","","","","","","","","",""
"","","","","","","","","сб","10:00-17:00","","","","","","","","","",""
"","","","","","","","","вс","выходной","","","","","","","","","",""
"ДО «Площадь Дмитрия Донского» Филиала № 7701 Банка ВТБ (ПАО)","140091, Московская обл., г. Дзержинский, пл. Дмитрия Донского, д. 6","","открытая","пн","10:00-19:00","есть РКО","","пн","10:00-19:00","Да","Универсальный","Y","N","55.629959","37.850281","null","19952","False","False"
"","","","","вт","10:00-19:00","","","вт","10:00-19:00","","","","","","","","","",""
"","","","","ср","10:00-19:00","","","ср","10:00-19:00","","","","","","","","","",""
"","","","","чт","10:00-19:00","","","чт","10:00-19:00","","","","","","","","","",""
"","","","","пт","10:00-18:00","","","пт","10:00-19:00","","","","","","","","","",""
"","","","","сб","выходной","","","сб","выходной","","","","","","","","","",""
"","","","","вс","выходной","","","вс","выходной","","","","","","","","","",""
"ДО «Южный» Филиала № 7701 Банка ВТБ (ПАО)","117587, г. Москва, район Чертаново Северное, ул. Кировоградская, д. 14","","открытая","Не обслуживает ЮЛ","null","нет РКО","","пн","10:00-20:00","Да (Зона Привилегия)","Розничный (РБ)","Y","Y","55.622608","37.605938","Москва, Серпуховско-Тимирязевская линия, метро Южная","14649","False","False"
"","","","","","","","","вт","10:00-20:00","","","","","","","","","",""
"","","","","","","","","ср","10:00-20:00","","","","","","","","","",""
"","","","","","","","","чт","10:00-20:00","","","","","","","","","",""
"","","","","","","","","пт","10:00-20:00","","","","","","","","","",""
"","","","","","","","","сб","10:00-17:00","","","","","","","","","",""
"","","","","","","","","вс","выходной","","","","","","","","","",""
"ДО «Спектр» Филиала № 7701 Банка ВТБ (ПАО)","117588, г. Москва, Новоясеневский пр-т, д. 1","","открытая","Не обслуживает ЮЛ","null","null","","пн","10:00-22:00","Да","Розничный (РБ)","Y","N","55.619473","37.509289","Москва, Калужско-Рижская линия, метро Тёплый Стан","16510","False","False"
"","","","","","","","","вт","10:00-22:00","","","","","","","","","",""
"","","","","","","","","ср","10:00-22:00","","","","","","","","","",""
"","","","","","","","","чт","10:00-22:00","","","","","","","","","",""
"","","","","","","","","пт","10:00-22:00","","","","","","","","","",""
"","","","","","","","","сб","10:00-22:00","","","","","","","","","",""
"","","","","","","","","вс","10:00-22:00","","","","","","","","","",""
"ДО «Теплый стан» Филиала № 7701 Банка ВТБ (ПАО)","117574, г. Москва, ул. Профсоюзная, д. 129А","","открытая","пн-чт","09:00-18:00","нет РКО","","пн-пт","09:00-20:00","Да (Зона Привилегия)","Стандарт+бизнес отдел","Y","N","55.61813","37.507484","null","16693","null","False"
"","","","","пт","09:00-17:00","","","сб","10:00-17:00","","","","","","","","","",""
"","","","","сб,вс","выходной","","","вс","10:00-17:00","","","","","","","","","",""
"ДО «Твин Плаза» Филиала № 7701 Банка ВТБ (ПАО)","117574, г. Москва, Новоясеневский пр-т вл. 2а, стр. 1","","открытая","пн","10:00-19:00","есть РКО","","пн","10:00-19:00","Да (Зона Привилегия)","Универсальный","Y","N","55.617748","37.505722","Москва, Калужско-Рижская линия, метро Тёплый Стан","16779","True","False"
"","","","","вт","10:00-19:00","","","вт","10:00-19:00","","","","","","","","","",""
"","","","","ср","10:00-19:00","","","ср","10:00-19:00","","","","","","","","","",""
"","","","","чт","10:00-19:00","","","чт","10:00-19:00","","","","","","","","","",""
"","","","","пт","10:00-18:00","","","пт","10:00-19:00","","","","","","","","","",""
"","","","","сб","выходной","","","сб","10:00-17:00","","","","","","","","","",""
"","","","","вс","выходной","","","вс","10:00-17:00","","","","","","","","","",""
"ДО «Домодедовский» Филиала № 7701 Банка ВТБ (ПАО)","115563, г. Москва, ул. Генерала Белова, д. 33А","","открытая","пн","10:00-19:00","есть РКО","","пн","10:00-19:00","Да (Зона Привилегия)","Универсальный","Y","Y","55.612274","37.722126","Москва, Замоскворецкая линия, метро Домодедовская","17010","False","False"
"","","","","вт","10:00-19:00","","","вт","10:00-19:00","","","","","","","","","",""
"","","","","ср","10:00-19:00","","","ср","10:00-19:00","","","","","","","","","",""
"","","","","чт","10:00-19:00","","","чт","10:00-19:00","","","","","","","","","",""
"","","","","пт","10:00-18:00","","","пт","10:00-19:00","","","","","","","","","",""
"","","","","сб","выходной","","","сб","10:00-17:00","","","","","","","","","",""
"","","","","вс","выходной","","","вс","выходной","","","","","","","","","",""
"ДО «Орехово-Борисовский» Филиала № 7701 Банка ВТБ (ПАО)","115551, г. Москва, Ореховый бульвар, д. 13","","открытая","пн","10:00-19:00","нет РКО","","пн","10:00-19:00","Да (Зона Привилегия)","Универсальный","Y","N","55.611511","37.71962","Москва, Замоскворецкая линия, метро Домодедовская","17031","True","False"
"","","","","вт","10:00-19:00","","","вт","10:00-19:00","","","","","","","","","",""
"","","","","ср","10:00-19:00","","","ср","10:00-19:00","","","","","","","","","",""
"","","","","чт","10:00-19:00","","","чт","10:00-19:00","","","","","","","","","",""
"","","","","пт","10:00-18:00","","","пт","10:00-19:00","","","","","","","","","",""
"","","","","сб","выходной","","","сб","10:00-17:00","","","","","","","","","",""
"","","","","вс","выходной","","","вс","выходной","","","","","","","","","",""
"ДО «Румянцево» Филиала № 7701 Банка ВТБ (ПАО)","108811, г. Москва, п. Московский, Киевское шоссе, 22-й км, домовл. 4, стр.1","","открытая","пн","10:00-19:00","есть РКО","","пн","10:00-19:00","Да (Зона Привилегия)","Универсальный","Y","Y","55.610489","37.360321","null","22821","True","False"
"","","","","вт","10:00-19:00","","","вт","10:00-19:00","","","","","","","","","",""
"","","","","ср","10:00-19:00","","","ср","10:00-19:00","","","","","","","","","",""
"","","","","чт","10:00-19:00","","","чт","10:00-19:00","","","","","","","","","",""
"","","","","пт","10:00-18:00","","","пт","10:00-19:00","","","","","","","","","",""
"","","","","сб","выходной","","","сб","10:00-17:00","","","","","","","","","",""
"","","","","вс","выходной","","","вс","выходной","","","","","","","","","",""
"ДО «Новоясеневский» Филиала № 7701 Банка ВТБ (ПАО)","117588, г. Москва, Новоясеневский пр-т, д. 9","","открытая","пн","09:00-18:00","есть РКО","","пн","09:00-20:00","Да (Зона Привилегия)","Универсальный","Y","Y","55.608814","37.535412","Москва, Калужско-Рижская линия, метро Ясенево","17010","True","False"
"","","","","вт","09:00-18:00","","","вт","09:00-20:00","","","","","","","","","",""
"","","","","ср","09:00-18:00","","","ср","09:00-20:00","","","","","","","","","",""
"","","","","чт","09:00-18:00","","","чт","09:00-20:00","","","","","","","","","",""
"","","","","пт","09:00-17:00","","","пт","09:00-20:00","","","","","","","","","",""
"","","","","сб","выходной","","","сб","10:00-17:00","","","","","","","","","",""
"","","","","вс","выходной","","","вс","выходной","","","","","","","","","",""
"ДО «Аэропорт Внуково» Филиала № 7701 Банка ВТБ (ПАО)","119027, г. Москва, ул. Рейсовая 2-я, д. 2, корп. 5","","открытая","Не обслуживает ЮЛ","null","null","","пн","09:00-18:00","Да","Розничный (РБ)","N","Y","55.605225","37.286346","null","26695","False","False"
"","","","","","","","","вт","09:00-18:00","","","","","","","","","",""
"","","","","","","","","ср","09:00-18:00","","","","","","","","","",""
"","","","","","","","","чт","09:00-18:00","","","","","","","","","",""
"","","","","","","","","пт","09:00-18:00","","","","","","","","","",""
"","","","","","","","","сб","выходной","","","","","","","","","",""
"","","","","","","","","вс","выходной","","","","","","","","","",""
"ДО «Ясенево» Филиала № 7701 Банка ВТБ (ПАО)","117463, г. Москва, Новоясеневский пр-т, д. 32, к.1","","открытая","Не обслуживает ЮЛ","null","null","","пн-пт","09:00-20:00","Да","Мини_расш","Y","N","55.604027","37.539474","null","17441","null","False"
"","","","","","","","","сб","10:00-17:00","","","","","","","","","",""
"","","","","","","","","вс","выходной","","","","","","","","","",""
"ДО «Жуковский» Филиала № 7701 Банка ВТБ (ПАО)","140180, Московская область, г. Жуковский, ул. Жуковского, д. 9","","открытая","Не обслуживает ЮЛ","null","нет РКО","","пн","09:00-18:00","Да","Розничный (РБ)","Y","Y","55.599064","38.11832","null","35662","True","False"
"","","","","","","","","вт","09:00-18:00","","","","","","","","","",""
"","","","","","","","","ср","09:00-18:00","","","","","","","","","",""
"","","","","","","","","чт","09:00-18:00","","","","","","","","","",""
"","","","","","","","","пт","09:00-18:00","","","","","","","","","",""
"","","","","","","","","сб","выходной","","","","","","","","","",""
"","","","","","","","","вс","выходной","","","","","","","","","",""
"ДО «На Янгеля» Филиала № 7701 Банка ВТБ (ПАО)","117534, г. Москва, ул. Академика Янгеля, д. 2","","открытая","пн","10:00-19:00","есть РКО","","пн","10:00-19:00","Да (Зона Привилегия)","Универсальный","Y","Y","55.596458","37.599823","Москва, Серпуховско-Тимирязевская линия, метро Улица Академика Янгеля","17576","True","False"
"","","","","вт","10:00-19:00","","","вт","10:00-19:00","","","","","","","","","",""
"","","","","ср","10:00-19:00","","","ср","10:00-19:00","","","","","","","","","",""
"","","","","чт","10:00-19:00","","","чт","10:00-19:00","","","","","","","","","",""
"","","","","пт","10:00-18:00","","","пт","10:00-19:00","","","","","","","","","",""
"","","","","сб","выходной","","","сб","10:00-17:00","","","","","","","","","",""
"","","","","вс","выходной","","","вс","выходной","","","","","","","","","",""
"ДО «Россошанский» Филиала № 7701 Банка ВТБ ПАО)","117535, г. Москва, ул. Россошанская, д. 1","","открытая","Не обслуживает ЮЛ","null","null","","пн-пт","09:00-20:00","Да","Стандарт","Y","Y","55.595806","37.606354","null","17623","null","False"
"","","","","","","","","сб","10:00-17:00","","","","","","","","","",""
"","","","","","","","","вс","выходной","","","","","","","","","",""
"ДО «Жуковский Центральный» Филиала № 7701 Банка ВТБ (ПАО)","140185, Московская область, г. Жуковский, ул. Ломоносова, д. 4","","открытая","пн","09:00-18:00","есть РКО","","пн","09:00-19:00","Да (Зона Привилегия)","Универсальный","Y","Y","55.589993","38.123306","null","36433","False","False"
"","","","","вт","09:00-18:00","","","вт","09:00-19:00","","","","","","","","","",""
"","","","","ср","09:00-18:00","","","ср","09:00-19:00","","","","","","","","","",""
"","","","","чт","09:00-18:00","","","чт","09:00-19:00","","","","","","","","","",""
"","","","","пт","09:00-17:00","","","пт","09:00-19:00","","","","","","","","","",""
"","","","","сб","выходной","","","сб","10:00-17:00","","","","","","","","","",""
"","","","","вс","выходной","","","вс","выходной","","","","","","","","","",""
"ДО «На Красноармейской» Филиала № 7701 Банка ВТБ (ПАО)","140100, Московская область, г. Раменское, ул. Красноармейская, д. 3","","открытая","пн-чт","09:00-18:00","нет РКО","","пн-пт","09:00-18:00","Да","Универсальный","N","N","55.573448","38.23138","null","43265","null","False"
"","","","","пт","09:00-17:00","","","сб,вс","выходной","","","","","","","","","",""
"","","","","сб,вс","выходной","","","","","","","","","","","","","",""
"ДО «Раменский» Филиала № 7701 Банка ВТБ (ПАО)","140108, Московская область, г. Раменское, ул. Карла Маркса, д. 4, помещение № 1","","открытая","пн","09:00-18:00","есть РКО","","пн","09:00-19:00","Да (Зона Привилегия)","Универсальный","Y","Y","55.568867","38.226074","null","43213","True","False"
"","","","","вт","09:00-18:00","","","вт","09:00-19:00","","","","","","","","","",""
"","","","","ср","09:00-18:00","","","ср","09:00-19:00","","","","","","","","","",""
"","","","","чт","09:00-18:00","","","чт","09:00-19:00","","","","","","","","","",""
"","","","","пт","09:00-17:00","","","пт","09:00-19:00","","","","","","","","","",""
"","","","","сб","выходной","","","сб","10:00-17:00","","","","","","","","","",""
"","","","","вс","выходной","","","вс","выходной","","","","","","","","","",""
"ДО «На Советской» в г. Раменское Филиала № 7701 Банка ВТБ (ПАО)","140108, Московская область, г. Раменское, ул. Советская, д.1Б","","открытая","Не обслуживает ЮЛ","null","нет РКО","","пн-пт","09:00-20:00","Да","Микро (РБ)","N","N","55.566872","38.22929","0","43497","null","False"
"","","","","","","","","cб","10:00-17:00","","","","","","","","","",""
"","","","","","","","","вс","выходной","","","","","","","","","",""
"ДО «Бутовский» Филиала № 7701 Банка ВТБ (ПАО)","117216, г. Москва, бульвар Дмитрия Донского, д.11","","открытая","Не обслуживает ЮЛ","null","нет РКО","","пн","09:00-20:00","Да (Зона Привилегия)","Розничный (РБ)","Y","N","55.566807","37.576393","Москва, Бутовская линия, метро Улица Старокачаловская","21007","False","False"
"","","","","","","","","вт","09:00-20:00","","","","","","","","","",""
"","","","","","","","","ср","09:00-20:00","","","","","","","","","",""
"","","","","","","","","чт","09:00-20:00","","","","","","","","","",""
"","","","","","","","","пт","09:00-20:00","","","","","","","","","",""
"","","","","","","","","сб","10:00-17:00","","","","","","","","","",""
"","","","","","","","","вс","выходной","","","","","","","","","",""
"ДО «Видное» Филиала № 7701 Банка ВТБ (ПАО)","142700, Московская область, г. Видное, Советский пр-д, д. 4","","открытая","пн","09:00-18:00","нет РКО","","пн","09:00-18:00","Да","Универсальный","Y","N","55.555126","37.708778","null","22808","True","False"
"","","","","вт","09:00-18:00","","","вт","09:00-18:00","","","","","","","","","",""
"","","","","ср","09:00-18:00","","","ср","09:00-18:00","","","","","","","","","",""
"","","","","чт","09:00-18:00","","","чт","09:00-18:00","","","","","","","","","",""
"","","","","пт","09:00-17:00","","","пт","09:00-18:00","","","","","","","","","",""
"","","","","сб","выходной","","","сб","выходной","","","","","","","","","",""
"","","","","вс","выходной","","","вс","выходной","","","","","","","","","",""
"ДО «Бульвар Ушакова» Филиала № 7701 Банка ВТБ (ПАО)","117024, г. Москва, бульвар Адмирала Ушакова, д. 2","","открытая","Не обслуживает ЮЛ","null","null","","пн","10:00-19:00","Да","Розничный (РБ)","Y","N","55.548573","37.553246","Москва, Бутовская линия, метро Улица Скобелевская","23238","False","False"
"","","","","","","","","вт","10:00-19:00","","","","","","","","","",""
"","","","","","","","","ср","10:00-19:00","","","","","","","","","",""
"","","","","","","","","чт","10:00-19:00","","","","","","","","","",""
"","","","","","","","","пт","10:00-19:00","","","","","","","","","",""
"","","","","","","","","сб","выходной","","","","","","","","","",""
"","","","","","","","","вс","выходной","","","","","","","","","",""
"ДО «На Венёвской» Филиала № 7701 Банка ВТБ (ПАО)","117042, г. Москва, ул. Веневская, д.6","","открытая","пн","09:00-18:00","есть РКО","","пн","09:00-20:00","Да (Зона Привилегия)","Универсальный","Y","N","55.547852","37.543255","Москва, Бутовская линия, метро Бульвар Адмирала Ушакова","23438","True","False"
"","","","","вт","09:00-18:00","","","вт","09:00-20:00","","","","","","","","","",""
"","","","","ср","09:00-18:00","","","ср","09:00-20:00","","","","","","","","","",""
"","","","","чт","09:00-18:00","","","чт","09:00-20:00","","","","","","","","","",""
"","","","","пт","09:00-17:00","","","пт","09:00-20:00","","","","","","","","","",""
"","","","","сб","выходной","","","сб","10:00-17:00","","","","","","","","","",""
"","","","","вс","выходной","","","вс","выходной","","","","","","","","","",""
"ДО «Видновский» Филиала № 7701 Банка ВТБ (ПАО)","142701, Московская область, г. Видное, просп. Ленинского Комсомола, д.17 корп.2","","открытая","пн","09:00-18:00","есть РКО","","пн","09:00-20:00","Да (Зона Привилегия)","Универсальный","Y","N","55.545261","37.708141","null","23865","True","False"
"","","","","вт","09:00-18:00","","","вт","09:00-20:00","","","","","","","","","",""
"","","","","ср","09:00-18:00","","","ср","09:00-20:00","","","","","","","","","",""
"","","","","чт","09:00-18:00","","","чт","09:00-20:00","","","","","","","","","",""
"","","","","пт","09:00-17:00","","","пт","09:00-20:00","","","","","","","","","",""
"","","","","сб","выходной","","","сб","10:00-17:00","","","","","","","","","",""
"","","","","вс","выходной","","","вс","выходной","","","","","","","","","",""
"ДО «Троицк» Филиала № 7701 Банка ВТБ (ПАО)","142190, г. Москва, г. Троицк, Октябрьский пр-т, д. 17 Б","","открытая","пн","09:00-18:00","есть РКО","","пн","09:00-20:00","Да (Зона Привилегия)","Универсальный","Y","Y","55.478329","37.298706","null","36720","True","False"
"","","","","вт","09:00-18:00","","","вт","09:00-20:00","","","","","","","","","",""
"","","","","ср","09:00-18:00","","","ср","09:00-20:00","","","","","","","","","",""
"","","","","чт","09:00-18:00","","","чт","09:00-20:00","","","","","","","","","",""
"","","","","пт","09:00-17:00","","","пт","09:00-20:00","","","","","","","","","",""
"","","","","сб","выходной","","","сб","10:00-17:00","","","","","","","","","",""
"","","","","вс","выходной","","","вс","выходной","","","","","","","","","",""
"ДО «На Каширском» Филиала № 7701 Банка ВТБ (ПАО)","142000, Московская область, г. Домодедово, микрорайон Центральный, Каширское шоссе, д. 29","","открытая","пн","09:00-18:00","есть РКО","","пн","09:00-20:00","Да (Зона Привилегия)","Универсальный","Y","Y","55.43874","37.767536","null","36264","True","False"
"","","","","вт","09:00-18:00","","","вт","09:00-20:00","","","","","","","","","",""
"","","","","ср","09:00-18:00","","","ср","09:00-20:00","","","","","","","","","",""
"","","","","чт","09:00-18:00","","","чт","09:00-20:00","","","","","","","","","",""
"","","","","пт","09:00-17:00","","","пт","09:00-20:00","","","","","","","","","",""
"","","","","сб","выходной","","","сб","10:00-17:00","","","","","","","","","",""
"","","","","вс","выходной","","","вс","выходной","","","","","","","","","",""
"ДО «Подольский» Филиала № 7701 Банка ВТБ (ПАО)","142100, Московская область, г. Подольск, Революционный пр-т, д. 54","","открытая","пн","09:00-18:00","есть РКО","","пн","09:00-20:00","Да (Зона Привилегия)","Универсальный","Y","Y","55.432919","37.550838","null","35979","True","False"
"","","","","вт","09:00-18:00","","","вт","09:00-20:00","","","","","","","","","",""
"","","","","ср","09:00-18:00","","","ср","09:00-20:00","","","","","","","","","",""
"","","","","чт","09:00-18:00","","","чт","09:00-20:00","","","","","","","","","",""
"","","","","пт","09:00-17:00","","","пт","09:00-20:00","","","","","","","","","",""
"","","","","сб","выходной","","","сб","10:00-17:00","","","","","","","","","",""
"","","","","вс","выходной","","","вс","выходной","","","","","","","","","",""
"ДО «Центральный» в г. Подольске Филиала № 7701 Банка ВТБ (ПАО)","142100, Московская область, г. Подольск, ул. Комсомольская, д. 1, стр.1а, помещение I","","открытая","пн","09:00-18:00","есть РКО","","пн","09:00-20:00","Да (Зона Привилегия)","Универсальный","Y","Y","55.427883","37.55011","null","36541","True","False"
"","","","","вт","09:00-18:00","","","вт","09:00-20:00","","","","","","","","","",""
"","","","","ср","09:00-18:00","","","ср","09:00-20:00","","","","","","","","","",""
"","","","","чт","09:00-18:00","","","чт","09:00-20:00","","","","","","","","","",""
"","","","","пт","09:00-17:00","","","пт","09:00-20:00","","","","","","","","","",""
"","","","","сб","выходной","","","сб","10:00-17:00","","","","","","","","","",""
"","","","","вс","выходной","","","вс","выходной","","","","","","","","","",""
"ДО «Московский» в г. Московском Филиала № 7701 Банка ВТБ (ПАО)","108811, Московская область, г. Moскoвский, мкр. 3-й, строен. 9а","","открытая","Не обслуживает ЮЛ","null","нет РКО","","пн","09:00-19:00","Да","Розничный (РБ)","Y","N","55.427708","37.104725","null","48653","False","False"
"","","","","","","","","вт","09:00-19:00","","","","","","","","","",""
"","","","","","","","","ср","09:00-19:00","","","","","","","","","",""
"","","","","","","","","чт","09:00-19:00","","","","","","","","","",""
"","","","","","","","","пт","09:00-19:00","","","","","","","","","",""
"","","","","","","","","сб","10:00-15:00","","","","","","","","","",""
"","","","","","","","","вс","выходной","","","","","","","","","",""
"ДО «Бронницкий» Филиала № 7701 Банка ВТБ (ПАО)","140170, Московская обл.,г. Бронницы, ул. Ново-Бронницкая, д. 52","","открытая","пн","09:00-18:00","есть РКО","","пн","09:00-18:00","Да","Универсальный","Y","N","55.421104","38.260525","null","54672","True","False"
"","","","","вт","09:00-18:00","","","вт","09:00-18:00","","","","","","","","","",""
"","","","","ср","09:00-18:00","","","ср","09:00-18:00","","","","","","","","","",""
"","","","","чт","09:00-18:00","","","чт","09:00-18:00","","","","","","","","","",""
"","","","","пт","09:00-17:00","","","пт","09:00-18:00","","","","","","","","","",""
"","","","","сб","выходной","","","сб","выходной","","","","","","","","","",""
"","","","","вс","выходной","","","вс","выходной","","","","","","","","","",""
"ДО «ЗИО Подольск» Филиала № 7701 Банка ВТБ (ПАО)","142103, Московская область, г. Подольск, ул. Железнодорожная, д. 2","","открытая","Не обслуживает ЮЛ","null","нет РКО","","пн","09:00-18:00","Да","Микро (РБ)","N","N","55.419247","37.570042","null","37367","False","False"
"","","","","","","","","вт","09:00-18:00","","","","","","","","","",""
"","","","","","","","","ср","09:00-18:00","","","","","","","","","",""
"","","","","","","","","чт","09:00-18:00","","","","","","","","","",""
"","","","","","","","","пт","09:00-18:00","","","","","","","","","",""
"","","","","","","","","сб","выходной","","","","","","","","","",""
"","","","","","","","","вс","выходной","","","","","","","","","",""
